,Type,Name,Phone,Address,City,Pincode,Country,Timings,Mode_of_Payment,Currency,Link_to_profile
0,Pharmacy,A A Pharma,(0522) 2297197,"Shop No-6,1st Flr, J &amp; K Medicine Mkt, Aminabad, Lucknow",Lucknow,226018,India,Monday-Sunday 8am - 9pm,Cash,INR (Indian Rupees),https://www.medicineindia.org/pharmacy-chemist-drugstore-details/41348/a-a-pharma
1,Pharmacy,A. K. Medical Store,9838646093,"19, Nazir Ganj, Daliganj, Lucknow",Lucknow,226020,India,Monday-Sunday 8am - 9pm,Cash,INR (Indian Rupees),https://www.medicineindia.org/pharmacy-chemist-drugstore-details/41030/a-k-medical-store
2,Pharmacy,AGARWAL medical store,9005642100,"3, Nr shalimar square, Novelty rd, Lalbagh, Lucknow",Lucknow,226001,India,Monday-Sunday 8am - 9pm,Cash,INR (Indian Rupees),https://www.medicineindia.org/pharmacy-chemist-drugstore-details/41106/agarwal-medical-store
3,Pharmacy,Abha Medical Store,(0522) 2638266,"57/1, Guru Govind Singh Marg, Lalkuan, Lucknow",Lucknow,226001,India,Monday-Sunday 8am - 9pm,Cash,INR (Indian Rupees),https://www.medicineindia.org/pharmacy-chemist-drugstore-details/41249/abha-medical-store
4,Pharmacy,Agarwal Medical Store,(0522) 2615048,"Abhay Singh Trust Building, 10, Narhi, Hazratganj, Lucknow",Lucknow,226001,India,Monday-Sunday 8am - 9pm,Cash,INR (Indian Rupees),https://www.medicineindia.org/pharmacy-chemist-drugstore-details/40978/agarwal-medical-store
5,Pharmacy,Agarwal Pharmaceuticals,(0522) 2627613,"Shop No-2, Ground Floor, Soloman Market, Aminabad, Lucknow",Lucknow,226018,India,Monday-Sunday 8am - 9pm,Cash,INR (Indian Rupees),https://www.medicineindia.org/pharmacy-chemist-drugstore-details/41364/agarwal-pharmaceuticals
6,Pharmacy,Agrawal medical,9918721501,"20,sahe Singh building, Narhi market, Hazratganj, Lucknow",Lucknow,226001,India,Monday-Sunday 8am - 9pm,Cash,INR (Indian Rupees),https://www.medicineindia.org/pharmacy-chemist-drugstore-details/41107/agrawal-medical
7,Pharmacy,Ajay Medical Hall,(0522) 2375302,"4, Opp. Petrol Pump, Kurshi Road, Aliganj, Lucknow",Lucknow,226024,India,Monday-Sunday 8am - 9pm,Cash,INR (Indian Rupees),https://www.medicineindia.org/pharmacy-chemist-drugstore-details/41137/ajay-medical-hall
8,Pharmacy,Ajay Medical Store,(0522) 2391581,"3/330, Vivek Khand-3, Gomti Nagar, Lucknow",Lucknow,226010,India,Monday-Sunday 8am - 9pm,Cash,INR (Indian Rupees),https://www.medicineindia.org/pharmacy-chemist-drugstore-details/41068/ajay-medical-store
9,Pharmacy,Ajay pharmacy,9935385363,"Shop no.-8-9, LDA market, vishal khand, OPP. CMS, Cms road, Gomti Nagar Lucknow, Lucknow",Lucknow,226001,India,Monday-Sunday 8am - 9pm,Cash,INR (Indian Rupees),https://www.medicineindia.org/pharmacy-chemist-drugstore-details/41287/ajay-pharmacy
10,Pharmacy,Akshat Pharma,(0522) 3914245,"Ugf-2, Jeevandan Shopping Mall, Medicine Market, Aminabad, Lucknow",Lucknow,226018,India,Monday-Sunday 8am - 9pm,Cash,INR (Indian Rupees),https://www.medicineindia.org/pharmacy-chemist-drugstore-details/41053/akshat-pharma
11,Pharmacy,Alfa Medical Store,(0522) 2227653,"Super Market, Sauza Road, Lalbagh, Lucknow",Lucknow,226001,India,Monday-Sunday 8am - 9pm,Cash,INR (Indian Rupees),https://www.medicineindia.org/pharmacy-chemist-drugstore-details/40973/alfa-medical-store
12,Pharmacy,Alia Chemist Clinic,9935225287,"1st Flr,Mari Gold Bldg, Hazratganj, Lucknow",Lucknow,226001,India,Monday-Sunday 8am - 9pm,Cash,INR (Indian Rupees),https://www.medicineindia.org/pharmacy-chemist-drugstore-details/41162/alia-chemist-clinic
13,Pharmacy,Alok Medical Store,(0522) 2638529,"LAL Kuan Chauraha, Lalkuan, Lucknow",Lucknow,226001,India,Monday-Sunday 8am - 9pm,Cash,INR (Indian Rupees),https://www.medicineindia.org/pharmacy-chemist-drugstore-details/41248/alok-medical-store
14,Pharmacy,Alora Medical Store,9305142399,"Chawla Market, Telibag Bazar, Telibagh, Lucknow",Lucknow,226002,India,Monday-Sunday 8am - 9pm,Cash,INR (Indian Rupees),https://www.medicineindia.org/pharmacy-chemist-drugstore-details/41324/alora-medical-store
15,Pharmacy,Amar Medical Store,(0522) 2352049,"Shop No -6,Bhoot Nath Builiding, Bhoot Nath, Indira Nagar Lucknow, Lucknow",Lucknow,226016,India,Monday-Sunday 8am - 9pm,Cash,INR (Indian Rupees),https://www.medicineindia.org/pharmacy-chemist-drugstore-details/41062/amar-medical-store
16,Pharmacy,Amarpushp Distributor,(0522) 2200166,"Aminabad, G-5, Kailash Tower, Aminabad, Lucknow",Lucknow,226018,India,Monday-Sunday 8am - 9pm,Cash,INR (Indian Rupees),https://www.medicineindia.org/pharmacy-chemist-drugstore-details/41378/amarpushp-distributor
17,Pharmacy,Amber Surgical,(0522) 2297240,"Shop No-6, Ist Floor, Aminabad, Lucknow",Lucknow,226018,India,Monday-Sunday 8am - 9pm,Cash,INR (Indian Rupees),https://www.medicineindia.org/pharmacy-chemist-drugstore-details/41367/amber-surgical
18,Pharmacy,Amit Vaish Om Medicine,(0522) 3481305,"268 Sadar Bazar, Sadar, Lucknow",Lucknow,226002,India,Monday-Sunday 8am - 9pm,Cash,INR (Indian Rupees),https://www.medicineindia.org/pharmacy-chemist-drugstore-details/41323/amit-vaish-om-medicine
19,Pharmacy,Amit medicals,9453591449,"Vivek khand-1, nawab purwa, Near gomti nagar station, Station road, Gomti Nagar Lucknow, Lucknow",Lucknow,226001,India,Monday-Sunday 8am - 9pm,Cash,INR (Indian Rupees),https://www.medicineindia.org/pharmacy-chemist-drugstore-details/41281/amit-medicals
20,Pharmacy,Anand Homeo Store,(0522) 2214510,"82/36, LAL Kuan, Guru Govind Singh Mg, Lucknow Gpo, Lucknow",Lucknow,226001,India,Monday-Sunday 8am - 9pm,Cash,INR (Indian Rupees),https://www.medicineindia.org/pharmacy-chemist-drugstore-details/41172/anand-homeo-store
21,Pharmacy,Anand Medical Store,(0522) 2227833,"57, Gwynne Rd, Aminabad, Lucknow",Lucknow,226018,India,Monday-Sunday 8am - 9pm,Cash,INR (Indian Rupees),https://www.medicineindia.org/pharmacy-chemist-drugstore-details/41342/anand-medical-store
22,Pharmacy,Anand Medicals,9335643070,"537/170, Purniya, Aliganj, Lucknow",Lucknow,226024,India,Monday-Sunday 8am - 9pm,Cash,INR (Indian Rupees),https://www.medicineindia.org/pharmacy-chemist-drugstore-details/41154/anand-medicals
23,Pharmacy,Angel Pharmaceuticals,(0522) 2622707,"Shop No-6a, Aminabad, Lucknow",Lucknow,226018,India,Monday-Sunday 8am - 9pm,Cash,INR (Indian Rupees),https://www.medicineindia.org/pharmacy-chemist-drugstore-details/41354/angel-pharmaceuticals
24,Pharmacy,Anju Medicals,(0522) 4012962,"Lda Shopping Complex, Behind Yadav Loha Bhandar, Opp. Sector G, Aliganj, Lucknow",Lucknow,226024,India,Monday-Sunday 8am - 9pm,Cash,INR (Indian Rupees),https://www.medicineindia.org/pharmacy-chemist-drugstore-details/41124/anju-medicals
25,Pharmacy,Anshu Medical Store,(0522) 2624376,"156 Budh Mandir, La Touche Road, Lucknow",Lucknow,226001,India,Monday-Sunday 8am - 9pm,Cash,INR (Indian Rupees),https://www.medicineindia.org/pharmacy-chemist-drugstore-details/41247/anshu-medical-store
26,Pharmacy,Anshu Medical Store,9307078165,"156, Near Budh Mandir, Latouche Road, Latouche Road, Lucknow",Lucknow,226018,India,Monday-Sunday 8am - 9pm,Cash,INR (Indian Rupees),https://www.medicineindia.org/pharmacy-chemist-drugstore-details/41376/anshu-medical-store
27,Pharmacy,Anurag Medical Store,9336666156,"3b/5, A. F. Tower, Opp. Civil Hospital, Park Road, Hazratganj, Lucknow",Lucknow,226001,India,Monday-Sunday 8am - 9pm,Cash,INR (Indian Rupees),https://www.medicineindia.org/pharmacy-chemist-drugstore-details/41092/anurag-medical-store
28,Pharmacy,Anurag Pharmaceuticals,9532996773,"31, Purvanchal Enclave, Chinhat",Lucknow,226028,India,Monday-Sunday 8am - 9pm,Cash,INR (Indian Rupees),https://www.medicineindia.org/pharmacy-chemist-drugstore-details/81809/anurag-pharmaceuticals
29,Pharmacy,Anurag medical,7275794121,"B36, Near civil hospital, Park road, Hazratganj, Lucknow",Lucknow,226001,India,Monday-Sunday 8am - 9pm,Cash,INR (Indian Rupees),https://www.medicineindia.org/pharmacy-chemist-drugstore-details/41097/anurag-medical
30,Pharmacy,Apollo Pharmacy,(0522) 4044957,"Shop No.- 525 Ka/ V - 151, P No - 8, Mahanagar Extn, Mahanagar, Lucknow",Lucknow,226006,India,Monday-Sunday 8am - 9pm,Cash,INR (Indian Rupees),https://www.medicineindia.org/pharmacy-chemist-drugstore-details/40904/apollo-pharmacy
31,Pharmacy,Apollo Pharmacy,(0522) 4044958,"Shop No- 199, P No - 569/29 K, Sneh Nagar, Alambagh, Lucknow",Lucknow,226005,India,Monday-Sunday 8am - 9pm,Cash,INR (Indian Rupees),https://www.medicineindia.org/pharmacy-chemist-drugstore-details/40909/apollo-pharmacy
32,Pharmacy,Apollo pharmacy,9452997244,"Shop no 112, Sneh nagar, Kanpur road, Alambagh, Lucknow",Lucknow,226005,India,Monday-Sunday 8am - 9pm,Cash,INR (Indian Rupees),https://www.medicineindia.org/pharmacy-chemist-drugstore-details/40905/apollo-pharmacy
33,Pharmacy,Aqsa Pharma,9335209082,"Ug-1,Razzaque Cplx, Molviganj, Lucknow Cantt, Lucknow",Lucknow,226002,India,Monday-Sunday 8am - 9pm,Cash,INR (Indian Rupees),https://www.medicineindia.org/pharmacy-chemist-drugstore-details/41292/aqsa-pharma
34,Pharmacy,Archana Medicos,9450391257,"65, Near Dimond Tower, Udayganj, Cantt Raod, Udaiganj, Lucknow",Lucknow,226001,India,Monday-Sunday 8am - 9pm,Cash,INR (Indian Rupees),https://www.medicineindia.org/pharmacy-chemist-drugstore-details/41090/archana-medicos
35,Pharmacy,Arora Medical Store,9889440637,"Ashok, Sujanpura, Alambagh, Lucknow",Lucknow,226005,India,Monday-Sunday 8am - 9pm,Cash,INR (Indian Rupees),https://www.medicineindia.org/pharmacy-chemist-drugstore-details/41014/arora-medical-store
36,Pharmacy,Artang Medicine Mall,(0522) 2614232,"Near Tasveer Wali Gali, Aminabad, Lucknow",Lucknow,226018,India,Monday-Sunday 8am - 9pm,Cash,INR (Indian Rupees),https://www.medicineindia.org/pharmacy-chemist-drugstore-details/41398/artang-medicine-mall
37,Pharmacy,Arun Medical Store,(0522) 2354966,"Sarvodai Nagar Lucknow, Sarvodainagar, Lucknow",Lucknow,226015,India,Monday-Sunday 8am - 9pm,Cash,INR (Indian Rupees),https://www.medicineindia.org/pharmacy-chemist-drugstore-details/41010/arun-medical-store
38,Pharmacy,Arun Medicals,993673170,"Shop No. 26, Manik Moti Camp, Udai Ganj, Cantt Road, Lucknow",Lucknow,226001,India,Monday-Sunday 8am - 9pm,Cash,INR (Indian Rupees),https://www.medicineindia.org/pharmacy-chemist-drugstore-details/41246/arun-medicals
39,Pharmacy,Asha Medical Store,9335856836,"150, Gautam Budh Marg, La Touche Road, Lucknow",Lucknow,226001,India,Monday-Sunday 8am - 9pm,Cash,INR (Indian Rupees),https://www.medicineindia.org/pharmacy-chemist-drugstore-details/41245/asha-medical-store
40,Pharmacy,Asha Medical Store,(0522) 2614468,"150, Latouche Road, Gautam Budh Marg, Gautam Budh Marg(Gb Marg), Lucknow",Lucknow,226018,India,Monday-Sunday 8am - 9pm,Cash,INR (Indian Rupees),https://www.medicineindia.org/pharmacy-chemist-drugstore-details/41375/asha-medical-store
41,Pharmacy,Ashirwad Pharmacy,9336447707,"574, Sector-11, Indira Nagar Lucknow, Lucknow",Lucknow,226016,India,Monday-Sunday 8am - 9pm,Cash,INR (Indian Rupees),https://www.medicineindia.org/pharmacy-chemist-drugstore-details/41001/ashirwad-pharmacy
42,Pharmacy,Ashish Medical Store,(0522) 6051162,"Lower Ground Floor-3,Galaxy Tower,Viraj Khand, Opposite Sahra Hospital, Gate No-1, Gomti Nagar, Lucknow",Lucknow,226002,India,Monday-Sunday 8am - 9pm,Cash,INR (Indian Rupees),https://www.medicineindia.org/pharmacy-chemist-drugstore-details/40980/ashish-medical-store
43,Pharmacy,Ashish Medical Store,8765533244,"LGF-03, Galaxy Tower, Opp. Shara Hospital, Viraj Khand, Gomti Nagar",Lucknow,226010,India,Monday-Sunday 8am - 9pm,Cash,INR (Indian Rupees),https://www.medicineindia.org/pharmacy-chemist-drugstore-details/81832/ashish-medical-store
44,Pharmacy,Astang Medicine Mall,(0522) 4068374,"Aminabad, Aminabad, Aminabad, Lucknow",Lucknow,226018,India,Monday-Sunday 8am - 9pm,Cash,INR (Indian Rupees),https://www.medicineindia.org/pharmacy-chemist-drugstore-details/41380/astang-medicine-mall
45,Pharmacy,Astha Medical Store,9450361720,"D 20, Puraniya Chauraha, Sector H, Aliganj, Lucknow",Lucknow,226024,India,Monday-Sunday 8am - 9pm,Cash,INR (Indian Rupees),https://www.medicineindia.org/pharmacy-chemist-drugstore-details/41041/astha-medical-store
46,Pharmacy,Atul Homeopathic & Ayurvedic Store,9125842483,"Near On Gyaneshwar Mandir,Narhi Market, Hazratganj, Lucknow",Lucknow,226001,India,Monday-Sunday 8am - 9pm,Cash,INR (Indian Rupees),https://www.medicineindia.org/pharmacy-chemist-drugstore-details/41113/atul-homeopathic-ayurvedic-store
47,Pharmacy,Atul Medical Store,(0522) 3017060,"42, Arya Samaj Raod, Ganesh Ganj, Lucknow",Lucknow,226001,India,Monday-Sunday 8am - 9pm,Cash,INR (Indian Rupees),https://www.medicineindia.org/pharmacy-chemist-drugstore-details/41204/atul-medical-store
48,Pharmacy,Atul Medicals,9415088593,"A-1/15, Sector-H, Puraniya Crossing, Aliganj, Lucknow",Lucknow,226024,India,Monday-Sunday 8am - 9pm,Cash,INR (Indian Rupees),https://www.medicineindia.org/pharmacy-chemist-drugstore-details/41131/atul-medicals
49,Pharmacy,Atul Pharma Medicals,(0522) 2286248,"Ramtirath Marg, 39/34 Narhi Bazar, Hazratganj, Lucknow",Lucknow,226001,India,Monday-Sunday 8am - 9pm,Cash,INR (Indian Rupees),https://www.medicineindia.org/pharmacy-chemist-drugstore-details/41257/atul-pharma-medicals
50,Pharmacy,Atul Pharma Medicals,9935488038,"Ramtirath Marg, 39/54 Narhi Bazar, Hazratganj, Lucknow",Lucknow,226001,India,Monday-Sunday 8am - 9pm,Cash,INR (Indian Rupees),https://www.medicineindia.org/pharmacy-chemist-drugstore-details/41258/atul-pharma-medicals
51,Pharmacy,Avadh Agencies,(0522) 2205672,"13-B, Madan Mohan Malviya Mg, Lucknow Gpo, Lucknow",Lucknow,226001,India,Monday-Sunday 8am - 9pm,Cash,INR (Indian Rupees),https://www.medicineindia.org/pharmacy-chemist-drugstore-details/41176/avadh-agencies
52,Pharmacy,Avadh Pharma,9918385167,"Shop No.2, Silver Plaza, Ikka Stand, Daliganj, Lucknow",Lucknow,226020,India,Monday-Sunday 8am - 9pm,Cash,INR (Indian Rupees),https://www.medicineindia.org/pharmacy-chemist-drugstore-details/41085/avadh-pharma
53,Pharmacy,Avighn ENT,(0522) 3067154,"Office No-3,1st Flr, Sahyogi Pustkalaya,Khurshedbagh Ganeshganj, Lucknow Gpo, Lucknow",Lucknow,226001,India,Monday-Sunday 8am - 9pm,Cash,INR (Indian Rupees),https://www.medicineindia.org/pharmacy-chemist-drugstore-details/41192/avighn-ent
54,Pharmacy,Awadh Institute Of Medical Technolo...,9839927021,"Village Pakra MAU, Dehta, Kursi Road, LUCKNOW",Lucknow,226006,India,Monday-Sunday 8am - 9pm,Cash,INR (Indian Rupees),https://www.medicineindia.org/pharmacy-chemist-drugstore-details/40929/awadh-institute-of-medical-technolo
55,Pharmacy,Awadh Medicines,(0522) 2242360,"819, Aminabad, Lucknow",Lucknow,226018,India,Monday-Sunday 8am - 9pm,Cash,INR (Indian Rupees),https://www.medicineindia.org/pharmacy-chemist-drugstore-details/41050/awadh-medicines
56,Pharmacy,Awasthi Homeo Medicals,(0522) 2343349,"Shop No-5, Boothnath Mkt, Indira Nagar Lucknow, Lucknow",Lucknow,226016,India,Monday-Sunday 8am - 9pm,Cash,INR (Indian Rupees),https://www.medicineindia.org/pharmacy-chemist-drugstore-details/40942/awasthi-homeo-medicals
57,Pharmacy,Azad Medical Store,(0522) 2333219,"F-16, Krishna Complex, Dandaiya Bazar, Aliganj, Lucknow",Lucknow,226024,India,Monday-Sunday 8am - 9pm,Cash,INR (Indian Rupees),https://www.medicineindia.org/pharmacy-chemist-drugstore-details/41146/azad-medical-store
58,Pharmacy,B. DAS Chemist & Druggist,(0522) 2668279,"Sgpgi Gate, RAI Bareli Road, Lucknow",Lucknow,226014,India,Monday-Sunday 8am - 9pm,Cash,INR (Indian Rupees),https://www.medicineindia.org/pharmacy-chemist-drugstore-details/41083/b-das-chemist-druggist
59,Pharmacy,B. L. Parmaceuticals,(0522) 2297038,"8, 2nd Floor J.n.k. Medicine Market, Aminabad, Lucknow",Lucknow,226018,India,Monday-Sunday 8am - 9pm,Cash,INR (Indian Rupees),https://www.medicineindia.org/pharmacy-chemist-drugstore-details/41397/b-l-parmaceuticals
60,Pharmacy,B.R.U.S Medical Store,9335058314,"3/56 Vij Mkt, Near Railway Crossing, Narain Nagar, Narayan Nagar, Lucknow",Lucknow,226016,India,Monday-Sunday 8am - 9pm,Cash,INR (Indian Rupees),https://www.medicineindia.org/pharmacy-chemist-drugstore-details/41061/brus-medical-store
61,Pharmacy,Babu Bhai Medical Store,(0522) 2231817,"293 Phool Bagh, Hussainganj, Lucknow",Lucknow,226001,India,Monday-Sunday 8am - 9pm,Cash,INR (Indian Rupees),https://www.medicineindia.org/pharmacy-chemist-drugstore-details/41243/babu-bhai-medical-store
62,Pharmacy,Babur Agency,(0522) 2219218,"Aminabad Rd, A P Sabha, Lucknow",Lucknow,226001,India,Monday-Sunday 8am - 9pm,Cash,INR (Indian Rupees),https://www.medicineindia.org/pharmacy-chemist-drugstore-details/41165/babur-agency
63,Pharmacy,Bajpai Agencies,(0522) 3917402,"Lgf-1a, Rastogi Medicine Mkt, Aminabad, Lucknow",Lucknow,226018,India,Monday-Sunday 8am - 9pm,Cash,INR (Indian Rupees),https://www.medicineindia.org/pharmacy-chemist-drugstore-details/41350/bajpai-agencies
64,Pharmacy,Balaji Medicals,(0522) 3262609,"Shop No-22, Near Daliganj Railway Crossing, Sitapur Rd, Lucknow",Lucknow,226021,India,Monday-Sunday 8am - 9pm,Cash,INR (Indian Rupees),https://www.medicineindia.org/pharmacy-chemist-drugstore-details/40998/balaji-medicals
65,Pharmacy,Bapu Homeopathic Store,(0522) 2260851,"Central Hotel Bldg, Aminabad, Lucknow",Lucknow,226018,India,Monday-Sunday 8am - 9pm,Cash,INR (Indian Rupees),https://www.medicineindia.org/pharmacy-chemist-drugstore-details/41344/bapu-homeopathic-store
66,Pharmacy,Barffani Medical Agencies,(0522) 9452093778,"Lucknow Gpo, Lucknow",Lucknow,226001,India,Monday-Sunday 8am - 9pm,Cash,INR (Indian Rupees),https://www.medicineindia.org/pharmacy-chemist-drugstore-details/41170/barffani-medical-agencies
67,Pharmacy,Barkha Medical Store,(0522) 2310440,"3, Friends Market, Indira Nagar Lucknow, Lucknow",Lucknow,226016,India,Monday-Sunday 8am - 9pm,Cash,INR (Indian Rupees),https://www.medicineindia.org/pharmacy-chemist-drugstore-details/40967/barkha-medical-store
68,Pharmacy,Beena Pharma,(0522) 2350753,"B-2027, Indira Ngr, Lucknow Gpo, Lucknow",Lucknow,226001,India,Monday-Sunday 8am - 9pm,Cash,INR (Indian Rupees),https://www.medicineindia.org/pharmacy-chemist-drugstore-details/41191/beena-pharma
69,Pharmacy,Bhagwan Medical Store,(0522) 2682783,"307, Aminabad Road, Ganesh Ganj, Lucknow",Lucknow,226001,India,Monday-Sunday 8am - 9pm,Cash,INR (Indian Rupees),https://www.medicineindia.org/pharmacy-chemist-drugstore-details/41205/bhagwan-medical-store
70,Pharmacy,Bhagwati Pharma,(0522) 2297035,"Shop No Ugf-4, Mughal Medicine Market, Aminabad, Lucknow",Lucknow,226018,India,Monday-Sunday 8am - 9pm,Cash,INR (Indian Rupees),https://www.medicineindia.org/pharmacy-chemist-drugstore-details/41291/bhagwati-pharma
71,Pharmacy,Bhandari Pharma,(0522) 2297203,"113/9, Parsi Shah Lane, Aminabad, Lucknow",Lucknow,226018,India,Monday-Sunday 8am - 9pm,Cash,INR (Indian Rupees),https://www.medicineindia.org/pharmacy-chemist-drugstore-details/41360/bhandari-pharma
72,Pharmacy,Bharat Medical Store,(0522) 6567999,"Golaganj Crossing, Golaganj, Lucknow",Lucknow,226018,India,Monday-Sunday 8am - 9pm,Cash,INR (Indian Rupees),https://www.medicineindia.org/pharmacy-chemist-drugstore-details/40952/bharat-medical-store
73,Pharmacy,Bharat Medicals,(0522) 2481380,"101, Sadar Bazar, Nehru Road, Sadar, Lucknow",Lucknow,226002,India,Monday-Sunday 8am - 9pm,Cash,INR (Indian Rupees),https://www.medicineindia.org/pharmacy-chemist-drugstore-details/41322/bharat-medicals
74,Pharmacy,Bharat Medicals,9455001719,"Shop Number-9, Near Balrampur Hospital, Dr Ramlal Chakarvertty Road, Golaganj, Lucknow",Lucknow,226018,India,Monday-Sunday 8am - 9pm,Cash,INR (Indian Rupees),https://www.medicineindia.org/pharmacy-chemist-drugstore-details/41340/bharat-medicals
75,Pharmacy,Bharat Medicine House,(0522) 2623396,"113/15, Kamla Niwas, New Medicine Mkt, Aminabad Park, Lucknow",Lucknow,226001,India,Monday-Sunday 8am - 9pm,Cash,INR (Indian Rupees),https://www.medicineindia.org/pharmacy-chemist-drugstore-details/41177/bharat-medicine-house
76,Pharmacy,Bhargava Medical Store,(0522) 2387141,"LG-32, Goel Plaza, Sanjay Gandhi Puram, Faizabad Road, Lucknow",Lucknow,226016,India,Monday-Sunday 8am - 9pm,Cash,INR (Indian Rupees),https://www.medicineindia.org/pharmacy-chemist-drugstore-details/41002/bhargava-medical-store
77,Pharmacy,Bhasin Medicals,(0522) 2768484,"Near Thana, Vikas Nagar, Lucknow",Lucknow,226022,India,Monday-Sunday 8am - 9pm,Cash,INR (Indian Rupees),https://www.medicineindia.org/pharmacy-chemist-drugstore-details/40926/bhasin-medicals
78,Pharmacy,Bhole Medicals,9450660843,"Shop on.-S-6/70, Azad Market, Opp. Hal gate, Faizabad road, Indira Nagar Lucknow, Lucknow",Lucknow,226016,India,Monday-Sunday 8am - 9pm,Cash,INR (Indian Rupees),https://www.medicineindia.org/pharmacy-chemist-drugstore-details/40999/bhole-medicals
79,Pharmacy,Bholu Medicine,9839660108,"C-59, Sec-M, Aliganj, Lucknow",Lucknow,226002,India,Monday-Sunday 8am - 9pm,Cash,INR (Indian Rupees),https://www.medicineindia.org/pharmacy-chemist-drugstore-details/41308/bholu-medicine
80,Pharmacy,Biotech Corp,(0522) 2231534,"Flat No-5,Raj Apt,1st Flr, Nr Islamia College, B N Rd, Lalbagh, Lucknow",Lucknow,226001,India,Monday-Sunday 8am - 9pm,Cash,INR (Indian Rupees),https://www.medicineindia.org/pharmacy-chemist-drugstore-details/41038/biotech-corp
81,Pharmacy,Boericke Homoeo Store,9450493216,"At Ram Nagar,District Ambed Kar Nagar, Lucknow Gpo, Lucknow",Lucknow,226001,India,Monday-Sunday 8am - 9pm,Cash,INR (Indian Rupees),https://www.medicineindia.org/pharmacy-chemist-drugstore-details/41104/boericke-homoeo-store
82,Pharmacy,Bombay Medical Store,9335824103,"Narhi Bazar, Hazratganj, Lucknow",Lucknow,226001,India,Monday-Sunday 8am - 9pm,Cash,INR (Indian Rupees),https://www.medicineindia.org/pharmacy-chemist-drugstore-details/41256/bombay-medical-store
83,Pharmacy,C. And F. Medicines,(0522) 2639821,"Teerath Bhawan, Hewett Road., Shivaji Marg, Lucknow",Lucknow,226001,India,Monday-Sunday 8am - 9pm,Cash,INR (Indian Rupees),https://www.medicineindia.org/pharmacy-chemist-drugstore-details/41272/c-and-f-medicines
84,Pharmacy,Cantt. Medical Center,(0522) 2482766,"1103 Gola Bazar, Cantt., Sadar, Lucknow",Lucknow,226002,India,Monday-Sunday 8am - 9pm,Cash,INR (Indian Rupees),https://www.medicineindia.org/pharmacy-chemist-drugstore-details/41321/cantt-medical-center
85,Pharmacy,Care Chemist,(0522) 2480809,"Sadar Bazar, 266 M. P. Road, Sadar, Lucknow",Lucknow,226002,India,Monday-Sunday 8am - 9pm,Cash,INR (Indian Rupees),https://www.medicineindia.org/pharmacy-chemist-drugstore-details/41320/care-chemist
86,Pharmacy,Chaitanya Medicos,9415575389,"K/1815, A-Block, Rajaji Puram, Lucknow",Lucknow,226017,India,Monday-Sunday 8am - 9pm,Cash,INR (Indian Rupees),https://www.medicineindia.org/pharmacy-chemist-drugstore-details/41080/chaitanya-medicos
87,Pharmacy,Chanda Medical Store,9839179091,"RAI Bareli Rd, LUCKNOW",Lucknow,226002,India,Monday-Sunday 8am - 9pm,Cash,INR (Indian Rupees),https://www.medicineindia.org/pharmacy-chemist-drugstore-details/41306/chanda-medical-store
88,Pharmacy,Chandan Pharmacy,9839901159,"Tcv-68, Opp. Rmlh, Vibhuti Khand, Gomti Nagar, Lucknow",Lucknow,226010,India,Monday-Sunday 8am - 9pm,Cash,INR (Indian Rupees),https://www.medicineindia.org/pharmacy-chemist-drugstore-details/40915/chandan-pharmacy
89,Pharmacy,Chandra Medicals,9305053280,"4, Barabirwa Chauraha, Commeti Hall Road, Alambagh, Lucknow",Lucknow,226005,India,Monday-Sunday 8am - 9pm,Cash,INR (Indian Rupees),https://www.medicineindia.org/pharmacy-chemist-drugstore-details/41020/chandra-medicals
90,Pharmacy,Chandra Medicine,(0522) 3042481,"Aliganj, Lucknow",Lucknow,226024,India,Monday-Sunday 8am - 9pm,Cash,INR (Indian Rupees),https://www.medicineindia.org/pharmacy-chemist-drugstore-details/41150/chandra-medicine
91,Pharmacy,Chandra Medicos,9838587735,"896 Azad Mahal, Sadar Bazar, Sadar, Lucknow",Lucknow,226002,India,Monday-Sunday 8am - 9pm,Cash,INR (Indian Rupees),https://www.medicineindia.org/pharmacy-chemist-drugstore-details/41319/chandra-medicos
92,Pharmacy,Chawala medical store,9208903834,"Alambagh market, Nr alambagh chauraha, Talkatora rd, Alambagh, Lucknow",Lucknow,226005,India,Monday-Sunday 8am - 9pm,Cash,INR (Indian Rupees),https://www.medicineindia.org/pharmacy-chemist-drugstore-details/40932/chawala-medical-store
93,Pharmacy,Chawdhary Medical Store,(0522) 2282314,"Cantt. Road, Sadar, Lucknow",Lucknow,226002,India,Monday-Sunday 8am - 9pm,Cash,INR (Indian Rupees),https://www.medicineindia.org/pharmacy-chemist-drugstore-details/41318/chawdhary-medical-store
94,Pharmacy,Chawla Medical Store,(0522) 2454852,"Alambagh Crossing, Alambagh, Lucknow",Lucknow,226005,India,Monday-Sunday 8am - 9pm,Cash,INR (Indian Rupees),https://www.medicineindia.org/pharmacy-chemist-drugstore-details/40961/chawla-medical-store
95,Pharmacy,Chhaya Medical Hall,(0522) 2281914,"116/10, Kaubari Marg, Ghasiyari Mandi, Kaisarbagh, Lucknow",Lucknow,226001,India,Monday-Sunday 8am - 9pm,Cash,INR (Indian Rupees),https://www.medicineindia.org/pharmacy-chemist-drugstore-details/41242/chhaya-medical-hall
96,Pharmacy,Civil Medical Store,9838171049,"6, Subhash Complex, Bahadurpur, Kanchana Bihari Marg, Jankipuram, Lucknow",Lucknow,226021,India,Monday-Sunday 8am - 9pm,Cash,INR (Indian Rupees),https://www.medicineindia.org/pharmacy-chemist-drugstore-details/41058/civil-medical-store
97,Pharmacy,D Pal & Co,(0522) 2624716,"54, Aminabad, Lucknow",Lucknow,226018,India,Monday-Sunday 8am - 9pm,Cash,INR (Indian Rupees),https://www.medicineindia.org/pharmacy-chemist-drugstore-details/41345/d-pal-co
98,Pharmacy,Dabur India Ltd,(0522) 3025910,"N-19/23, Sec-C,Opp Sant Mkt Post Off, H Rd, Mahanagar, Lucknow",Lucknow,226006,India,Monday-Sunday 8am - 9pm,Cash,INR (Indian Rupees),https://www.medicineindia.org/pharmacy-chemist-drugstore-details/40912/dabur-india-ltd
99,Pharmacy,Dange Clinic,(0522) 2625925,"4-A, Valmiki Marg, Lalbagh, Lucknow",Lucknow,226001,India,Monday-Sunday 8am - 9pm,Cash,INR (Indian Rupees),https://www.medicineindia.org/pharmacy-chemist-drugstore-details/41039/dange-clinic
100,Pharmacy,Dawaghar Dot Com,(0522) 2239180,"Radha Krishna Bhawan, Opp. Civil Hospital, Park Road, Hazratganj, Lucknow",Lucknow,226001,India,Monday-Sunday 8am - 9pm,Cash,INR (Indian Rupees),https://www.medicineindia.org/pharmacy-chemist-drugstore-details/41255/dawaghar-dot-com
101,Pharmacy,Dawaghar.com,9335055771,"3a/5, Radha Krishna Bhawan, Opp. Civil Hospital, Park Road, Hazratganj, Lucknow",Lucknow,226001,India,Monday-Sunday 8am - 9pm,Cash,INR (Indian Rupees),https://www.medicineindia.org/pharmacy-chemist-drugstore-details/40939/dawagharcom
102,Pharmacy,Dawn Medicals,(0522) 2266446,"Kgmc, Shahmina Rd, Lucknow Gpo, Lucknow",Lucknow,226001,India,Monday-Sunday 8am - 9pm,Cash,INR (Indian Rupees),https://www.medicineindia.org/pharmacy-chemist-drugstore-details/41178/dawn-medicals
103,Pharmacy,Dayal Medical Store,9415514262,"43/120, Padmaker Bhawan, Naval Kishor Road, Hazratganj, Lucknow",Lucknow,226001,India,Monday-Sunday 8am - 9pm,Cash,INR (Indian Rupees),https://www.medicineindia.org/pharmacy-chemist-drugstore-details/41112/dayal-medical-store
104,Pharmacy,Dayal Medical Store,9454323814,"Khadra, Chungi By Pass, Sitapur Road, Sitapur Rd, Lucknow",Lucknow,226002,India,Monday-Sunday 8am - 9pm,Cash,INR (Indian Rupees),https://www.medicineindia.org/pharmacy-chemist-drugstore-details/41296/dayal-medical-store
105,Pharmacy,Deep Medicals,9452065045,"1/330, A-Viram Khand, Gomti Nagar, Lucknow",Lucknow,226010,India,Monday-Sunday 8am - 9pm,Cash,INR (Indian Rupees),https://www.medicineindia.org/pharmacy-chemist-drugstore-details/40960/deep-medicals
106,Pharmacy,Deepak Medical Store,(0522) 4010381,"Balaji Market, Opposite Cmh Chowk, Hardoi Road, Lucknow Chowk, Lucknow",Lucknow,226003,India,Monday-Sunday 8am - 9pm,Cash,INR (Indian Rupees),https://www.medicineindia.org/pharmacy-chemist-drugstore-details/41036/deepak-medical-store
107,Pharmacy,Deepanshu Medical Store,(0522) 2781935,"16, Main Road, Nishatganj, Lucknow",Lucknow,226006,India,Monday-Sunday 8am - 9pm,Cash,INR (Indian Rupees),https://www.medicineindia.org/pharmacy-chemist-drugstore-details/41022/deepanshu-medical-store
108,Pharmacy,Denesh Medical Store,9935746075,"Shop No 1,2, Near Mahaveer Inter College,Batha, Kursi Road, Aliganj, LUCKNOW",Lucknow,226024,India,Monday-Sunday 8am - 9pm,Cash,INR (Indian Rupees),https://www.medicineindia.org/pharmacy-chemist-drugstore-details/41384/denesh-medical-store
109,Pharmacy,Devanshi Medical Store,(0522) 4008356,"65/15, Chitwapur Road, Lalkuan, Lucknow",Lucknow,226001,India,Monday-Sunday 8am - 9pm,Cash,INR (Indian Rupees),https://www.medicineindia.org/pharmacy-chemist-drugstore-details/41238/devanshi-medical-store
110,Pharmacy,Dinesh Medical Hall,(0522) 2731511,"Kurshi Road, Aliganj, Lucknow",Lucknow,226024,India,Monday-Sunday 8am - 9pm,Cash,INR (Indian Rupees),https://www.medicineindia.org/pharmacy-chemist-drugstore-details/41133/dinesh-medical-hall
111,Pharmacy,Dinesh Medicals,9307232551,"Shop No 3/122, Vivek Khand-3, Near Water Tank, Gomti Nagar Lucknow, Lucknow",Lucknow,226001,India,Monday-Sunday 8am - 9pm,Cash,INR (Indian Rupees),https://www.medicineindia.org/pharmacy-chemist-drugstore-details/41279/dinesh-medicals
112,Pharmacy,Docland Service Ltd.,(0522) 2629112,"33, Sri Ram Market, Near Odeon Cinema Hall, Cantt Road, Lucknow",Lucknow,226001,India,Monday-Sunday 8am - 9pm,Cash,INR (Indian Rupees),https://www.medicineindia.org/pharmacy-chemist-drugstore-details/41274/docland-service-ltd
113,Pharmacy,Drug Point Medical Store,9335290878,"Kaiserbagh Bus Stop, Kaisarbagh, Lucknow",Lucknow,226001,India,Monday-Sunday 8am - 9pm,Cash,INR (Indian Rupees),https://www.medicineindia.org/pharmacy-chemist-drugstore-details/41219/drug-point-medical-store
114,Pharmacy,Durga Medicos,(0522) 2480067,"614 Azad Mahal, Sadar Bazar, Sadar, Lucknow",Lucknow,226002,India,Monday-Sunday 8am - 9pm,Cash,INR (Indian Rupees),https://www.medicineindia.org/pharmacy-chemist-drugstore-details/41316/durga-medicos
115,Pharmacy,Eras Lucknow Medical College & Hosp...,(0522) 2222481,"Sarfaraz Ganj, Hardor Rd, Sarfaraz, Lucknow",Lucknow,226004,India,Monday-Sunday 8am - 9pm,Cash,INR (Indian Rupees),https://www.medicineindia.org/pharmacy-chemist-drugstore-details/40907/eras-lucknow-medical-college-hosp
116,Pharmacy,Fatima Pharmacy,9839008495,"Tope Darwaza, Chaupatiya Dargah, Chaupatiyan, Lucknow",Lucknow,226003,India,Monday-Sunday 8am - 9pm,Cash,INR (Indian Rupees),https://www.medicineindia.org/pharmacy-chemist-drugstore-details/40943/fatima-pharmacy
117,Pharmacy,Fine Medical Store,(0522) 2786767,"A-5, Nirala Nagar, Lucknow",Lucknow,226020,India,Monday-Sunday 8am - 9pm,Cash,INR (Indian Rupees),https://www.medicineindia.org/pharmacy-chemist-drugstore-details/40966/fine-medical-store
118,Pharmacy,Furqania Dawa Khana,9335504790,"Near Ghariwali Masjid, Naaz Cinema Road, Khayaliganj, Aminabad, Lucknow",Lucknow,226018,India,Monday-Sunday 8am - 9pm,Cash,INR (Indian Rupees),https://www.medicineindia.org/pharmacy-chemist-drugstore-details/41377/furqania-dawa-khana
119,Pharmacy,G. R. Enterprises,(0522) 2270426,"Shop No-1a, Alam Market, Parsi Shah Lane, Aminabad, Lucknow",Lucknow,226018,India,Monday-Sunday 8am - 9pm,Cash,INR (Indian Rupees),https://www.medicineindia.org/pharmacy-chemist-drugstore-details/41358/g-r-enterprises
120,Pharmacy,G. Rama And Sons,(0522) 2627109,"7/8, Khiamal Market, 1st Floor, Aminabad, Lucknow",Lucknow,226018,India,Monday-Sunday 8am - 9pm,Cash,INR (Indian Rupees),https://www.medicineindia.org/pharmacy-chemist-drugstore-details/41370/g-rama-and-sons
121,Pharmacy,G.G.Pharma,(0522) 2297260,"# 13, Second Floor,Bhasin Market,Aminabad., Aminabad, Lucknow",Lucknow,226018,India,Monday-Sunday 8am - 9pm,Cash,INR (Indian Rupees),https://www.medicineindia.org/pharmacy-chemist-drugstore-details/41381/ggpharma
122,Pharmacy,GANGA MEDICINE AND COMPANY,9450208541,"Shop no-6,leela mension, Near leela cinema, Naval kishore road, Hazratganj, Lucknow",Lucknow,226001,India,Monday-Sunday 8am - 9pm,Cash,INR (Indian Rupees),https://www.medicineindia.org/pharmacy-chemist-drugstore-details/41158/ganga-medicine-and-company
123,Pharmacy,GANPATI MEDICAL,9005009000,"126/31, Near shalimar square, B N road, Lalbagh, Lucknow",Lucknow,226001,India,Monday-Sunday 8am - 9pm,Cash,INR (Indian Rupees),https://www.medicineindia.org/pharmacy-chemist-drugstore-details/41105/ganpati-medical
124,Pharmacy,GREEN BERRY,9648470088,"1,ugf,royal plaza, Sector-16, Indira Nagar Lucknow, Lucknow",Lucknow,226016,India,Monday-Sunday 8am - 9pm,Cash,INR (Indian Rupees),https://www.medicineindia.org/pharmacy-chemist-drugstore-details/40924/green-berry
125,Pharmacy,Ganga pharma medical store,9721344771,"102,ground floor ,radhakrishna bhawan, Nr civil hospital, Park road, Hazratganj, Lucknow",Lucknow,226001,India,Monday-Sunday 8am - 9pm,Cash,INR (Indian Rupees),https://www.medicineindia.org/pharmacy-chemist-drugstore-details/41091/ganga-pharma-medical-store
126,Pharmacy,Ganpati Medical Store,(0522) 2481315,"398/3, Sadar Bazar, Cantt Road, Lucknow",Lucknow,226001,India,Monday-Sunday 8am - 9pm,Cash,INR (Indian Rupees),https://www.medicineindia.org/pharmacy-chemist-drugstore-details/41252/ganpati-medical-store
127,Pharmacy,Ganpati Medicals,(0522) 3913939,"126/31, Mahavir Plaza, Lalbagh, B N Road, Lucknow",Lucknow,226001,India,Monday-Sunday 8am - 9pm,Cash,INR (Indian Rupees),https://www.medicineindia.org/pharmacy-chemist-drugstore-details/41237/ganpati-medicals
128,Pharmacy,Garg Homeo Store,(0522) 2230250,"48, Murli Ngr, Cantt Rd, Lucknow Gpo, Lucknow",Lucknow,226001,India,Monday-Sunday 8am - 9pm,Cash,INR (Indian Rupees),https://www.medicineindia.org/pharmacy-chemist-drugstore-details/41173/garg-homeo-store
129,Pharmacy,Garg Homoeo Stores,9415196680,"45, Near sheeshewali masjid, Cantt. Road, Murli Nagar, Lucknow",Lucknow,226001,India,Monday-Sunday 8am - 9pm,Cash,INR (Indian Rupees),https://www.medicineindia.org/pharmacy-chemist-drugstore-details/41037/garg-homoeo-stores
130,Pharmacy,Garg Medicos,(0522) 4024835,"9-A, Near Yojana Bhawan, Hivalak Rd, Hazratganj, Lucknow",Lucknow,226001,India,Monday-Sunday 8am - 9pm,Cash,INR (Indian Rupees),https://www.medicineindia.org/pharmacy-chemist-drugstore-details/41045/garg-medicos
131,Pharmacy,Garg medical agencies,9415787148,"5 balmiki marg, Near hazratgunj kotwali, Hazratganj, Lucknow",Lucknow,226001,India,Monday-Sunday 8am - 9pm,Cash,INR (Indian Rupees),https://www.medicineindia.org/pharmacy-chemist-drugstore-details/41159/garg-medical-agencies
132,Pharmacy,Gaurav Medicals,(0522) 3043204,"8-3, Sinha Market, Near IT Crossing, Nirala Nagar, Aliganj, Lucknow",Lucknow,226024,India,Monday-Sunday 8am - 9pm,Cash,INR (Indian Rupees),https://www.medicineindia.org/pharmacy-chemist-drugstore-details/41123/gaurav-medicals
133,Pharmacy,Ginni medicals,7800016000,"Shop no.-4/288, Vivek khand, Patarkarpuram, Opp. Forrd hospital, Gomti Nagar, Lucknow",Lucknow,226010,India,Monday-Sunday 8am - 9pm,Cash,INR (Indian Rupees),https://www.medicineindia.org/pharmacy-chemist-drugstore-details/40923/ginni-medicals
134,Pharmacy,Goel Medical Agencies,9450896724,"8, Ganpati Complex, Gautam Budh Marg(Gb Marg), LUCKNOW",Lucknow,226018,India,Monday-Sunday 8am - 9pm,Cash,INR (Indian Rupees),https://www.medicineindia.org/pharmacy-chemist-drugstore-details/41386/goel-medical-agencies
135,Pharmacy,Golike Hamjoli,(0522) 2423771,"K-68, Aarzoo Asshiana Clny, A P Sabha, Lucknow",Lucknow,226001,India,Monday-Sunday 8am - 9pm,Cash,INR (Indian Rupees),https://www.medicineindia.org/pharmacy-chemist-drugstore-details/41186/golike-hamjoli
136,Pharmacy,Gomti Medical Store,(0522) 2720171,"Tcv-67, Vibhuti Khand, Gomti Nagar, Lucknow",Lucknow,226010,India,Monday-Sunday 8am - 9pm,Cash,INR (Indian Rupees),https://www.medicineindia.org/pharmacy-chemist-drugstore-details/41012/gomti-medical-store
137,Pharmacy,Gomti Medicals,(0522) 2613645,"2m, King Medicine Complex, Aminabad, Lucknow",Lucknow,226018,India,Monday-Sunday 8am - 9pm,Cash,INR (Indian Rupees),https://www.medicineindia.org/pharmacy-chemist-drugstore-details/41356/gomti-medicals
138,Pharmacy,Good Medicos,(0522) 2758585,"538/908, Ahibaran Pur, Opp Power House, Sitapur Rd, Lucknow",Lucknow,226002,India,Monday-Sunday 8am - 9pm,Cash,INR (Indian Rupees),https://www.medicineindia.org/pharmacy-chemist-drugstore-details/41307/good-medicos
139,Pharmacy,Gopi Medical Store,9415464272,"44-A, Murli Nagar, Cantt Road, Lucknow",Lucknow,226001,India,Monday-Sunday 8am - 9pm,Cash,INR (Indian Rupees),https://www.medicineindia.org/pharmacy-chemist-drugstore-details/41235/gopi-medical-store
140,Pharmacy,Greenberry Healthcare Pvt Ltd,(0522) 4063234,"Naka Fatehganj, Aminabad, LUCKNOW",Lucknow,226018,India,Monday-Sunday 8am - 9pm,Cash,INR (Indian Rupees),https://www.medicineindia.org/pharmacy-chemist-drugstore-details/41392/greenberry-healthcare-pvt-ltd
141,Pharmacy,Guardian Pharmacy,(0522) 2746015,"Aliganj, Lucknow",Lucknow,226006,India,Monday-Sunday 8am - 9pm,Cash,INR (Indian Rupees),https://www.medicineindia.org/pharmacy-chemist-drugstore-details/40918/guardian-pharmacy
142,Pharmacy,Guardian Pharmacy,(0522) 4011204,"Sahara Plaza, Lucknow Gpo, Lucknow",Lucknow,226001,India,Monday-Sunday 8am - 9pm,Cash,INR (Indian Rupees),https://www.medicineindia.org/pharmacy-chemist-drugstore-details/40927/guardian-pharmacy
143,Pharmacy,Guardian lifecare,(0522) 4044430,"A1/15 raj palac, Purniya chauraha, Aliganj, Lucknow",Lucknow,226024,India,Monday-Sunday 8am - 9pm,Cash,INR (Indian Rupees),https://www.medicineindia.org/pharmacy-chemist-drugstore-details/40948/guardian-lifecare
144,Pharmacy,Gulshan Medicals,(0522) 3065091,"1, Mariya Cplx, Tambakhu Mandi, Chaupatiyan, Lucknow",Lucknow,226003,India,Monday-Sunday 8am - 9pm,Cash,INR (Indian Rupees),https://www.medicineindia.org/pharmacy-chemist-drugstore-details/40958/gulshan-medicals
145,Pharmacy,Gupta Enterprises,(0522) 2441114,"C-37 , Near Teli Bagh, South City, C=37, RAI Bareli Rd, Lucknow",Lucknow,226002,India,Monday-Sunday 8am - 9pm,Cash,INR (Indian Rupees),https://www.medicineindia.org/pharmacy-chemist-drugstore-details/41317/gupta-enterprises
146,Pharmacy,Gupta Homeo Agency,(0522) 4000545,"Hal Gate, A P Sabha, Lucknow",Lucknow,226001,India,Monday-Sunday 8am - 9pm,Cash,INR (Indian Rupees),https://www.medicineindia.org/pharmacy-chemist-drugstore-details/41171/gupta-homeo-agency
147,Pharmacy,Gupta Medicals,(0522) 2266052,"Nehru Crossing, Nadan Mahal Road, Lucknow",Lucknow,226004,India,Monday-Sunday 8am - 9pm,Cash,INR (Indian Rupees),https://www.medicineindia.org/pharmacy-chemist-drugstore-details/40988/gupta-medicals
148,Pharmacy,Gupta Stores,(0522) 2242453,"Gautam Budh Marg, Kaisarbagh, Lucknow",Lucknow,226001,India,Monday-Sunday 8am - 9pm,Cash,INR (Indian Rupees),https://www.medicineindia.org/pharmacy-chemist-drugstore-details/41044/gupta-stores
149,Pharmacy,H A Medical Store,9369311865,"Subash Chandra, Medical College, Tulsidas Road, Lucknow Chowk, Lucknow",Lucknow,226003,India,Monday-Sunday 8am - 9pm,Cash,INR (Indian Rupees),https://www.medicineindia.org/pharmacy-chemist-drugstore-details/40991/h-a-medical-store
150,Pharmacy,Hamdard Dawakhana,9198059753,"Noor Market, Akbari Gate, Chowk, Akhbari Gate, Lucknow",Lucknow,226003,India,Monday-Sunday 8am - 9pm,Cash,INR (Indian Rupees),https://www.medicineindia.org/pharmacy-chemist-drugstore-details/40921/hamdard-dawakhana
151,Pharmacy,Hanuman Medical Store,9839535729,"Lgf-7, Rg Complex, Viram Khand-3, Vaishnav Mata Mandir, Viram Khand, CMS Road, Gomtinagar, Gomti Nagar Lucknow, Lucknow",Lucknow,226001,India,Monday-Sunday 8am - 9pm,Cash,INR (Indian Rupees),https://www.medicineindia.org/pharmacy-chemist-drugstore-details/40938/hanuman-medical-store
152,Pharmacy,Hardik Health Care,(0522) 2763187,"Ugf-201-A, Sahara States,Jankipuram, Lucknow Gpo, Lucknow",Lucknow,226001,India,Monday-Sunday 8am - 9pm,Cash,INR (Indian Rupees),https://www.medicineindia.org/pharmacy-chemist-drugstore-details/41175/hardik-health-care
153,Pharmacy,Health Medical Point,(0522) 3240206,"106,173 Cantt. Road, Cantt Road, Lucknow",Lucknow,226001,India,Monday-Sunday 8am - 9pm,Cash,INR (Indian Rupees),https://www.medicineindia.org/pharmacy-chemist-drugstore-details/41232/health-medical-point
154,Pharmacy,Health Medicals,(0522) 3010197,"25, Vidhan Sabha Marg, Hussainganj, Lucknow",Lucknow,226001,India,Monday-Sunday 8am - 9pm,Cash,INR (Indian Rupees),https://www.medicineindia.org/pharmacy-chemist-drugstore-details/41234/health-medicals
155,Pharmacy,Healthway (Agencies),(0522) 2625534,"Shop No-4, 1st Floor, Sugnamal Market, Aminabad, Lucknow",Lucknow,226018,India,Monday-Sunday 8am - 9pm,Cash,INR (Indian Rupees),https://www.medicineindia.org/pharmacy-chemist-drugstore-details/41371/healthway-agencies
156,Pharmacy,Heera Medical Hall,9415061544,"Udai Ganj, Cantt Road, Lucknow",Lucknow,226001,India,Monday-Sunday 8am - 9pm,Cash,INR (Indian Rupees),https://www.medicineindia.org/pharmacy-chemist-drugstore-details/41231/heera-medical-hall
157,Pharmacy,Hema Medical Store,(0522) 2338680,"K.b.-4, Sector-L, Near Mama Chauraha, Aliganj, Lucknow",Lucknow,226024,India,Monday-Sunday 8am - 9pm,Cash,INR (Indian Rupees),https://www.medicineindia.org/pharmacy-chemist-drugstore-details/41140/hema-medical-store
158,Pharmacy,Inder Chand Jain Medical Company,(0522) 2268134,"Goal Darwaza, Lucknow Chowk, Lucknow",Lucknow,226003,India,Monday-Sunday 8am - 9pm,Cash,INR (Indian Rupees),https://www.medicineindia.org/pharmacy-chemist-drugstore-details/40992/inder-chand-jain-medical-company
159,Pharmacy,J C & Sons Medical Store,(0522) 2222789,"21, Bhasin Mkt, Kaisarbagh, Lucknow",Lucknow,226001,India,Monday-Sunday 8am - 9pm,Cash,INR (Indian Rupees),https://www.medicineindia.org/pharmacy-chemist-drugstore-details/41166/j-c-sons-medical-store
160,Pharmacy,J. K. Pharma,(0522) 2231091,"2b, First Floor, Qaiser Market, Aminabad, Lucknow",Lucknow,226018,India,Monday-Sunday 8am - 9pm,Cash,INR (Indian Rupees),https://www.medicineindia.org/pharmacy-chemist-drugstore-details/41357/j-k-pharma
161,Pharmacy,J. P. medicals,9415064505,"Shop no.-101, vinay khand-4, Opp. TC eye center, Station road, Gomti Nagar Lucknow, Lucknow",Lucknow,226001,India,Monday-Sunday 8am - 9pm,Cash,INR (Indian Rupees),https://www.medicineindia.org/pharmacy-chemist-drugstore-details/41282/j-p-medicals
162,Pharmacy,Jaiswal Medical Store,(0522) 2286160,"Ashok Marg, Narhi, Hazratganj, Lucknow",Lucknow,226001,India,Monday-Sunday 8am - 9pm,Cash,INR (Indian Rupees),https://www.medicineindia.org/pharmacy-chemist-drugstore-details/41046/jaiswal-medical-store
163,Pharmacy,Jaiswal Medical Store,(0522) 6993524,"Sector- I, Jankipuram, Lucknow",Lucknow,226021,India,Monday-Sunday 8am - 9pm,Cash,INR (Indian Rupees),https://www.medicineindia.org/pharmacy-chemist-drugstore-details/41059/jaiswal-medical-store
164,Pharmacy,Jaiswal Medical Store,9415767345,"43, Parag, Sector-5, Lda Colony, Lucknow",Lucknow,226017,India,Monday-Sunday 8am - 9pm,Cash,INR (Indian Rupees),https://www.medicineindia.org/pharmacy-chemist-drugstore-details/41079/jaiswal-medical-store
165,Pharmacy,Jaiswal Pharma,(0522) 2619401,"Shop No 3, Ground Floor, Solomon Market, Aminabad, Lucknow",Lucknow,226018,India,Monday-Sunday 8am - 9pm,Cash,INR (Indian Rupees),https://www.medicineindia.org/pharmacy-chemist-drugstore-details/41349/jaiswal-pharma
166,Pharmacy,Jaiswal medical store,9454708862,"7, Opp indian bank, Ashoka marg, narhai Galla mandi, Hazratganj, Lucknow",Lucknow,226001,India,Monday-Sunday 8am - 9pm,Cash,INR (Indian Rupees),https://www.medicineindia.org/pharmacy-chemist-drugstore-details/41110/jaiswal-medical-store
167,Pharmacy,Jankipuram Medical Store,(0522) 2012454,"Kursi Road, Paharpur Chauraha, Jankipuram, Lucknow",Lucknow,226021,India,Monday-Sunday 8am - 9pm,Cash,INR (Indian Rupees),https://www.medicineindia.org/pharmacy-chemist-drugstore-details/40996/jankipuram-medical-store
168,Pharmacy,Janta Medical & Provision Store,(0522) 2287994,"41/414, Ramtirth Marg, Narhi, Hazratganj, Lucknow",Lucknow,226001,India,Monday-Sunday 8am - 9pm,Cash,INR (Indian Rupees),https://www.medicineindia.org/pharmacy-chemist-drugstore-details/41109/janta-medical-provision-store
169,Pharmacy,Jay Ambey Medical Store,(0522) 2622491,"13, Gurudwara Rd, Lucknow Gpo, Lucknow",Lucknow,226001,India,Monday-Sunday 8am - 9pm,Cash,INR (Indian Rupees),https://www.medicineindia.org/pharmacy-chemist-drugstore-details/41179/jay-ambey-medical-store
170,Pharmacy,Jeevan Daan Agencies,(0522) 4044397,"Lgf 5, Aminabad Medicine Market, Aminabad, Lucknow",Lucknow,226018,India,Monday-Sunday 8am - 9pm,Cash,INR (Indian Rupees),https://www.medicineindia.org/pharmacy-chemist-drugstore-details/41374/jeevan-daan-agencies
171,Pharmacy,Jeevan Medical Store,9838681227,"Kumhar Mandi, Kharika Road, Telibagh, Lucknow",Lucknow,226002,India,Monday-Sunday 8am - 9pm,Cash,INR (Indian Rupees),https://www.medicineindia.org/pharmacy-chemist-drugstore-details/41313/jeevan-medical-store
172,Pharmacy,Jugal Medicals,9415197656,"51/11 Uday Ganj, Cantt Road, Lucknow",Lucknow,226001,India,Monday-Sunday 8am - 9pm,Cash,INR (Indian Rupees),https://www.medicineindia.org/pharmacy-chemist-drugstore-details/41229/jugal-medicals
173,Pharmacy,K S Pharma,(0522) 2620889,"43, Aminabad Park, Aminabad, Lucknow",Lucknow,226018,India,Monday-Sunday 8am - 9pm,Cash,INR (Indian Rupees),https://www.medicineindia.org/pharmacy-chemist-drugstore-details/41373/k-s-pharma
174,Pharmacy,K. Sons Medicals,(0522) 6631195,"5077, C- Block, Rajaji Puram, Lucknow",Lucknow,226017,India,Monday-Sunday 8am - 9pm,Cash,INR (Indian Rupees),https://www.medicineindia.org/pharmacy-chemist-drugstore-details/41081/k-sons-medicals
175,Pharmacy,K.k. Medicals,9305691242,"2,3, Gole Market, Mahanagar, Lucknow",Lucknow,226006,India,Monday-Sunday 8am - 9pm,Cash,INR (Indian Rupees),https://www.medicineindia.org/pharmacy-chemist-drugstore-details/41077/kk-medicals
176,Pharmacy,KRISHNA MEDICALS,9918888834,"Shop No-11, J K Market,Near Tikat RAI Talab, Mohaan Road, Lucknow Gpo, LUCKNOW",Lucknow,226001,India,Monday-Sunday 8am - 9pm,Cash,INR (Indian Rupees),https://www.medicineindia.org/pharmacy-chemist-drugstore-details/41203/krishna-medicals
177,Pharmacy,Kailash Medical Store,(0522) 2701268,"ITI Chauraha, Aliganj, Lucknow",Lucknow,226024,India,Monday-Sunday 8am - 9pm,Cash,INR (Indian Rupees),https://www.medicineindia.org/pharmacy-chemist-drugstore-details/41151/kailash-medical-store
178,Pharmacy,Kaka Medicals,9415468132,"Near Kapoorthala, New Hanuman Mandir, Aliganj, LUCKNOW",Lucknow,226024,India,Monday-Sunday 8am - 9pm,Cash,INR (Indian Rupees),https://www.medicineindia.org/pharmacy-chemist-drugstore-details/41152/kaka-medicals
179,Pharmacy,Kama Medicals,(0522) 2325558,"27/2, Chandralok Clny, Kapoorthala Rd, Aliganj, Lucknow",Lucknow,226002,India,Monday-Sunday 8am - 9pm,Cash,INR (Indian Rupees),https://www.medicineindia.org/pharmacy-chemist-drugstore-details/40951/kama-medicals
180,Pharmacy,Kamdhenu Medical Store,9335515732,"27, Chandralok Colony, Kapoorthala Road, Aliganj, Lucknow",Lucknow,226024,India,Monday-Sunday 8am - 9pm,Cash,INR (Indian Rupees),https://www.medicineindia.org/pharmacy-chemist-drugstore-details/40974/kamdhenu-medical-store
181,Pharmacy,Kamdhenu Medical Store,(0522) 3233832,"Chandrlok Colony, Aliganj, Aliganj, Lucknow",Lucknow,226002,India,Monday-Sunday 8am - 9pm,Cash,INR (Indian Rupees),https://www.medicineindia.org/pharmacy-chemist-drugstore-details/41300/kamdhenu-medical-store
182,Pharmacy,Kaneez Medical Store,983932616,"Chitwapur Road, Lalkuan, Lucknow",Lucknow,226001,India,Monday-Sunday 8am - 9pm,Cash,INR (Indian Rupees),https://www.medicineindia.org/pharmacy-chemist-drugstore-details/41228/kaneez-medical-store
183,Pharmacy,Kaushalya Medical Store,9452380492,"Pavchvatipark, Rajkiya School Road,Gomtinagar, Gomti Nagar Lucknow, Lucknow",Lucknow,226001,India,Monday-Sunday 8am - 9pm,Cash,INR (Indian Rupees),https://www.medicineindia.org/pharmacy-chemist-drugstore-details/41187/kaushalya-medical-store
184,Pharmacy,Kaushalya Medical Store,9452680492,"Rajkiye School, Panchwati Park, Gomtinagar, Gomti Nagar Lucknow, Lucknow",Lucknow,226001,India,Monday-Sunday 8am - 9pm,Cash,INR (Indian Rupees),https://www.medicineindia.org/pharmacy-chemist-drugstore-details/41188/kaushalya-medical-store
185,Pharmacy,Kay Dee Pharmaceutical,(0522) 2271280,"Shop No-6, 2nd Floor, Sugnamal Market, Aminabad, Lucknow",Lucknow,226018,India,Monday-Sunday 8am - 9pm,Cash,INR (Indian Rupees),https://www.medicineindia.org/pharmacy-chemist-drugstore-details/41368/kay-dee-pharmaceutical
186,Pharmacy,Kaybee Pharma,(0522) 2297128,"4, Azad New Medicine Mkt, Meerjaan Lane, La Touche Road, Lucknow",Lucknow,226002,India,Monday-Sunday 8am - 9pm,Cash,INR (Indian Rupees),https://www.medicineindia.org/pharmacy-chemist-drugstore-details/41297/kaybee-pharma
187,Pharmacy,Kedar Nath & Sons,(0522) 2481424,"99 Nehru Road, Sadar Bazar, Sadar, Lucknow",Lucknow,226002,India,Monday-Sunday 8am - 9pm,Cash,INR (Indian Rupees),https://www.medicineindia.org/pharmacy-chemist-drugstore-details/41311/kedar-nath-sons
188,Pharmacy,Kent Homoeopathic Pharmacy,(0522) 6531745,"Near Aminabad Post Office, Aminabad, Lucknow",Lucknow,226018,India,Monday-Sunday 8am - 9pm,Cash,INR (Indian Rupees),https://www.medicineindia.org/pharmacy-chemist-drugstore-details/41343/kent-homoeopathic-pharmacy
189,Pharmacy,Khalsa Medical,(0522) 2668453,"6, Diamond Point,Nr Sgpgi, Saraswati Puram, Lucknow",Lucknow,226025,India,Monday-Sunday 8am - 9pm,Cash,INR (Indian Rupees),https://www.medicineindia.org/pharmacy-chemist-drugstore-details/40914/khalsa-medical
190,Pharmacy,Khalsa Stores,(0522) 4063985,"Kaserbagh Circle, Kaisarbagh, Lucknow",Lucknow,226001,India,Monday-Sunday 8am - 9pm,Cash,INR (Indian Rupees),https://www.medicineindia.org/pharmacy-chemist-drugstore-details/40910/khalsa-stores
191,Pharmacy,Khatri Medicals,(0522) 4011879,"C-26/M, Aliganj, Lucknow",Lucknow,226024,India,Monday-Sunday 8am - 9pm,Cash,INR (Indian Rupees),https://www.medicineindia.org/pharmacy-chemist-drugstore-details/41142/khatri-medicals
192,Pharmacy,King Medical Hall,(0522) 2211935,"25, Aminabad Park, Lucknow",Lucknow,226001,India,Monday-Sunday 8am - 9pm,Cash,INR (Indian Rupees),https://www.medicineindia.org/pharmacy-chemist-drugstore-details/40975/king-medical-hall
193,Pharmacy,King Medican Centre,9335608502,"Near City Station, Jagat Narayan Road, Golaganj, Lucknow",Lucknow,226018,India,Monday-Sunday 8am - 9pm,Cash,INR (Indian Rupees),https://www.medicineindia.org/pharmacy-chemist-drugstore-details/40953/king-medican-centre
194,Pharmacy,Krishan Medical Store,(0522) 2241226,"Bazar Khala Crossing, Lucknow Chowk, Lucknow",Lucknow,226003,India,Monday-Sunday 8am - 9pm,Cash,INR (Indian Rupees),https://www.medicineindia.org/pharmacy-chemist-drugstore-details/40941/krishan-medical-store
195,Pharmacy,Krishana Medicals,9335372386,"Tb. Hospital Chauraha, Hardoi Road, Thakurganj, Lucknow",Lucknow,226003,India,Monday-Sunday 8am - 9pm,Cash,INR (Indian Rupees),https://www.medicineindia.org/pharmacy-chemist-drugstore-details/41008/krishana-medicals
196,Pharmacy,Krishna Medical Centre,9415517930,"449, Purana Quila, Cantt Road, Lucknow",Lucknow,226001,India,Monday-Sunday 8am - 9pm,Cash,INR (Indian Rupees),https://www.medicineindia.org/pharmacy-chemist-drugstore-details/40979/krishna-medical-centre
197,Pharmacy,Krishna Medical Hall,9415950685,"Lgf 12-13, Hardoi Road, Thakurganj, Lucknow",Lucknow,226003,India,Monday-Sunday 8am - 9pm,Cash,INR (Indian Rupees),https://www.medicineindia.org/pharmacy-chemist-drugstore-details/41064/krishna-medical-hall
198,Pharmacy,Krishna Medical Hall,(0522) 2762897,"23, Arte Chamber 3, Sector H, Aliganj, Lucknow",Lucknow,226024,India,Monday-Sunday 8am - 9pm,Cash,INR (Indian Rupees),https://www.medicineindia.org/pharmacy-chemist-drugstore-details/41122/krishna-medical-hall
199,Pharmacy,Krishna Medical Store,9838866653,"Bangla Bazar, LUCKNOW",Lucknow,226002,India,Monday-Sunday 8am - 9pm,Cash,INR (Indian Rupees),https://www.medicineindia.org/pharmacy-chemist-drugstore-details/41304/krishna-medical-store
200,Pharmacy,Krishna Medicals,(0522) 2762897,"2 Arif Chamber-3, Sector-H, Aliganj, Lucknow",Lucknow,226024,India,Monday-Sunday 8am - 9pm,Cash,INR (Indian Rupees),https://www.medicineindia.org/pharmacy-chemist-drugstore-details/41143/krishna-medicals
201,Pharmacy,Kundan Medicals,(0522) 2282845,"Shop No-4, First Floor, Parsi Shah Building, Aminabad, Lucknow",Lucknow,226018,India,Monday-Sunday 8am - 9pm,Cash,INR (Indian Rupees),https://www.medicineindia.org/pharmacy-chemist-drugstore-details/41361/kundan-medicals
202,Pharmacy,Kunj Medical Store,9415795636,"Yadav Market, Sgpgi Gate, RAI Bareli Rd, Lucknow",Lucknow,226002,India,Monday-Sunday 8am - 9pm,Cash,INR (Indian Rupees),https://www.medicineindia.org/pharmacy-chemist-drugstore-details/41310/kunj-medical-store
203,Pharmacy,Kunwar Medicals,(0522) 2782321,"626, Balda Rd,1st Ln, Nishatganj, Lucknow",Lucknow,226006,India,Monday-Sunday 8am - 9pm,Cash,INR (Indian Rupees),https://www.medicineindia.org/pharmacy-chemist-drugstore-details/41076/kunwar-medicals
204,Pharmacy,LARI MEDICAL STORE,8948406820,"Mariyam plaza, Near amrapali, Indira Nagar Lucknow, Lucknow",Lucknow,226016,India,Monday-Sunday 8am - 9pm,Cash,INR (Indian Rupees),https://www.medicineindia.org/pharmacy-chemist-drugstore-details/40930/lari-medical-store
205,Pharmacy,Lalbagh Medicals,(0522) 3293096,"Flat No. 6, Saptrishi Apartment, New Hyderabad, Lucknow",Lucknow,226007,India,Monday-Sunday 8am - 9pm,Cash,INR (Indian Rupees),https://www.medicineindia.org/pharmacy-chemist-drugstore-details/40987/lalbagh-medicals
206,Pharmacy,Land Marg Drugs,9839733776,"2nd Floor-8, JAI Hind Complex, Canti Road, Lalbagh, Lucknow",Lucknow,226001,India,Monday-Sunday 8am - 9pm,Cash,INR (Indian Rupees),https://www.medicineindia.org/pharmacy-chemist-drugstore-details/40972/land-marg-drugs
207,Pharmacy,Lari Medicals,8009585085,"Adarsh Cplx, Nr Engineering College, Janakipuram Vistar, Lucknow",Lucknow,226021,India,Monday-Sunday 8am - 9pm,Cash,INR (Indian Rupees),https://www.medicineindia.org/pharmacy-chemist-drugstore-details/40928/lari-medicals
208,Pharmacy,Laxmi Medical Store,9335312435,"35, Dr B N Varma Road, Aminabad, LUCKNOW",Lucknow,226018,India,Monday-Sunday 8am - 9pm,Cash,INR (Indian Rupees),https://www.medicineindia.org/pharmacy-chemist-drugstore-details/41385/laxmi-medical-store
209,Pharmacy,Leela Pharma,9838668984,"102 Nehru Road, Sadar Bazar, Sadar, Lucknow",Lucknow,226002,India,Monday-Sunday 8am - 9pm,Cash,INR (Indian Rupees),https://www.medicineindia.org/pharmacy-chemist-drugstore-details/40981/leela-pharma
210,Pharmacy,Leelavati Medical Store,9415514003,"16, Opposite Sgpgi,Dhanvantri Dham Market, Rai Bareli Rd, LUCKNOW",Lucknow,226002,India,Monday-Sunday 8am - 9pm,Cash,INR (Indian Rupees),https://www.medicineindia.org/pharmacy-chemist-drugstore-details/41305/leelavati-medical-store
211,Pharmacy,Life Care Chemists,9415028666,"Gf-91, Khazana Commercial Complex, Ashiyana, Lucknow",Lucknow,226012,India,Monday-Sunday 8am - 9pm,Cash,INR (Indian Rupees),https://www.medicineindia.org/pharmacy-chemist-drugstore-details/41067/life-care-chemists
212,Pharmacy,Life Care Medicine Centre,9889651777,"Vgf Shop No 1, Shiva Palace, Near Indian Oil Petrol Pump, Sector-16, Ring road, Indira Nagar Lucknow, Lucknow",Lucknow,226016,India,Monday-Sunday 8am - 9pm,Cash,INR (Indian Rupees),https://www.medicineindia.org/pharmacy-chemist-drugstore-details/40916/life-care-medicine-centre
213,Pharmacy,Lifecare medicals,7398844707,"Shop no.-3/333, Viram khand, Near ram bhawan, Gomti Nagar Lucknow, Lucknow",Lucknow,226001,India,Monday-Sunday 8am - 9pm,Cash,INR (Indian Rupees),https://www.medicineindia.org/pharmacy-chemist-drugstore-details/41286/lifecare-medicals
214,Pharmacy,Lucknow Agency,(0522) 2389131,"Lucknow Gpo, Lucknow",Lucknow,226001,India,Monday-Sunday 8am - 9pm,Cash,INR (Indian Rupees),https://www.medicineindia.org/pharmacy-chemist-drugstore-details/41167/lucknow-agency
215,Pharmacy,Lucknow Homeopathic Store,9415107708,"3 B N Rd, Kaisarbagh, Lucknow",Lucknow,226001,India,Monday-Sunday 8am - 9pm,Cash,INR (Indian Rupees),https://www.medicineindia.org/pharmacy-chemist-drugstore-details/40976/lucknow-homeopathic-store
216,Pharmacy,Lucknow Pharmacy,(0522) 2265259,"Nadan Mahal Road, Nakhas, Lucknow",Lucknow,226003,India,Monday-Sunday 8am - 9pm,Cash,INR (Indian Rupees),https://www.medicineindia.org/pharmacy-chemist-drugstore-details/40934/lucknow-pharmacy
217,Pharmacy,M A Medicos,9415062403,"Bhola Nath KA Kuan, Abdul Aziz Road, A P Sabha, Lucknow",Lucknow,226001,India,Monday-Sunday 8am - 9pm,Cash,INR (Indian Rupees),https://www.medicineindia.org/pharmacy-chemist-drugstore-details/41226/m-a-medicos
218,Pharmacy,M N Pharma,(0522) 6534042,"Shop No-5, Near Odeon Cinema, Nirpendra Sanyal Road, Odion Cinema, Lucknow",Lucknow,226001,India,Monday-Sunday 8am - 9pm,Cash,INR (Indian Rupees),https://www.medicineindia.org/pharmacy-chemist-drugstore-details/41254/m-n-pharma
219,Pharmacy,M. I. Pharma,(0522) 2620697,"147/7, Baisi Ki Masjid, Malka Geti Fatak Ke Pass Model Shop, Hawett Road, Lucknow",Lucknow,226001,India,Monday-Sunday 8am - 9pm,Cash,INR (Indian Rupees),https://www.medicineindia.org/pharmacy-chemist-drugstore-details/41193/m-i-pharma
220,Pharmacy,M/S Anil Medical Store,(0522) 2326073,"3, Akashdeep Complex, Kurshi Road, Aliganj, Lucknow",Lucknow,226024,India,Monday-Sunday 8am - 9pm,Cash,INR (Indian Rupees),https://www.medicineindia.org/pharmacy-chemist-drugstore-details/41138/ms-anil-medical-store
221,Pharmacy,MAA Enterprises,(0522) 3054861,"7, 3rd Floor, Soloman Market, Aminabad, Lucknow",Lucknow,226018,India,Monday-Sunday 8am - 9pm,Cash,INR (Indian Rupees),https://www.medicineindia.org/pharmacy-chemist-drugstore-details/41396/maa-enterprises
222,Pharmacy,MAA Gayarti Pharma,(0522) 2297141,"Surya Medicine Market, Aminabad, LUCKNOW",Lucknow,226018,India,Monday-Sunday 8am - 9pm,Cash,INR (Indian Rupees),https://www.medicineindia.org/pharmacy-chemist-drugstore-details/41391/maa-gayarti-pharma
223,Pharmacy,Maha Laxmi Medical Store,(0522) 2451000,"Laxmi Complex, Kanpur Road, Alambagh, Lucknow",Lucknow,226005,India,Monday-Sunday 8am - 9pm,Cash,INR (Indian Rupees),https://www.medicineindia.org/pharmacy-chemist-drugstore-details/41016/maha-laxmi-medical-store
224,Pharmacy,Maha medical,9889372726,"5, In front of civil hospital, Park road, Hazratganj, Lucknow",Lucknow,226001,India,Monday-Sunday 8am - 9pm,Cash,INR (Indian Rupees),https://www.medicineindia.org/pharmacy-chemist-drugstore-details/41096/maha-medical
225,Pharmacy,Maha medical,9415024839,"Af tower,ugfe, Nr civil hospital, 5,park road, Hazratganj, Lucknow",Lucknow,226001,India,Monday-Sunday 8am - 9pm,Cash,INR (Indian Rupees),https://www.medicineindia.org/pharmacy-chemist-drugstore-details/41098/maha-medical
226,Pharmacy,Mahadev Medical Store,9935204812,NATKHERA ROAD ALAMBAGH LUCKNOW,Lucknow,226005,India,Monday-Sunday 8am - 9pm,Cash,INR (Indian Rupees),https://www.medicineindia.org/pharmacy-chemist-drugstore-details/81921/mahadev-medical-store
227,Pharmacy,Mahashakti Medical Store,9503699427,"45, SAI Mandir Road, Tilpurwa, Hussainganj, Lucknow",Lucknow,226001,India,Monday-Sunday 8am - 9pm,Cash,INR (Indian Rupees),https://www.medicineindia.org/pharmacy-chemist-drugstore-details/41250/mahashakti-medical-store
228,Pharmacy,Mahi Medical Hall,9935459687,"Sector-14/1, Indira Nagar Lucknow, Lucknow",Lucknow,226016,India,Monday-Sunday 8am - 9pm,Cash,INR (Indian Rupees),https://www.medicineindia.org/pharmacy-chemist-drugstore-details/40933/mahi-medical-hall
229,Pharmacy,Mahi Medical Store,9838517891,"11sf, Kanchana Bihari Marg, Kalyanpur, Lucknow",Lucknow,226022,India,Monday-Sunday 8am - 9pm,Cash,INR (Indian Rupees),https://www.medicineindia.org/pharmacy-chemist-drugstore-details/40959/mahi-medical-store
230,Pharmacy,Mahi Medical Store,9616847478,"Jagat Narayan Road, Wazirganj, Lucknow",Lucknow,226001,India,Monday-Sunday 8am - 9pm,Cash,INR (Indian Rupees),https://www.medicineindia.org/pharmacy-chemist-drugstore-details/41277/mahi-medical-store
231,Pharmacy,Makkad Medical Centre,(0522) 2693158,"Naka Hindola, A P Sabha, Lucknow",Lucknow,226001,India,Monday-Sunday 8am - 9pm,Cash,INR (Indian Rupees),https://www.medicineindia.org/pharmacy-chemist-drugstore-details/40919/makkad-medical-centre
232,Pharmacy,Malik Medical Store,(0522) 2616205,"A-37, Ganga Prasad Road, Maulviganj, Lucknow",Lucknow,226001,India,Monday-Sunday 8am - 9pm,Cash,INR (Indian Rupees),https://www.medicineindia.org/pharmacy-chemist-drugstore-details/41207/malik-medical-store
233,Pharmacy,Malik Medicals,(0522) 2612781,"H.s. Market, Aminabad Road, Aminabad, Lucknow",Lucknow,226018,India,Monday-Sunday 8am - 9pm,Cash,INR (Indian Rupees),https://www.medicineindia.org/pharmacy-chemist-drugstore-details/41365/malik-medicals
234,Pharmacy,Mamta Medical Store,(0522) 2352321,"8, Bhootnath Mkt, Indira Nagar Lucknow, Lucknow",Lucknow,226016,India,Monday-Sunday 8am - 9pm,Cash,INR (Indian Rupees),https://www.medicineindia.org/pharmacy-chemist-drugstore-details/40920/mamta-medical-store
235,Pharmacy,Mani Medical Store,(0522) 2447519,"3/196, Sharda Nagar Yojna, Lda, Rajni Khand, Telibagh, Lucknow",Lucknow,226002,India,Monday-Sunday 8am - 9pm,Cash,INR (Indian Rupees),https://www.medicineindia.org/pharmacy-chemist-drugstore-details/41332/mani-medical-store
236,Pharmacy,Maya Medical Store,(0522) 2450235,"Shop no.-565k/60, Opp. Up coperative bank, Kanpur road, Alambagh, Lucknow",Lucknow,226005,India,Monday-Sunday 8am - 9pm,Cash,INR (Indian Rupees),https://www.medicineindia.org/pharmacy-chemist-drugstore-details/41003/maya-medical-store
237,Pharmacy,Medical Centre,(0522) 2214924,"25, Vidhan Sabha Marg, Hussainganj, Lucknow",Lucknow,226001,India,Monday-Sunday 8am - 9pm,Cash,INR (Indian Rupees),https://www.medicineindia.org/pharmacy-chemist-drugstore-details/40977/medical-centre
238,Pharmacy,Medicine Agencies,(0522) 2431204,"Near Airport Amousi, Bagh No. 3, Kanpur Road, Lucknow",Lucknow,226005,India,Monday-Sunday 8am - 9pm,Cash,INR (Indian Rupees),https://www.medicineindia.org/pharmacy-chemist-drugstore-details/40971/medicine-agencies
239,Pharmacy,Medicine Centre,(0522) 2615279,"6 Vidhan Sabha Marg, Hazratganj, Lucknow",Lucknow,226001,India,Monday-Sunday 8am - 9pm,Cash,INR (Indian Rupees),https://www.medicineindia.org/pharmacy-chemist-drugstore-details/41273/medicine-centre
240,Pharmacy,Medico Centre,9236402784,"Opp. Singar Nagar Gate, Singar Nagar, Alambagh, Lucknow",Lucknow,226005,India,Monday-Sunday 8am - 9pm,Cash,INR (Indian Rupees),https://www.medicineindia.org/pharmacy-chemist-drugstore-details/41072/medico-centre
241,Pharmacy,Mehrotra Medicals,9415081189,"D-1, Puraniya Chauraha Crossing, Sector - H, Aliganj, Lucknow",Lucknow,226024,India,Monday-Sunday 8am - 9pm,Cash,INR (Indian Rupees),https://www.medicineindia.org/pharmacy-chemist-drugstore-details/41125/mehrotra-medicals
242,Pharmacy,Mishthi Medical Store,8874165565,"Sanjay Gandhi Puram Lucknow, Sanjay Gandhi Nagar, Lucknow",Lucknow,226001,India,Monday-Sunday 8am - 9pm,Cash,INR (Indian Rupees),https://www.medicineindia.org/pharmacy-chemist-drugstore-details/41201/mishthi-medical-store
243,Pharmacy,Modern Medical Hall,(0522) 2762392,"Ugf-2815, Ashirwad Plaza, Ram-Ram Chauraha, Sector-A, Aliganj, Lucknow",Lucknow,226024,India,Monday-Sunday 8am - 9pm,Cash,INR (Indian Rupees),https://www.medicineindia.org/pharmacy-chemist-drugstore-details/41155/modern-medical-hall
244,Pharmacy,Modern Medical Store,(0522) 2638909,"98 Guru Govind Singh Marg, Lalkuan, Lucknow",Lucknow,226001,India,Monday-Sunday 8am - 9pm,Cash,INR (Indian Rupees),https://www.medicineindia.org/pharmacy-chemist-drugstore-details/41225/modern-medical-store
245,Pharmacy,Modi Chemicals Pvt Ltd,9838738022,"531/161,Bhindiya Tola, Bada Chandganj, Lucknow Gpo, Lucknow",Lucknow,226001,India,Monday-Sunday 8am - 9pm,Cash,INR (Indian Rupees),https://www.medicineindia.org/pharmacy-chemist-drugstore-details/41042/modi-chemicals-pvt-ltd
246,Pharmacy,Mohan Drug Agencies,(0522) 3040340,"1m King Medicine Complex, Aminabad, Lucknow",Lucknow,226018,India,Monday-Sunday 8am - 9pm,Cash,INR (Indian Rupees),https://www.medicineindia.org/pharmacy-chemist-drugstore-details/41051/mohan-drug-agencies
247,Pharmacy,Mohan Medical Store,9936171731,"Near Talwar Colour Lab, Opposite Hotel Vishskant, Charbagh, Lucknow",Lucknow,226001,India,Monday-Sunday 8am - 9pm,Cash,INR (Indian Rupees),https://www.medicineindia.org/pharmacy-chemist-drugstore-details/41214/mohan-medical-store
248,Pharmacy,N. J. Pharma,(0522) 2615173,"J.n.k. Market, Aminabad, Lucknow",Lucknow,226018,India,Monday-Sunday 8am - 9pm,Cash,INR (Indian Rupees),https://www.medicineindia.org/pharmacy-chemist-drugstore-details/41355/n-j-pharma
249,Pharmacy,N. R. Pharma,(0522) 6553434,"Near Kgmu, Shahmeena Road, Lucknow Chowk, Lucknow",Lucknow,226003,India,Monday-Sunday 8am - 9pm,Cash,INR (Indian Rupees),https://www.medicineindia.org/pharmacy-chemist-drugstore-details/41034/n-r-pharma
250,Pharmacy,NATIONAL CHEMIST,9793275767,"6, Opp ballabh Bhai Patel, Vidhan sabha marg, Hazratganj, Lucknow",Lucknow,226001,India,Monday-Sunday 8am - 9pm,Cash,INR (Indian Rupees),https://www.medicineindia.org/pharmacy-chemist-drugstore-details/41100/national-chemist
251,Pharmacy,NAV Chemist,9415761205,"Purana Sardari Khera, Alambagh, Lucknow",Lucknow,226005,India,Monday-Sunday 8am - 9pm,Cash,INR (Indian Rupees),https://www.medicineindia.org/pharmacy-chemist-drugstore-details/41019/nav-chemist
252,Pharmacy,Nageshwar Medicals,9452243497,"Lgf 01 Sec H, Near Puraniya Petrol Pump, Arohi Bazar, Aliganj, Lucknow",Lucknow,226024,India,Monday-Sunday 8am - 9pm,Cash,INR (Indian Rupees),https://www.medicineindia.org/pharmacy-chemist-drugstore-details/41127/nageshwar-medicals
253,Pharmacy,Nath Enterprises,(0522) 2616532,"Shop No-1, J.n.k. Market, Aminabad, Lucknow",Lucknow,226018,India,Monday-Sunday 8am - 9pm,Cash,INR (Indian Rupees),https://www.medicineindia.org/pharmacy-chemist-drugstore-details/41359/nath-enterprises
254,Pharmacy,Nath Medical Stores,9628000041,"7 B.n. Road, Kaisarbagh, Lucknow",Lucknow,226001,India,Monday-Sunday 8am - 9pm,Cash,INR (Indian Rupees),https://www.medicineindia.org/pharmacy-chemist-drugstore-details/41195/nath-medical-stores
255,Pharmacy,National Hospital,(0522) 2469646,"64-65, Rajaji Puram, Lucknow",Lucknow,226017,India,Monday-Sunday 8am - 9pm,Cash,INR (Indian Rupees),https://www.medicineindia.org/pharmacy-chemist-drugstore-details/41078/national-hospital
256,Pharmacy,National Medical Store,9415002673,"Lucknow Chowk, Lucknow",Lucknow,226003,India,Monday-Sunday 8am - 9pm,Cash,INR (Indian Rupees),https://www.medicineindia.org/pharmacy-chemist-drugstore-details/40994/national-medical-store
257,Pharmacy,National Medical Store,(0522) 2266074,"Kamla Nehru Crossing,Nr Medical College,P O Chowk, Medical College, Lucknow",Lucknow,226003,India,Monday-Sunday 8am - 9pm,Cash,INR (Indian Rupees),https://www.medicineindia.org/pharmacy-chemist-drugstore-details/41005/national-medical-store
258,Pharmacy,National Medical Store,(0522) 2446740,"Shop No-2, Sahani Complex, Telibagh, Lucknow",Lucknow,226002,India,Monday-Sunday 8am - 9pm,Cash,INR (Indian Rupees),https://www.medicineindia.org/pharmacy-chemist-drugstore-details/41047/national-medical-store
259,Pharmacy,National chemist,9935920889,"6, Opp Patel park, Vidhansabha marg, Hazratganj, Lucknow",Lucknow,226001,India,Monday-Sunday 8am - 9pm,Cash,INR (Indian Rupees),https://www.medicineindia.org/pharmacy-chemist-drugstore-details/41099/national-chemist
260,Pharmacy,Naval Medicals,(0522) 3239503,"Shop No-24, Madhu Palace, Near Sgpgi, RAI Bareli Road, Lucknow",Lucknow,226014,India,Monday-Sunday 8am - 9pm,Cash,INR (Indian Rupees),https://www.medicineindia.org/pharmacy-chemist-drugstore-details/41084/naval-medicals
261,Pharmacy,Nawal Medical Store,9839476246,"S-7, Opp Vishnu Puri Clny,Gole Mkt, Aliganj, Lucknow",Lucknow,226024,India,Monday-Sunday 8am - 9pm,Cash,INR (Indian Rupees),https://www.medicineindia.org/pharmacy-chemist-drugstore-details/41040/nawal-medical-store
262,Pharmacy,Neha Medical store,8960050847,"Sahu complex, Opp.Dr Ram kapoor, Ram tirth marg, Narahi, Lucknow",Lucknow,226001,India,Monday-Sunday 8am - 9pm,Cash,INR (Indian Rupees),https://www.medicineindia.org/pharmacy-chemist-drugstore-details/41116/neha-medical-store
263,Pharmacy,Neha medical store,9807243087,"39/42, Narhi market, Ram tirth marg, Hazratganj, Lucknow",Lucknow,226001,India,Monday-Sunday 8am - 9pm,Cash,INR (Indian Rupees),https://www.medicineindia.org/pharmacy-chemist-drugstore-details/41117/neha-medical-store
264,Pharmacy,Nehru Medical Centre,(0522) 2732134,"Lgf,3-4, Sector -F, Bhawana Shopping Centre, Jankipuram, Lucknow",Lucknow,226021,India,Monday-Sunday 8am - 9pm,Cash,INR (Indian Rupees),https://www.medicineindia.org/pharmacy-chemist-drugstore-details/40997/nehru-medical-centre
265,Pharmacy,New Ajay Medical Hall,9415759821,"C-21, Sec-P, Aliganj, Lucknow",Lucknow,226002,India,Monday-Sunday 8am - 9pm,Cash,INR (Indian Rupees),https://www.medicineindia.org/pharmacy-chemist-drugstore-details/41325/new-ajay-medical-hall
266,Pharmacy,New Chemico Chemist,(0522) 3914091,"2, Parshishah Buliding, 1st Floor, Aminabad, LUCKNOW",Lucknow,226018,India,Monday-Sunday 8am - 9pm,Cash,INR (Indian Rupees),https://www.medicineindia.org/pharmacy-chemist-drugstore-details/41389/new-chemico-chemist
267,Pharmacy,New Chemist,(0522) 2460028,"2a/2, Adarsh Nagar, Tehri Puliya, Alambagh, Lucknow",Lucknow,226005,India,Monday-Sunday 8am - 9pm,Cash,INR (Indian Rupees),https://www.medicineindia.org/pharmacy-chemist-drugstore-details/41015/new-chemist
268,Pharmacy,New Life Medicals,9335649157,"Nadan Mahal Road, Lucknow",Lucknow,226004,India,Monday-Sunday 8am - 9pm,Cash,INR (Indian Rupees),https://www.medicineindia.org/pharmacy-chemist-drugstore-details/40955/new-life-medicals
269,Pharmacy,New Pradeep medicals,9450358962,"Shop no.-L-9, vijayent khand, Kathuta chauraha, Gomti Nagar Lucknow, Lucknow",Lucknow,226001,India,Monday-Sunday 8am - 9pm,Cash,INR (Indian Rupees),https://www.medicineindia.org/pharmacy-chemist-drugstore-details/41283/new-pradeep-medicals
270,Pharmacy,New Pratap Medical Store,(0522) 2298988,"Khasra No 2 Isa Vill Bargadimaghth, Air Force Station Road, Aliganj, Lucknow",Lucknow,226002,India,Monday-Sunday 8am - 9pm,Cash,INR (Indian Rupees),https://www.medicineindia.org/pharmacy-chemist-drugstore-details/41302/new-pratap-medical-store
271,Pharmacy,New Pushpa Medical Store,9307151050,"B-4, Near Fatima Hospital,,Sector-A, MAIN ROAD, Mahanagar, Lucknow",Lucknow,226006,India,Monday-Sunday 8am - 9pm,Cash,INR (Indian Rupees),https://www.medicineindia.org/pharmacy-chemist-drugstore-details/40940/new-pushpa-medical-store
272,Pharmacy,New Remedy Medicals,(0522) 3255264,"Shop No-2, Diomond Tower, Ugf-2, Udai Ganj, Cantt Road, Lucknow",Lucknow,226001,India,Monday-Sunday 8am - 9pm,Cash,INR (Indian Rupees),https://www.medicineindia.org/pharmacy-chemist-drugstore-details/41263/new-remedy-medicals
273,Pharmacy,New Sardar Medical Store,9936404519,"Raidas Mandir Crossing, Chandganj, Lucknow",Lucknow,226007,India,Monday-Sunday 8am - 9pm,Cash,INR (Indian Rupees),https://www.medicineindia.org/pharmacy-chemist-drugstore-details/41054/new-sardar-medical-store
274,Pharmacy,New Shakuntala Medical Store,(0522) 2338632,"Near Fatima Hospital, Mahanagar, Lucknow",Lucknow,226006,India,Monday-Sunday 8am - 9pm,Cash,INR (Indian Rupees),https://www.medicineindia.org/pharmacy-chemist-drugstore-details/40964/new-shakuntala-medical-store
275,Pharmacy,New Tondon Medicals,(0522) 2362635,"Ugf-5, Ashirwad Plaza, Ram-Ram Bank Chauraha, Aliganj, Lucknow",Lucknow,226024,India,Monday-Sunday 8am - 9pm,Cash,INR (Indian Rupees),https://www.medicineindia.org/pharmacy-chemist-drugstore-details/41135/new-tondon-medicals
276,Pharmacy,New V.p. Anand & Son,(0522) 4001099,"51, Opp. Mohan Market Lane 3, Aminabad, Lucknow",Lucknow,226018,India,Monday-Sunday 8am - 9pm,Cash,INR (Indian Rupees),https://www.medicineindia.org/pharmacy-chemist-drugstore-details/41290/new-vp-anand-son
277,Pharmacy,Nigam Medical Store,(0522) 2285765,"84, JAI Narayan Raod, Hussainganj, Lucknow",Lucknow,226001,India,Monday-Sunday 8am - 9pm,Cash,INR (Indian Rupees),https://www.medicineindia.org/pharmacy-chemist-drugstore-details/41264/nigam-medical-store
278,Pharmacy,Nirala Medical Store,(0522) 2789512,"D 115, Chouraha Numbert 8, Nirala Nagar, Lucknow",Lucknow,226020,India,Monday-Sunday 8am - 9pm,Cash,INR (Indian Rupees),https://www.medicineindia.org/pharmacy-chemist-drugstore-details/40965/nirala-medical-store
279,Pharmacy,Niyaz Medical Store,9935636932,"Shop Number-5, Building Number-143, Beside Star Palace, Cantt Road, Cantt Road, Lucknow",Lucknow,226001,India,Monday-Sunday 8am - 9pm,Cash,INR (Indian Rupees),https://www.medicineindia.org/pharmacy-chemist-drugstore-details/41161/niyaz-medical-store
280,Pharmacy,Nova Medicals,(0522) 2300027,"1/2, Vikas Khand, Gomti Nagar, Lucknow",Lucknow,226010,India,Monday-Sunday 8am - 9pm,Cash,INR (Indian Rupees),https://www.medicineindia.org/pharmacy-chemist-drugstore-details/41069/nova-medicals
281,Pharmacy,OM Pharma,(0522) 2239078,"Opposite Civil Hospital, 5 Park Road, Hazratganj, Lucknow",Lucknow,226001,India,Monday-Sunday 8am - 9pm,Cash,INR (Indian Rupees),https://www.medicineindia.org/pharmacy-chemist-drugstore-details/40925/om-pharma
282,Pharmacy,Om Medical Store,(0522) 2200159,"29, Vidhan Sabha Marg, Hussainganj, Lucknow",Lucknow,226001,India,Monday-Sunday 8am - 9pm,Cash,INR (Indian Rupees),https://www.medicineindia.org/pharmacy-chemist-drugstore-details/40949/om-medical-store
283,Pharmacy,Om Medical Store,9335318782,"289/293 Rani Niwas, Moti Nagar Crossing, Aishbagh, Lucknow",Lucknow,226004,India,Monday-Sunday 8am - 9pm,Cash,INR (Indian Rupees),https://www.medicineindia.org/pharmacy-chemist-drugstore-details/40989/om-medical-store
284,Pharmacy,Om Medical Store,9415084257,"Banthra Bazar, Banthra, Lucknow",Lucknow,227101,India,Monday-Sunday 8am - 9pm,Cash,INR (Indian Rupees),https://www.medicineindia.org/pharmacy-chemist-drugstore-details/41032/om-medical-store
285,Pharmacy,Om Medicals,(0522) 2440550,"Telibagh, Lucknow",Lucknow,226002,India,Monday-Sunday 8am - 9pm,Cash,INR (Indian Rupees),https://www.medicineindia.org/pharmacy-chemist-drugstore-details/41328/om-medicals
286,Pharmacy,Om pharma,9651575640,"5 krishnabhawan, Near civil hospital, Park road, Hazratganj, Lucknow",Lucknow,226001,India,Monday-Sunday 8am - 9pm,Cash,INR (Indian Rupees),https://www.medicineindia.org/pharmacy-chemist-drugstore-details/41095/om-pharma
287,Pharmacy,Om pharma medical,9415102768,"5, Opp civil hospital, Park road, Hazratganj, Lucknow",Lucknow,226001,India,Monday-Sunday 8am - 9pm,Cash,INR (Indian Rupees),https://www.medicineindia.org/pharmacy-chemist-drugstore-details/41094/om-pharma-medical
288,Pharmacy,Oudh coco gem,9415426363,"1, Nr Gpo, Vidhyanath Sabha marg, Hazratganj, Lucknow",Lucknow,226001,India,Monday-Sunday 8am - 9pm,Cash,INR (Indian Rupees),https://www.medicineindia.org/pharmacy-chemist-drugstore-details/41101/oudh-coco-gem
289,Pharmacy,Pankaj pharmacy,7311138014,A- 5 hal town ship old colony indira nager,Lucknow,226016,India,Monday-Sunday 8am - 9pm,Cash,INR (Indian Rupees),https://www.medicineindia.org/pharmacy-chemist-drugstore-details/82189/pankaj-pharmacy
290,Pharmacy,Patanjali Chikitsalaya,(0522) 2398777,"3/69, Patrkar Puram, Gomti Nagar, Lucknow",Lucknow,226010,India,Monday-Sunday 8am - 9pm,Cash,INR (Indian Rupees),https://www.medicineindia.org/pharmacy-chemist-drugstore-details/40903/patanjali-chikitsalaya
291,Pharmacy,Pavitra Medicals,(0522) 4001689,"1/329, Viram Khand, Gomti Nagar, Lucknow",Lucknow,226010,India,Monday-Sunday 8am - 9pm,Cash,INR (Indian Rupees),https://www.medicineindia.org/pharmacy-chemist-drugstore-details/41013/pavitra-medicals
292,Pharmacy,Pawan Pharma,(0522) 2202593,"6, Khiamal Market, 1st Floor, Aminabad, Lucknow",Lucknow,226018,India,Monday-Sunday 8am - 9pm,Cash,INR (Indian Rupees),https://www.medicineindia.org/pharmacy-chemist-drugstore-details/41369/pawan-pharma
293,Pharmacy,Peer Ji Medicose,09651601297,Tender care Nursing home Picnic Spot Road Khurram Nagar,Lucknow,226022,India,Monday-Sunday 8am - 9pm,Cash,INR (Indian Rupees),https://www.medicineindia.org/pharmacy-chemist-drugstore-details/82490/peer-ji-medicose
294,Pharmacy,Perfumary Store,(0522) 4002878,"1, Aminabad Square, Aminabad, Lucknow",Lucknow,226018,India,Monday-Sunday 8am - 9pm,Cash,INR (Indian Rupees),https://www.medicineindia.org/pharmacy-chemist-drugstore-details/41341/perfumary-store
295,Pharmacy,Pharma & Bk,(0522) 2628204,"113/7, Medicine Market, Aminabad, Lucknow",Lucknow,226018,India,Monday-Sunday 8am - 9pm,Cash,INR (Indian Rupees),https://www.medicineindia.org/pharmacy-chemist-drugstore-details/41393/pharma-bk
296,Pharmacy,Phlox Laboratories Private Limited,9838008200,"BAJ NAGAR , KAKORI",Lucknow,226101,India,Monday-Sunday 8am - 9pm,Cash,INR (Indian Rupees),https://www.medicineindia.org/pharmacy-chemist-drugstore-details/82282/phlox-laboratories-private-limited
297,Pharmacy,Prabhu Medicals,9335993997,"G-1, Singh Complex, Near Manas Complex, Kursi Road, Aliganj, Lucknow",Lucknow,226024,India,Monday-Sunday 8am - 9pm,Cash,INR (Indian Rupees),https://www.medicineindia.org/pharmacy-chemist-drugstore-details/41139/prabhu-medicals
298,Pharmacy,Prachi Medicals,(0522) 2610619,Lucknow,Lucknow,226001,India,Monday-Sunday 8am - 9pm,Cash,INR (Indian Rupees),https://www.medicineindia.org/pharmacy-chemist-drugstore-details/41267/prachi-medicals
299,Pharmacy,Pradeep Medicals,(0522) 2303113,"A/12, Shopping Complex, Vivek Khand, Gomti Nagar, Lucknow",Lucknow,226010,India,Monday-Sunday 8am - 9pm,Cash,INR (Indian Rupees),https://www.medicineindia.org/pharmacy-chemist-drugstore-details/41070/pradeep-medicals
300,Pharmacy,Pradeep madicals,9451954415,"Shop no.-A-12, LDA market, Near tiwari tutorial, Gomti Nagar Lucknow, Lucknow",Lucknow,226001,India,Monday-Sunday 8am - 9pm,Cash,INR (Indian Rupees),https://www.medicineindia.org/pharmacy-chemist-drugstore-details/41288/pradeep-madicals
301,Pharmacy,Prakash Homeo,9839902004,"Sultanpur, A P Sabha, Lucknow",Lucknow,226001,India,Monday-Sunday 8am - 9pm,Cash,INR (Indian Rupees),https://www.medicineindia.org/pharmacy-chemist-drugstore-details/41174/prakash-homeo
302,Pharmacy,Prasad Homeo Agency,9336010070,"Nr Kesar Bagh Bus Stand, Lucknow Chowk, Lucknow",Lucknow,226003,India,Monday-Sunday 8am - 9pm,Cash,INR (Indian Rupees),https://www.medicineindia.org/pharmacy-chemist-drugstore-details/40990/prasad-homeo-agency
303,Pharmacy,Prasad Medical & Surgicals,(0522) 2656681,"RAI Bareli Rd Lucknow, LUCKNOW",Lucknow,226014,India,Monday-Sunday 8am - 9pm,Cash,INR (Indian Rupees),https://www.medicineindia.org/pharmacy-chemist-drugstore-details/41082/prasad-medical-surgicals
304,Pharmacy,Pratima Medical Hall,9415102800,"439 C/99, Hardoi Road, Thakurganj, Lucknow",Lucknow,226003,India,Monday-Sunday 8am - 9pm,Cash,INR (Indian Rupees),https://www.medicineindia.org/pharmacy-chemist-drugstore-details/41006/pratima-medical-hall
305,Pharmacy,Praveen Medical Store,(0522) 2440789,"Ram Bharose School Market, Telibagh, Lucknow",Lucknow,226002,India,Monday-Sunday 8am - 9pm,Cash,INR (Indian Rupees),https://www.medicineindia.org/pharmacy-chemist-drugstore-details/41309/praveen-medical-store
306,Pharmacy,Prem Medicine,9935057905,"Puran Nagar Chauraha, Puran Nagar, Alambagh, Lucknow",Lucknow,226005,India,Monday-Sunday 8am - 9pm,Cash,INR (Indian Rupees),https://www.medicineindia.org/pharmacy-chemist-drugstore-details/41018/prem-medicine
307,Pharmacy,Public Health Summit,(0522) 2271859,"G3, Paradise Market, Aminabad, Lucknow",Lucknow,226018,India,Monday-Sunday 8am - 9pm,Cash,INR (Indian Rupees),https://www.medicineindia.org/pharmacy-chemist-drugstore-details/41366/public-health-summit
308,Pharmacy,Punjab Medical Store,933626113,"62/3 G. G. S. Marg, Hussainganj, Lucknow",Lucknow,226001,India,Monday-Sunday 8am - 9pm,Cash,INR (Indian Rupees),https://www.medicineindia.org/pharmacy-chemist-drugstore-details/41222/punjab-medical-store
309,Pharmacy,Pushkar Medico,(0522) 2212021,"Near Krishna Medical Centre, Rp Marg, Hussainganj, Lucknow",Lucknow,226001,India,Monday-Sunday 8am - 9pm,Cash,INR (Indian Rupees),https://www.medicineindia.org/pharmacy-chemist-drugstore-details/41220/pushkar-medico
310,Pharmacy,Pushkar Medico,9415016521,"1 Rana Pratap Marg, near Krishna Medical Centre and behind KD Singh Babu Stadium, Hazratganj, Lucknow",Lucknow,226001,India,Monday-Sunday 8am - 9pm,Cash,INR (Indian Rupees),https://www.medicineindia.org/pharmacy-chemist-drugstore-details/81881/pushkar-medico
311,Pharmacy,Pushkar Medicos,(0522) 2270106,"Nr Krishna Medical Centre, Rana Pratap Mg, A P Sabha, Lucknow",Lucknow,226001,India,Monday-Sunday 8am - 9pm,Cash,INR (Indian Rupees),https://www.medicineindia.org/pharmacy-chemist-drugstore-details/41168/pushkar-medicos
312,Pharmacy,R C Gupta Ent,9839487410,"Shop Number -25, Murli Nagar,Near Gupta Bakri, Hussainganj, Lucknow",Lucknow,226001,India,Monday-Sunday 8am - 9pm,Cash,INR (Indian Rupees),https://www.medicineindia.org/pharmacy-chemist-drugstore-details/41224/r-c-gupta-ent
313,Pharmacy,RELITE CHEMIST,9336279032,"C-31 sec c alkapuri, Near anchlic science centre, Aliganj, Lucknow",Lucknow,226024,India,Monday-Sunday 8am - 9pm,Cash,INR (Indian Rupees),https://www.medicineindia.org/pharmacy-chemist-drugstore-details/41157/relite-chemist
314,Pharmacy,Radha Medical Hall,(0522) 2768052,"Kaushala Bhawan, Kursi Road, Aliganj, Lucknow",Lucknow,226024,India,Monday-Sunday 8am - 9pm,Cash,INR (Indian Rupees),https://www.medicineindia.org/pharmacy-chemist-drugstore-details/41141/radha-medical-hall
315,Pharmacy,Radhe Medical Store,,"16 Rana Pratap Marg, Dali Bagh Lucknow, Near Times Of India Building, Dalibagh, Lucknow",Lucknow,226001,India,Monday-Sunday 8am - 9pm,Cash,INR (Indian Rupees),https://www.medicineindia.org/pharmacy-chemist-drugstore-details/41199/radhe-medical-store
316,Pharmacy,Radhey Medical Hall,(0522) 2323032,"Shop No-3, Singh Complex, Opp. Mishra Petrol Pump, Kurshi Road, Aliganj, Lucknow",Lucknow,226024,India,Monday-Sunday 8am - 9pm,Cash,INR (Indian Rupees),https://www.medicineindia.org/pharmacy-chemist-drugstore-details/41136/radhey-medical-hall
317,Pharmacy,Radhika Pharma,(0522) 2212631,"Prabhu Ashram, Rajabazar, Aminabad, Lucknow",Lucknow,226018,India,Monday-Sunday 8am - 9pm,Cash,INR (Indian Rupees),https://www.medicineindia.org/pharmacy-chemist-drugstore-details/41353/radhika-pharma
318,Pharmacy,Rahmani Dawakhana Lucknow ,09198059753,"Shop No: B-12 Noor Market, Near Bata Shoe Company, Era Medical Centre Opposite New Zam Zam Jewellers, Akbari Gate, Chowk, Lucknow ",Lucknow,226003,India,Monday-Sunday 8am - 9pm,Cash,INR (Indian Rupees),https://www.medicineindia.org/pharmacy-chemist-drugstore-details/81908/rahmani-dawakhana-lucknow
319,Pharmacy,Rahul Medicos,(0522) 2610249,"15, Cantt Road, Lucknow",Lucknow,226001,India,Monday-Sunday 8am - 9pm,Cash,INR (Indian Rupees),https://www.medicineindia.org/pharmacy-chemist-drugstore-details/41223/rahul-medicos
320,Pharmacy,Rahul Pharma,(0522) 2200272,"Shop No-4, Iind Floor, Soloman Market, Aminabad, Lucknow",Lucknow,226018,India,Monday-Sunday 8am - 9pm,Cash,INR (Indian Rupees),https://www.medicineindia.org/pharmacy-chemist-drugstore-details/41362/rahul-pharma
321,Pharmacy,Raj Drug Agency,(0522) 3915795,"1st Floor J N K Market, Medicine Market, Aminabad, Lucknow",Lucknow,226018,India,Monday-Sunday 8am - 9pm,Cash,INR (Indian Rupees),https://www.medicineindia.org/pharmacy-chemist-drugstore-details/41394/raj-drug-agency
322,Pharmacy,Raj Pharma Medical Store,9670632869,"206, Baniya Mohal, Sadar, Sadar, Lucknow",Lucknow,226002,India,Monday-Sunday 8am - 9pm,Cash,INR (Indian Rupees),https://www.medicineindia.org/pharmacy-chemist-drugstore-details/41298/raj-pharma-medical-store
323,Pharmacy,Raja Remedies,(0522) 2617027,"11, Jamuna Market, Aminabad, Lucknow",Lucknow,226018,India,Monday-Sunday 8am - 9pm,Cash,INR (Indian Rupees),https://www.medicineindia.org/pharmacy-chemist-drugstore-details/41352/raja-remedies
324,Pharmacy,Rajat Medicos,(0522) 2614315,"Subhas Rd, Lucknow Gpo, Lucknow",Lucknow,226001,India,Monday-Sunday 8am - 9pm,Cash,INR (Indian Rupees),https://www.medicineindia.org/pharmacy-chemist-drugstore-details/41180/rajat-medicos
325,Pharmacy,Rajeev Medical Store,9415753684,"Opp. Rajendra Nagar Hospital, Rajendra Nagar, Aishbagh, Lucknow",Lucknow,226004,India,Monday-Sunday 8am - 9pm,Cash,INR (Indian Rupees),https://www.medicineindia.org/pharmacy-chemist-drugstore-details/41056/rajeev-medical-store
326,Pharmacy,Raju Medical Store,(0522) 2223627,"Shukla market, Sec 14 bahta gao, Kursi road, Aliganj, Lucknow",Lucknow,226024,India,Monday-Sunday 8am - 9pm,Cash,INR (Indian Rupees),https://www.medicineindia.org/pharmacy-chemist-drugstore-details/41021/raju-medical-store
327,Pharmacy,Rakti Medical Store,9450637581,"Near Yadav Complex, Telibagh, Lucknow",Lucknow,226002,India,Monday-Sunday 8am - 9pm,Cash,INR (Indian Rupees),https://www.medicineindia.org/pharmacy-chemist-drugstore-details/41312/rakti-medical-store
328,Pharmacy,Ram Medicines,(0522) 2272715,"Lalbagh, Lucknow",Lucknow,226001,India,Monday-Sunday 8am - 9pm,Cash,INR (Indian Rupees),https://www.medicineindia.org/pharmacy-chemist-drugstore-details/41102/ram-medicines
329,Pharmacy,Rama Medicos,(0522) 2636340,"51/11, Udaiganj, Hussainganj, Lucknow",Lucknow,226001,India,Monday-Sunday 8am - 9pm,Cash,INR (Indian Rupees),https://www.medicineindia.org/pharmacy-chemist-drugstore-details/41244/rama-medicos
330,Pharmacy,Rama Medicos,(0522) 2636340,"51/11, Udai Ganj, Cantt Road, Lucknow",Lucknow,226001,India,Monday-Sunday 8am - 9pm,Cash,INR (Indian Rupees),https://www.medicineindia.org/pharmacy-chemist-drugstore-details/41259/rama-medicos
331,Pharmacy,Rama Medicos,(0522) 2481256,"1049, Sadar Bazar, Sadar, Lucknow",Lucknow,226002,India,Monday-Sunday 8am - 9pm,Cash,INR (Indian Rupees),https://www.medicineindia.org/pharmacy-chemist-drugstore-details/41315/rama-medicos
332,Pharmacy,Rama medicals,9369174167,"Shop no.-3, Viram khand, Husadiya chauraha, Patarkarpuram road, Gomti Nagar Lucknow, Lucknow",Lucknow,226001,India,Monday-Sunday 8am - 9pm,Cash,INR (Indian Rupees),https://www.medicineindia.org/pharmacy-chemist-drugstore-details/41284/rama-medicals
333,Pharmacy,Ramendra Singh Kushwaha Memorial Nursing...,(0522) 2571572,"51-A, Opp. Telephone Exchange, New Azad Nagar, Kalyanpur, Lucknow",Lucknow,226002,India,Monday-Sunday 8am - 9pm,Cash,INR (Indian Rupees),https://www.medicineindia.org/pharmacy-chemist-drugstore-details/41301/ramendra-singh-kushwaha-memorial-nursing
334,Pharmacy,Ravi Medical Store,(0522) 2459949,"4, Pakri Ka Pull, VIP Road, Alambagh, Lucknow",Lucknow,226005,India,Monday-Sunday 8am - 9pm,Cash,INR (Indian Rupees),https://www.medicineindia.org/pharmacy-chemist-drugstore-details/40962/ravi-medical-store
335,Pharmacy,Rehman Medicals,9935830313,"New Haider Ganj Campbell Road, Campbell Lines, Lucknow",Lucknow,226002,India,Monday-Sunday 8am - 9pm,Cash,INR (Indian Rupees),https://www.medicineindia.org/pharmacy-chemist-drugstore-details/41303/rehman-medicals
336,Pharmacy,Religare Wellness LTD,(0522) 4081994,"Ugf-3, Ashoka Tower, Opp Indira Bhawan, Ashok Marg, Hazratganj, Lucknow",Lucknow,226001,India,Monday-Sunday 8am - 9pm,Cash,INR (Indian Rupees),https://www.medicineindia.org/pharmacy-chemist-drugstore-details/40906/religare-wellness-ltd
337,Pharmacy,Religare Wellness LTD,(0522) 4105760,"S No 1, Grd Flr, Abdul Hameed Bldg, 311/19, Kamla Nehru Marg, Lucknow",Lucknow,226003,India,Monday-Sunday 8am - 9pm,Cash,INR (Indian Rupees),https://www.medicineindia.org/pharmacy-chemist-drugstore-details/40917/religare-wellness-ltd
338,Pharmacy,Religare Wellness Ltd,(0522) 4081991,"S No-1, Arif Apt, Blk-5, Kapoorthala, Lucknow",Lucknow,226001,India,Monday-Sunday 8am - 9pm,Cash,INR (Indian Rupees),https://www.medicineindia.org/pharmacy-chemist-drugstore-details/40911/religare-wellness-ltd
339,Pharmacy,Renu Medical Store,9415086141,"Sector Q, Aliganj, Lucknow",Lucknow,226024,India,Monday-Sunday 8am - 9pm,Cash,INR (Indian Rupees),https://www.medicineindia.org/pharmacy-chemist-drugstore-details/41128/renu-medical-store
340,Pharmacy,Rohit Medicals,9936473721,"4, Prem Plaza, Sec-G, Lda Colony, Alambagh, Lucknow",Lucknow,226005,India,Monday-Sunday 8am - 9pm,Cash,INR (Indian Rupees),https://www.medicineindia.org/pharmacy-chemist-drugstore-details/41073/rohit-medicals
341,Pharmacy,Royal Medical Store,9696315260,"Udayganj Choraha, Cantt Road, Udaiganj, Lucknow",Lucknow,226001,India,Monday-Sunday 8am - 9pm,Cash,INR (Indian Rupees),https://www.medicineindia.org/pharmacy-chemist-drugstore-details/41198/royal-medical-store
342,Pharmacy,Royal Medical Udaiyganj,9415438076,"Mata Suga Devi, Station Rd, Lucknow",Lucknow,226001,India,Monday-Sunday 8am - 9pm,Cash,INR (Indian Rupees),https://www.medicineindia.org/pharmacy-chemist-drugstore-details/41230/royal-medical-udaiyganj
343,Pharmacy,Rukhsaana Medical & Trama Center,9795329575,"Ashfrabad , Nakhas, Din Dayal Rd, Nakhas, Lucknow",Lucknow,226002,India,Monday-Sunday 8am - 9pm,Cash,INR (Indian Rupees),https://www.medicineindia.org/pharmacy-chemist-drugstore-details/40950/rukhsaana-medical-trama-center
344,Pharmacy,S S Medical Centre,(0522) 2282173,"Shop No-1, Waris Plaza, Opp. Raj Hotel, Hussainganj, Lucknow",Lucknow,226001,India,Monday-Sunday 8am - 9pm,Cash,INR (Indian Rupees),https://www.medicineindia.org/pharmacy-chemist-drugstore-details/41233/s-s-medical-centre
345,Pharmacy,S. K. Medicals,9415793182,"Ashraf Market, Katra Saadat Ganj, Saadatganj, Lucknow",Lucknow,226003,India,Monday-Sunday 8am - 9pm,Cash,INR (Indian Rupees),https://www.medicineindia.org/pharmacy-chemist-drugstore-details/41009/s-k-medicals
346,Pharmacy,S.n. Medicals,(0522) 2241087,"215/86, Subhash Marg, Hazratganj, Lucknow",Lucknow,226001,India,Monday-Sunday 8am - 9pm,Cash,INR (Indian Rupees),https://www.medicineindia.org/pharmacy-chemist-drugstore-details/41217/sn-medicals
347,Pharmacy,S.t. Medical Store,9839012403,"Puraniya Railway Crossing, Aliganj, Lucknow",Lucknow,226024,India,Monday-Sunday 8am - 9pm,Cash,INR (Indian Rupees),https://www.medicineindia.org/pharmacy-chemist-drugstore-details/41153/st-medical-store
348,Pharmacy,S.v. Pharma,9839169842,"Bharat Ashram, Raja Bazar, Lucknow",Lucknow,226003,India,Monday-Sunday 8am - 9pm,Cash,INR (Indian Rupees),https://www.medicineindia.org/pharmacy-chemist-drugstore-details/41065/sv-pharma
349,Pharmacy,SHRISTI MEDICAL STORE,(0512) 4029150,"3/316, Neelkanth, Vivek Khand, Gomti Nagar Lucknow, LUCKNOW",Lucknow,226001,India,Monday-Sunday 8am - 9pm,Cash,INR (Indian Rupees),https://www.medicineindia.org/pharmacy-chemist-drugstore-details/41189/shristi-medical-store
350,Pharmacy,Sachdeva Medicals Wholesale,(0522) 2618911,"1 Pharma Plaza, Medicine Market, Aminabad, Lucknow",Lucknow,226018,India,Monday-Sunday 8am - 9pm,Cash,INR (Indian Rupees),https://www.medicineindia.org/pharmacy-chemist-drugstore-details/40984/sachdeva-medicals-wholesale
351,Pharmacy,Sadbhawna Medical And Trauma Centre,9839555579,"Plot No-3, Khinni Chauraha, Sheikhpur Road, Rajaji Puram, Lucknow",Lucknow,226017,India,Monday-Sunday 8am - 9pm,Cash,INR (Indian Rupees),https://www.medicineindia.org/pharmacy-chemist-drugstore-details/41025/sadbhawna-medical-and-trauma-centre
352,Pharmacy,Sagar Distributors,9415467216,"3rd Floor, J. N. K. Market, Aminabad, Lucknow",Lucknow,226018,India,Monday-Sunday 8am - 9pm,Cash,INR (Indian Rupees),https://www.medicineindia.org/pharmacy-chemist-drugstore-details/41395/sagar-distributors
353,Pharmacy,Sagun Medical Store,9956539051,"B-3, Lekhraj Market, Nr. Lekhraj crossing, Faizabad Road, Indira Nagar Lucknow, Lucknow",Lucknow,226016,India,Monday-Sunday 8am - 9pm,Cash,INR (Indian Rupees),https://www.medicineindia.org/pharmacy-chemist-drugstore-details/40956/sagun-medical-store
354,Pharmacy,Sahu Medicals,(0522) 2288427,"39/48, Ram Tirath Marg, Narhi Bazar, Hazratganj, Lucknow",Lucknow,226001,India,Monday-Sunday 8am - 9pm,Cash,INR (Indian Rupees),https://www.medicineindia.org/pharmacy-chemist-drugstore-details/41115/sahu-medicals
355,Pharmacy,Sai medical store,8174888557,"Shop no.-115, deva palace, Japuria road, Japuria road, Gomti Nagar Lucknow, Lucknow",Lucknow,226001,India,Monday-Sunday 8am - 9pm,Cash,INR (Indian Rupees),https://www.medicineindia.org/pharmacy-chemist-drugstore-details/41278/sai-medical-store
356,Pharmacy,Saint Teresa Medical Hall,9336995600,"A-6, L. G. F, Annapurna commercial complex, Sector - H, Kanpur Road, LDA Colony, Lucknow",Lucknow,226012,India,Monday-Sunday 8am - 9pm,Cash,INR (Indian Rupees),https://www.medicineindia.org/pharmacy-chemist-drugstore-details/41004/saint-teresa-medical-hall
357,Pharmacy,Sament Medical Store,(0522) 2441139,"New Market, Telibagh, Lucknow",Lucknow,226002,India,Monday-Sunday 8am - 9pm,Cash,INR (Indian Rupees),https://www.medicineindia.org/pharmacy-chemist-drugstore-details/41314/sament-medical-store
358,Pharmacy,Sana Medical Store,9305340392,"Hardoi Road, Thakurganj, Lucknow",Lucknow,226003,India,Monday-Sunday 8am - 9pm,Cash,INR (Indian Rupees),https://www.medicineindia.org/pharmacy-chemist-drugstore-details/41007/sana-medical-store
359,Pharmacy,Sanchit Medical Store,9415087900,"Ug To Shiv Ram Complex, Dandaiya Bazar, Aliganj, Lucknow",Lucknow,226024,India,Monday-Sunday 8am - 9pm,Cash,INR (Indian Rupees),https://www.medicineindia.org/pharmacy-chemist-drugstore-details/41144/sanchit-medical-store
360,Pharmacy,Sandeep Medical Hall,9450393974,"14, Milon Tower, Near Gayatri Mandir, Kursi Road, Jankipuram, Lucknow",Lucknow,226021,India,Monday-Sunday 8am - 9pm,Cash,INR (Indian Rupees),https://www.medicineindia.org/pharmacy-chemist-drugstore-details/41060/sandeep-medical-hall
361,Pharmacy,Sandeep Medicine Store,(0522) 3290633,"Shop Number . 3, Near Vivekanand Hospital, Chandganj Garden Road, Aliganj, Lucknow",Lucknow,226002,India,Monday-Sunday 8am - 9pm,Cash,INR (Indian Rupees),https://www.medicineindia.org/pharmacy-chemist-drugstore-details/41333/sandeep-medicine-store
362,Pharmacy,Sanjari Medicals,(0522) 2281167,"118/116, 29-B, M M Market, Cantt Road, Lucknow",Lucknow,226001,India,Monday-Sunday 8am - 9pm,Cash,INR (Indian Rupees),https://www.medicineindia.org/pharmacy-chemist-drugstore-details/41236/sanjari-medicals
363,Pharmacy,Sanjay Medical Store,9839368183,"Near Police Station, Phool Bagh, Kursi Road, Gudamba, Lucknow",Lucknow,226026,India,Monday-Sunday 8am - 9pm,Cash,INR (Indian Rupees),https://www.medicineindia.org/pharmacy-chemist-drugstore-details/41031/sanjay-medical-store
364,Pharmacy,Sanjay Medical Store,(0522) 2387459,"Shivani Mkt, Lucknow Gpo, Lucknow",Lucknow,226001,India,Monday-Sunday 8am - 9pm,Cash,INR (Indian Rupees),https://www.medicineindia.org/pharmacy-chemist-drugstore-details/41181/sanjay-medical-store
365,Pharmacy,Sanjay Medical Store,9415578448,"31-A, Opp. Odeon Cinema, Cantt Road, Lucknow",Lucknow,226001,India,Monday-Sunday 8am - 9pm,Cash,INR (Indian Rupees),https://www.medicineindia.org/pharmacy-chemist-drugstore-details/41227/sanjay-medical-store
366,Pharmacy,Sanjivani Medical Centre,(0522) 2252310,"Tooriaganj Crossing, Ashok Marg, Lucknow",Lucknow,226001,India,Monday-Sunday 8am - 9pm,Cash,INR (Indian Rupees),https://www.medicineindia.org/pharmacy-chemist-drugstore-details/40937/sanjivani-medical-centre
367,Pharmacy,Sanmarg medical store,9939113778,"UGF 6, Near city hospital, Park road, Hazratganj, Lucknow",Lucknow,226001,India,Monday-Sunday 8am - 9pm,Cash,INR (Indian Rupees),https://www.medicineindia.org/pharmacy-chemist-drugstore-details/41093/sanmarg-medical-store
368,Pharmacy,Sant Kanwar Medical Hall,9935672606,"New Ganesh Ganj, New Ganeshganj, Lucknow",Lucknow,226001,India,Monday-Sunday 8am - 9pm,Cash,INR (Indian Rupees),https://www.medicineindia.org/pharmacy-chemist-drugstore-details/41215/sant-kanwar-medical-hall
369,Pharmacy,Santosh Medical Store,(0522) 2395798,"Lgi, Arohi Plaza, Gomti Nagar, Lucknow",Lucknow,226010,India,Monday-Sunday 8am - 9pm,Cash,INR (Indian Rupees),https://www.medicineindia.org/pharmacy-chemist-drugstore-details/40970/santosh-medical-store
370,Pharmacy,Sara Medicals,9305812997,"Hewett Road, Hawett Road, Lucknow",Lucknow,226001,India,Monday-Sunday 8am - 9pm,Cash,INR (Indian Rupees),https://www.medicineindia.org/pharmacy-chemist-drugstore-details/41196/sara-medicals
371,Pharmacy,Sarad Anand Medicals,9838622222,"2219, E- Block, Rajaji Puram, Lucknow",Lucknow,226017,India,Monday-Sunday 8am - 9pm,Cash,INR (Indian Rupees),https://www.medicineindia.org/pharmacy-chemist-drugstore-details/41028/sarad-anand-medicals
372,Pharmacy,Saral Medical Store,(0522) 2455593,"Ram nagar, Infront Of Prakash Bartan Store, Kanpur road, Alambagh, Lucknow",Lucknow,226005,India,Monday-Sunday 8am - 9pm,Cash,INR (Indian Rupees),https://www.medicineindia.org/pharmacy-chemist-drugstore-details/40995/saral-medical-store
373,Pharmacy,Sarita Medical Centre,(0522) 3913296,"Civil Hospital Gate, Narhi Bazar, Hazratganj, Lucknow",Lucknow,226001,India,Monday-Sunday 8am - 9pm,Cash,INR (Indian Rupees),https://www.medicineindia.org/pharmacy-chemist-drugstore-details/41241/sarita-medical-centre
374,Pharmacy,Sarkar Pharamancy,9451242696,"G. P. Road, Maulviganj, Lucknow",Lucknow,226001,India,Monday-Sunday 8am - 9pm,Cash,INR (Indian Rupees),https://www.medicineindia.org/pharmacy-chemist-drugstore-details/41216/sarkar-pharamancy
375,Pharmacy,Sarkar Pharmacy,(0522) 2237150,"Maulviganj, Lucknow",Lucknow,226001,India,Monday-Sunday 8am - 9pm,Cash,INR (Indian Rupees),https://www.medicineindia.org/pharmacy-chemist-drugstore-details/41218/sarkar-pharmacy
376,Pharmacy,Satabdi Medical Store,9335555441,"Alam Nagar Road, Bowali, Rajaji Puram, Lucknow",Lucknow,226017,India,Monday-Sunday 8am - 9pm,Cash,INR (Indian Rupees),https://www.medicineindia.org/pharmacy-chemist-drugstore-details/41027/satabdi-medical-store
377,Pharmacy,Satguru Medical Store,9450462030,"21 Gurunanak Market, Opp. Sudarshan Cinema, Charbagh, Lucknow",Lucknow,226001,India,Monday-Sunday 8am - 9pm,Cash,INR (Indian Rupees),https://www.medicineindia.org/pharmacy-chemist-drugstore-details/41206/satguru-medical-store
378,Pharmacy,Satguru Medical Store,9889008304,"Shop no 5, Nr. Railway station, Station road, Charbagh, Lucknow",Lucknow,226004,India,Monday-Sunday 8am - 9pm,Cash,INR (Indian Rupees),https://www.medicineindia.org/pharmacy-chemist-drugstore-details/41337/satguru-medical-store
379,Pharmacy,Satish Medical Store,9415796200,"Sec K, Near Vindhyachal Devi Mandir, Aliganj, Lucknow",Lucknow,226024,India,Monday-Sunday 8am - 9pm,Cash,INR (Indian Rupees),https://www.medicineindia.org/pharmacy-chemist-drugstore-details/41126/satish-medical-store
380,Pharmacy,Saumya Medicals,(0522) 4009729,"Shop No-3, Nr PNB Bank,Dav Mkt, Aishbagh, Lucknow",Lucknow,226004,India,Monday-Sunday 8am - 9pm,Cash,INR (Indian Rupees),https://www.medicineindia.org/pharmacy-chemist-drugstore-details/41339/saumya-medicals
381,Pharmacy,Savitri Medical Store,(0522) 4043912,"Shop no 2, Opp. Naka Kotwali, Guru govindsingh marg, Naka Hindala, Lucknow",Lucknow,226002,India,Monday-Sunday 8am - 9pm,Cash,INR (Indian Rupees),https://www.medicineindia.org/pharmacy-chemist-drugstore-details/41338/savitri-medical-store
382,Pharmacy,Sergico Medical Store,(0522) 2451778,"Sita Niwas, Charbagh, Lucknow",Lucknow,226001,India,Monday-Sunday 8am - 9pm,Cash,INR (Indian Rupees),https://www.medicineindia.org/pharmacy-chemist-drugstore-details/41169/sergico-medical-store
383,Pharmacy,Sewa Medical Store,9450369258,"Sec -C, Aliganj, Lucknow",Lucknow,226002,India,Monday-Sunday 8am - 9pm,Cash,INR (Indian Rupees),https://www.medicineindia.org/pharmacy-chemist-drugstore-details/41295/sewa-medical-store
384,Pharmacy,Shagun Medical Store,9936474608,"B-3, Lekhraj, Indira Nagar Lucknow, Lucknow",Lucknow,226016,India,Monday-Sunday 8am - 9pm,Cash,INR (Indian Rupees),https://www.medicineindia.org/pharmacy-chemist-drugstore-details/40913/shagun-medical-store
385,Pharmacy,Shahrukh Force,(0522) 2333116,"A P Sabha, Lucknow",Lucknow,226001,India,Monday-Sunday 8am - 9pm,Cash,INR (Indian Rupees),https://www.medicineindia.org/pharmacy-chemist-drugstore-details/40969/shahrukh-force
386,Pharmacy,Shai Homeo Store,(0522) 2322886,"68, Aliganj, Revendra Garden Sec-E, Aliganj, Lucknow",Lucknow,226018,India,Monday-Sunday 8am - 9pm,Cash,INR (Indian Rupees),https://www.medicineindia.org/pharmacy-chemist-drugstore-details/41379/shai-homeo-store
387,Pharmacy,Shaili Medicos,(0522) 2215926,"37, Vidhansabha Marg, Hussainganj, Lucknow",Lucknow,226001,India,Monday-Sunday 8am - 9pm,Cash,INR (Indian Rupees),https://www.medicineindia.org/pharmacy-chemist-drugstore-details/41266/shaili-medicos
388,Pharmacy,Shakun Medical Store,(0522) 2336222,"M-10, Gole Market, Mahanagar, Lucknow",Lucknow,226006,India,Monday-Sunday 8am - 9pm,Cash,INR (Indian Rupees),https://www.medicineindia.org/pharmacy-chemist-drugstore-details/40908/shakun-medical-store
389,Pharmacy,Shanti Medical Store,9335928709,"S-6/121, Azad Market, Opposite Hal, Main Gate, Indira Nagar Lucknow, Lucknow",Lucknow,208026,India,Monday-Sunday 8am - 9pm,Cash,INR (Indian Rupees),https://www.medicineindia.org/pharmacy-chemist-drugstore-details/40946/shanti-medical-store
390,Pharmacy,Shanti Medicals,(0522) 2324289,"Bada Chandganj, Chandganj, Lucknow",Lucknow,226007,India,Monday-Sunday 8am - 9pm,Cash,INR (Indian Rupees),https://www.medicineindia.org/pharmacy-chemist-drugstore-details/41055/shanti-medicals
391,Pharmacy,Shanti Medicals,(0522) 2395022,"D-205, Sahara Plaza, Gomti Nagar, Lucknow",Lucknow,226002,India,Monday-Sunday 8am - 9pm,Cash,INR (Indian Rupees),https://www.medicineindia.org/pharmacy-chemist-drugstore-details/41293/shanti-medicals
392,Pharmacy,Shanti Medicos,9839487423,"158, Purana Quila, Cantt Road, Lucknow",Lucknow,226001,India,Monday-Sunday 8am - 9pm,Cash,INR (Indian Rupees),https://www.medicineindia.org/pharmacy-chemist-drugstore-details/41265/shanti-medicos
393,Pharmacy,Shanti Raj Medicals,(0522) 2461085,"5-D Sringar Nagar, Alambagh, Lucknow",Lucknow,226005,India,Monday-Sunday 8am - 9pm,Cash,INR (Indian Rupees),https://www.medicineindia.org/pharmacy-chemist-drugstore-details/40944/shanti-raj-medicals
394,Pharmacy,Sharma Pharma,(0522) 2339761,"Shop No-2, Iind Floor , Soloman Market, Aminabad, Lucknow",Lucknow,226018,India,Monday-Sunday 8am - 9pm,Cash,INR (Indian Rupees),https://www.medicineindia.org/pharmacy-chemist-drugstore-details/41363/sharma-pharma
395,Pharmacy,Shashi Medicals,(0522) 3247899,"858 A, Opposite Khazana Market, Sector A, Ashiana Colony, Lucknow",Lucknow,226012,India,Monday-Sunday 8am - 9pm,Cash,INR (Indian Rupees),https://www.medicineindia.org/pharmacy-chemist-drugstore-details/41074/shashi-medicals
396,Pharmacy,Shayam medical store,9956257321,"Shop no.-19, Viram khand-5, Jeewan plaza, Gomti Nagar Lucknow, Lucknow",Lucknow,226001,India,Monday-Sunday 8am - 9pm,Cash,INR (Indian Rupees),https://www.medicineindia.org/pharmacy-chemist-drugstore-details/41285/shayam-medical-store
397,Pharmacy,Sheel Medical Shop,(0522) 2629632,"41 K, Opp. Kasturba Girls Inter College, Shivaji Marg, Shivaji Marg, Lucknow",Lucknow,226001,India,Monday-Sunday 8am - 9pm,Cash,INR (Indian Rupees),https://www.medicineindia.org/pharmacy-chemist-drugstore-details/41276/sheel-medical-shop
398,Pharmacy,Sheel Medical Store,(0522) 2629632,"41 Shivaji Marg, Shivaji Marg, Lucknow",Lucknow,226001,India,Monday-Sunday 8am - 9pm,Cash,INR (Indian Rupees),https://www.medicineindia.org/pharmacy-chemist-drugstore-details/41268/sheel-medical-store
399,Pharmacy,Shiv Biomedical,9648511380,"C-5 Diamond Point, Near Pgi, Raebareli Road, RAI Bareli Rd Lucknow, Lucknow",Lucknow,226014,India,Monday-Sunday 8am - 9pm,Cash,INR (Indian Rupees),https://www.medicineindia.org/pharmacy-chemist-drugstore-details/40945/shiv-biomedical
400,Pharmacy,Shiv Darvesh Medical,(0522) 2635824,"20 Guru Nanak Market, Nr charbagh railway station, Station road, Charbagh, Lucknow",Lucknow,226001,India,Monday-Sunday 8am - 9pm,Cash,INR (Indian Rupees),https://www.medicineindia.org/pharmacy-chemist-drugstore-details/41336/shiv-darvesh-medical
401,Pharmacy,Shiv Medical Hall,9415765228,"Dandayaia Bazar, Aliganj, Lucknow",Lucknow,226024,India,Monday-Sunday 8am - 9pm,Cash,INR (Indian Rupees),https://www.medicineindia.org/pharmacy-chemist-drugstore-details/41147/shiv-medical-hall
402,Pharmacy,Shiv Medical Store,(0522) 2637624,"Shop No- 3, Munelal Dharamshala Road, Charbagh, Lucknow",Lucknow,226001,India,Monday-Sunday 8am - 9pm,Cash,INR (Indian Rupees),https://www.medicineindia.org/pharmacy-chemist-drugstore-details/41209/shiv-medical-store
403,Pharmacy,Shiv Sakhi Medical Hall,(0522) 2637815,"19 Sri Gurunanak Market, Opp. Sudharshan Cinema, Station road, Charbagh, Lucknow",Lucknow,226001,India,Monday-Sunday 8am - 9pm,Cash,INR (Indian Rupees),https://www.medicineindia.org/pharmacy-chemist-drugstore-details/41049/shiv-sakhi-medical-hall
404,Pharmacy,Shiv Shakti Madical Store,9651473681,"United Bank Of India, Talkatora Road, Alambagh, Lucknow",Lucknow,226005,India,Monday-Sunday 8am - 9pm,Cash,INR (Indian Rupees),https://www.medicineindia.org/pharmacy-chemist-drugstore-details/41071/shiv-shakti-madical-store
405,Pharmacy,Shiv Shakti Medical Store,9451031823,"Ganesh Ganj, Aminabad Road, Ganesh Ganj, Lucknow",Lucknow,226001,India,Monday-Sunday 8am - 9pm,Cash,INR (Indian Rupees),https://www.medicineindia.org/pharmacy-chemist-drugstore-details/41200/shiv-shakti-medical-store
406,Pharmacy,Shiv Shakti Medical Store,9935271785,"Telibagh, Lucknow",Lucknow,226002,India,Monday-Sunday 8am - 9pm,Cash,INR (Indian Rupees),https://www.medicineindia.org/pharmacy-chemist-drugstore-details/41329/shiv-shakti-medical-store
407,Pharmacy,Shiv Shakti Medicals,9532149032,"Shop No-27/2, Ground Floor, Opposite Old RTO Office, Chandralok, Kapoorthala, Aliganj Lucknow, Lucknow",Lucknow,226006,India,Monday-Sunday 8am - 9pm,Cash,INR (Indian Rupees),https://www.medicineindia.org/pharmacy-chemist-drugstore-details/40968/shiv-shakti-medicals
408,Pharmacy,Shiva Medicals,(0522) 2717141,"S-15/8, Ganesh Market, Hanuman Mandir, Indira Nagar Lucknow, Lucknow",Lucknow,226016,India,Monday-Sunday 8am - 9pm,Cash,INR (Indian Rupees),https://www.medicineindia.org/pharmacy-chemist-drugstore-details/41063/shiva-medicals
409,Pharmacy,Shivam Medicals,9236051490,"Aminabad Road, Ganesh Ganj, Lucknow",Lucknow,226001,India,Monday-Sunday 8am - 9pm,Cash,INR (Indian Rupees),https://www.medicineindia.org/pharmacy-chemist-drugstore-details/41208/shivam-medicals
410,Pharmacy,Shivansh Medicals,9838580685,"Shop Number- 12, Shyam Complex, Near Rani Laxmi Bai Memorial Publc School, Sector- 14, Vikas Nagar, Lucknow",Lucknow,226002,India,Monday-Sunday 8am - 9pm,Cash,INR (Indian Rupees),https://www.medicineindia.org/pharmacy-chemist-drugstore-details/41294/shivansh-medicals
411,Pharmacy,Shive Medical Shop,(0522) 2637624,"Opp. Mohan Hotel, M. L. D. Road, Charbagh, Lucknow",Lucknow,226001,India,Monday-Sunday 8am - 9pm,Cash,INR (Indian Rupees),https://www.medicineindia.org/pharmacy-chemist-drugstore-details/41275/shive-medical-shop
412,Pharmacy,Shobhit Surgical & Medicals,(0522) 2297185,"5, Mughal Medicine Market, Naya Gaon West, Aminabad, Lucknow",Lucknow,226018,India,Monday-Sunday 8am - 9pm,Cash,INR (Indian Rupees),https://www.medicineindia.org/pharmacy-chemist-drugstore-details/40985/shobhit-surgical-medicals
413,Pharmacy,Shree Hari Medical Store,9336077724,"E-5136, Sector-11, Rajaji Puram, Lucknow",Lucknow,226017,India,Monday-Sunday 8am - 9pm,Cash,INR (Indian Rupees),https://www.medicineindia.org/pharmacy-chemist-drugstore-details/41026/shree-hari-medical-store
414,Pharmacy,Shree Medicals,9415577485,"Ambedkar Market, Kursi Road, Aliganj, Lucknow",Lucknow,226024,India,Monday-Sunday 8am - 9pm,Cash,INR (Indian Rupees),https://www.medicineindia.org/pharmacy-chemist-drugstore-details/41132/shree-medicals
415,Pharmacy,Shree Shyam Baba Medical Store,9415004892,"LAL Bagh Crossing, Lucknow Gpo, Lucknow",Lucknow,226001,India,Monday-Sunday 8am - 9pm,Cash,INR (Indian Rupees),https://www.medicineindia.org/pharmacy-chemist-drugstore-details/41194/shree-shyam-baba-medical-store
416,Pharmacy,Shri Balaji Medicals,9839486677,"Nr Malak Gati Fatak, 19, Shivaji Mg, Shivaji Marg, Lucknow",Lucknow,226001,India,Monday-Sunday 8am - 9pm,Cash,INR (Indian Rupees),https://www.medicineindia.org/pharmacy-chemist-drugstore-details/41270/shri-balaji-medicals
417,Pharmacy,Shri Ram Medical Store,9454706047,"Faizabad Road, Shakti Nagar Dhal Lucknow, Faizabad, Lucknow",Lucknow,226007,India,Monday-Sunday 8am - 9pm,Cash,INR (Indian Rupees),https://www.medicineindia.org/pharmacy-chemist-drugstore-details/40986/shri-ram-medical-store
418,Pharmacy,Shri Shyam baba medical store,9415108840,"Lalbagh crossing, Opp novelty cinema, Lalbagh, Lucknow",Lucknow,226001,India,Monday-Sunday 8am - 9pm,Cash,INR (Indian Rupees),https://www.medicineindia.org/pharmacy-chemist-drugstore-details/41111/shri-shyam-baba-medical-store
419,Pharmacy,Shrinath Medicals,(0522) 2275950,"45 Cantt. Road, Cantt Road, Lucknow",Lucknow,226001,India,Monday-Sunday 8am - 9pm,Cash,INR (Indian Rupees),https://www.medicineindia.org/pharmacy-chemist-drugstore-details/41269/shrinath-medicals
420,Pharmacy,Shrishti Medical Hall & Department Store,9415017001,"3/314,Vivek Khand, Gomti Nagar, Lucknow",Lucknow,226001,India,Monday-Sunday 8am - 9pm,Cash,INR (Indian Rupees),https://www.medicineindia.org/pharmacy-chemist-drugstore-details/41164/shrishti-medical-hall-department-store
421,Pharmacy,Shubham Medical Store,9415196483,"Sitapur Rd, Lucknow",Lucknow,226002,India,Monday-Sunday 8am - 9pm,Cash,INR (Indian Rupees),https://www.medicineindia.org/pharmacy-chemist-drugstore-details/41299/shubham-medical-store
422,Pharmacy,Shukla Medical Store,9415182547,"312/19/519, Baldev Vihar, Rathindra Nagar, Telibagh, Lucknow",Lucknow,226002,India,Monday-Sunday 8am - 9pm,Cash,INR (Indian Rupees),https://www.medicineindia.org/pharmacy-chemist-drugstore-details/41330/shukla-medical-store
423,Pharmacy,Siddhi Enterprises,(0522) 2620437,"Shop No-7, Medicine Market, Aminabad, Lucknow",Lucknow,226018,India,Monday-Sunday 8am - 9pm,Cash,INR (Indian Rupees),https://www.medicineindia.org/pharmacy-chemist-drugstore-details/41351/siddhi-enterprises
424,Pharmacy,Siddhivinayak Medical Store,9335925967,"D-1300, Indira Nagar,Munshi Puliya,Near Sector-12, Lucknow Gpo, Lucknow",Lucknow,226001,India,Monday-Sunday 8am - 9pm,Cash,INR (Indian Rupees),https://www.medicineindia.org/pharmacy-chemist-drugstore-details/41190/siddhivinayak-medical-store
425,Pharmacy,Silaman & Co(Agency),(0522) 6545278,"Dandayaia Bazar, Aliganj, Lucknow",Lucknow,226024,India,Monday-Sunday 8am - 9pm,Cash,INR (Indian Rupees),https://www.medicineindia.org/pharmacy-chemist-drugstore-details/41148/silaman-coagency
426,Pharmacy,Singh Clinic & Surgical Nursing Home,(0522) 4082149,"C-114, Rajaji Puram, Lucknow",Lucknow,226017,India,Monday-Sunday 8am - 9pm,Cash,INR (Indian Rupees),https://www.medicineindia.org/pharmacy-chemist-drugstore-details/41024/singh-clinic-surgical-nursing-home
427,Pharmacy,Singh Medical Store,(0522) 2890878,"Near Sport Collage, Village &amp; Post Gudamba, Kursi Road, Lucknow",Lucknow,226026,India,Monday-Sunday 8am - 9pm,Cash,INR (Indian Rupees),https://www.medicineindia.org/pharmacy-chemist-drugstore-details/41086/singh-medical-store
428,Pharmacy,Singhal Medical Agency,8958373541,3RD FLOOR AGARWAL MEDICINE MARKET AMINABAD LUCKNOW,Lucknow,226018,India,Monday-Sunday 8am - 9pm,Cash,INR (Indian Rupees),https://www.medicineindia.org/pharmacy-chemist-drugstore-details/82130/singhal-medical-agency
429,Pharmacy,Singhal Medical Store,9208332519,"Chandranj Garden Aliganj, Singhal Market, Lucknow",Lucknow,226001,India,Monday-Sunday 8am - 9pm,Cash,INR (Indian Rupees),https://www.medicineindia.org/pharmacy-chemist-drugstore-details/41043/singhal-medical-store
430,Pharmacy,Sk Medical Store,9450281296,"695, 1 Lane, Balda Road, Nishatgunj, Lucknow",Lucknow,226006,India,Monday-Sunday 8am - 9pm,Cash,INR (Indian Rupees),https://www.medicineindia.org/pharmacy-chemist-drugstore-details/41023/sk-medical-store
431,Pharmacy,Sobha Medical Store,(0522) 2216660,"Opp. Zoo, Narhi, Hazratganj, Lucknow",Lucknow,226001,India,Monday-Sunday 8am - 9pm,Cash,INR (Indian Rupees),https://www.medicineindia.org/pharmacy-chemist-drugstore-details/41240/sobha-medical-store
432,Pharmacy,Somesh Medical Store,(0522) 6992084,"Shankar Ji Puram, Sitapur Rd, Lucknow",Lucknow,226021,India,Monday-Sunday 8am - 9pm,Cash,INR (Indian Rupees),https://www.medicineindia.org/pharmacy-chemist-drugstore-details/40957/somesh-medical-store
433,Pharmacy,Sree Ji Pharma,9336160771,"21, Near Aghameel Dyodi, Subhash Marg, Hazratganj, Lucknow",Lucknow,226001,India,Monday-Sunday 8am - 9pm,Cash,INR (Indian Rupees),https://www.medicineindia.org/pharmacy-chemist-drugstore-details/41221/sree-ji-pharma
434,Pharmacy,Sri Balaji Medical Store,9936716694,"L.g.f-2, K.d.t. Plaza, Near Ram-Ram Chauraha, Aliganj, Lucknow",Lucknow,226024,India,Monday-Sunday 8am - 9pm,Cash,INR (Indian Rupees),https://www.medicineindia.org/pharmacy-chemist-drugstore-details/41134/sri-balaji-medical-store
435,Pharmacy,Sri Ganesh Medical Store,9305146276,"Pandariba, Charbagh, Lucknow",Lucknow,226001,India,Monday-Sunday 8am - 9pm,Cash,INR (Indian Rupees),https://www.medicineindia.org/pharmacy-chemist-drugstore-details/41212/sri-ganesh-medical-store
436,Pharmacy,Sri Guru Nanak Medical Store,(0522) 2637184,"Pandariba Crossing, Charbagh, LUCKNOW",Lucknow,226001,India,Monday-Sunday 8am - 9pm,Cash,INR (Indian Rupees),https://www.medicineindia.org/pharmacy-chemist-drugstore-details/41210/sri-guru-nanak-medical-store
437,Pharmacy,Sri Krishna Medical Store,(0522) 2455778,"Pandariba Crossing, Charbagh, Lucknow",Lucknow,226001,India,Monday-Sunday 8am - 9pm,Cash,INR (Indian Rupees),https://www.medicineindia.org/pharmacy-chemist-drugstore-details/41211/sri-krishna-medical-store
438,Pharmacy,Sri Nath Medicals,(0522) 2275950,"45, Murli Nagar, Sadar Bazar, Cantt. Road, Hazratganj, Lucknow",Lucknow,226001,India,Monday-Sunday 8am - 9pm,Cash,INR (Indian Rupees),https://www.medicineindia.org/pharmacy-chemist-drugstore-details/41239/sri-nath-medicals
439,Pharmacy,Star Medical Store,9936825184,"RAI Bareily Road, Subhani Khera, Telibagh, Lucknow",Lucknow,226002,India,Monday-Sunday 8am - 9pm,Cash,INR (Indian Rupees),https://www.medicineindia.org/pharmacy-chemist-drugstore-details/41331/star-medical-store
440,Pharmacy,Star Surgical,(0522) 2629048,"113/8, Medicine Market, Aminabad, Lucknow",Lucknow,226018,India,Monday-Sunday 8am - 9pm,Cash,INR (Indian Rupees),https://www.medicineindia.org/pharmacy-chemist-drugstore-details/41052/star-surgical
441,Pharmacy,Sudha Medical Store,(0522) 2330950,"Dandaiya Bazar, Aliganj, Lucknow",Lucknow,226024,India,Monday-Sunday 8am - 9pm,Cash,INR (Indian Rupees),https://www.medicineindia.org/pharmacy-chemist-drugstore-details/41145/sudha-medical-store
442,Pharmacy,Sudha medico,9450656492,"Shop no.-1/390, Viram khand, Opp. Jeewan plaza, Gomti Nagar Lucknow, Lucknow",Lucknow,226001,India,Monday-Sunday 8am - 9pm,Cash,INR (Indian Rupees),https://www.medicineindia.org/pharmacy-chemist-drugstore-details/40947/sudha-medico
443,Pharmacy,Sun Rise Pharma,9935467237,"Pakri Ka Pull, Azad Nagar, Alambagh, Lucknow",Lucknow,226005,India,Monday-Sunday 8am - 9pm,Cash,INR (Indian Rupees),https://www.medicineindia.org/pharmacy-chemist-drugstore-details/40963/sun-rise-pharma
444,Pharmacy,Sunder Medical Store,(0522) 2668152,"Shop No.2 Diamond Point, RAI Bareli Road, Lucknow",Lucknow,226014,India,Monday-Sunday 8am - 9pm,Cash,INR (Indian Rupees),https://www.medicineindia.org/pharmacy-chemist-drugstore-details/41029/sunder-medical-store
445,Pharmacy,Sunil Medicos,(0522) 2329483,"22, Sec-H,Aarif Champ, Lucknow Gpo, Lucknow",Lucknow,226001,India,Monday-Sunday 8am - 9pm,Cash,INR (Indian Rupees),https://www.medicineindia.org/pharmacy-chemist-drugstore-details/41182/sunil-medicos
446,Pharmacy,Sunil Store,(0522) 2761201,"22 Arif Chamber-3, Sector-4, Aliganj, Lucknow",Lucknow,226024,India,Monday-Sunday 8am - 9pm,Cash,INR (Indian Rupees),https://www.medicineindia.org/pharmacy-chemist-drugstore-details/41156/sunil-store
447,Pharmacy,Sunny Traders,9839736372,"No 9, 2nd Floor, J N K Market, Aminabad, LUCKNOW",Lucknow,226018,India,Monday-Sunday 8am - 9pm,Cash,INR (Indian Rupees),https://www.medicineindia.org/pharmacy-chemist-drugstore-details/41387/sunny-traders
448,Pharmacy,Surabhi Medical Hall,(0522) 2768619,"3/67, Vikas Nagar, Lucknow",Lucknow,226022,India,Monday-Sunday 8am - 9pm,Cash,INR (Indian Rupees),https://www.medicineindia.org/pharmacy-chemist-drugstore-details/41011/surabhi-medical-hall
449,Pharmacy,Surabhi Medicals,(0522) 2768361,"Sector-3, Behind Rlb School, Vikas Nagar, Lucknow",Lucknow,226022,India,Monday-Sunday 8am - 9pm,Cash,INR (Indian Rupees),https://www.medicineindia.org/pharmacy-chemist-drugstore-details/41066/surabhi-medicals
450,Pharmacy,Surgical Emporium,9335373852,"45 Medicine Market, Aminabad Park, Aminabad Park, Lucknow",Lucknow,226001,India,Monday-Sunday 8am - 9pm,Cash,INR (Indian Rupees),https://www.medicineindia.org/pharmacy-chemist-drugstore-details/41271/surgical-emporium
451,Pharmacy,Surgico Medical Store,(0522) 2464058,"Sita Niwas, Charbagh, Lucknow",Lucknow,226001,India,Monday-Sunday 8am - 9pm,Cash,INR (Indian Rupees),https://www.medicineindia.org/pharmacy-chemist-drugstore-details/41213/surgico-medical-store
452,Pharmacy,Surya Pharmacy,9415408672,"M-1/215, Near Vishwanath Academy, Ashiyana Colony, Kanpur Road, Lucknow",Lucknow,226005,India,Monday-Sunday 8am - 9pm,Cash,INR (Indian Rupees),https://www.medicineindia.org/pharmacy-chemist-drugstore-details/41017/surya-pharmacy
453,Pharmacy,Suvidha Medical Store,9838523720,"5, Arif Chamber 3, Puraniya Chauraha, Aliganj, Lucknow",Lucknow,226024,India,Monday-Sunday 8am - 9pm,Cash,INR (Indian Rupees),https://www.medicineindia.org/pharmacy-chemist-drugstore-details/41130/suvidha-medical-store
454,Pharmacy,Swastic Medicals,(0522) 2388588,"Shivaji Mkt, Lucknow Gpo, Lucknow",Lucknow,226001,India,Monday-Sunday 8am - 9pm,Cash,INR (Indian Rupees),https://www.medicineindia.org/pharmacy-chemist-drugstore-details/41183/swastic-medicals
455,Pharmacy,Tara Medical Centre,(0522) 2763029,"B1/66, Sec-P, Aliganj, Lucknow",Lucknow,226024,India,Monday-Sunday 8am - 9pm,Cash,INR (Indian Rupees),https://www.medicineindia.org/pharmacy-chemist-drugstore-details/41119/tara-medical-centre
456,Pharmacy,Tara Medical Store,(0522) 4078732,"B-1/66 Sector-P, Near Shyam Swad, Aliganj, Lucknow",Lucknow,226024,India,Monday-Sunday 8am - 9pm,Cash,INR (Indian Rupees),https://www.medicineindia.org/pharmacy-chemist-drugstore-details/40935/tara-medical-store
457,Pharmacy,Tara Medical Store,(0522) 3919609,"C-34, Opp narang building, Naval Kishore Road, Hazratganj, Lucknow",Lucknow,226001,India,Monday-Sunday 8am - 9pm,Cash,INR (Indian Rupees),https://www.medicineindia.org/pharmacy-chemist-drugstore-details/41108/tara-medical-store
458,Pharmacy,Tara Medicals,9839452702,"Utarathiya, Rai Bareli Rd, Lucknow",Lucknow,226002,India,Monday-Sunday 8am - 9pm,Cash,INR (Indian Rupees),https://www.medicineindia.org/pharmacy-chemist-drugstore-details/41326/tara-medicals
459,Pharmacy,Tara Medicals And Surgical,9336184360,"10/11, Dhanvantari Dham, Sgpgi Gate, Telibagh, Lucknow",Lucknow,226002,India,Monday-Sunday 8am - 9pm,Cash,INR (Indian Rupees),https://www.medicineindia.org/pharmacy-chemist-drugstore-details/41334/tara-medicals-and-surgical
460,Pharmacy,Tarunica Enterprises,(0522) 2297129,"B-1 Paradise Medicine Market, Aminabad, Lucknow",Lucknow,226018,India,Monday-Sunday 8am - 9pm,Cash,INR (Indian Rupees),https://www.medicineindia.org/pharmacy-chemist-drugstore-details/40983/tarunica-enterprises
461,Pharmacy,The Best Pharmacy,9236010252,"Odeon Dhal, Odion Cinema, Lucknow",Lucknow,226001,India,Monday-Sunday 8am - 9pm,Cash,INR (Indian Rupees),https://www.medicineindia.org/pharmacy-chemist-drugstore-details/41253/the-best-pharmacy
462,Pharmacy,The British Pharmacy,(0522) 2626542,"58, M.g. Marg, Hazratganj, Lucknow",Lucknow,226001,India,Monday-Sunday 8am - 9pm,Cash,INR (Indian Rupees),https://www.medicineindia.org/pharmacy-chemist-drugstore-details/41160/the-british-pharmacy
463,Pharmacy,The Malik Pharma,(0522) 4078948,"Medicine Market, Aminabad, LUCKNOW",Lucknow,226018,India,Monday-Sunday 8am - 9pm,Cash,INR (Indian Rupees),https://www.medicineindia.org/pharmacy-chemist-drugstore-details/41388/the-malik-pharma
464,Pharmacy,Tulsi Medical Store,9450367619,"Kumhar Mandi, Kharika Road, Telibagh, Lucknow",Lucknow,226002,India,Monday-Sunday 8am - 9pm,Cash,INR (Indian Rupees),https://www.medicineindia.org/pharmacy-chemist-drugstore-details/41048/tulsi-medical-store
465,Pharmacy,U P Premier Homoeopathic House,(0522) 2619121,"41/42, Anand churaha, Kaisarbagh, Lucknow",Lucknow,226001,India,Monday-Sunday 8am - 9pm,Cash,INR (Indian Rupees),https://www.medicineindia.org/pharmacy-chemist-drugstore-details/41289/u-p-premier-homoeopathic-house
466,Pharmacy,U. P. Surgical Co.,(0522) 2624494,"2 Sugnamal Medicine Market, Aminabad, Lucknow",Lucknow,226018,India,Monday-Sunday 8am - 9pm,Cash,INR (Indian Rupees),https://www.medicineindia.org/pharmacy-chemist-drugstore-details/40954/u-p-surgical-co
467,Pharmacy,U.K.MEDICALS,9936798888,"Shri Nath complex, Near Shri Nath marriage hall, Aliganj road, Aliganj, Lucknow",Lucknow,226024,India,Monday-Sunday 8am - 9pm,Cash,INR (Indian Rupees),https://www.medicineindia.org/pharmacy-chemist-drugstore-details/40931/ukmedicals
468,Pharmacy,Ujala Medical Centre,(0522) 2340804,"B-2247, Indira Nagar Lucknow, Lucknow",Lucknow,226016,India,Monday-Sunday 8am - 9pm,Cash,INR (Indian Rupees),https://www.medicineindia.org/pharmacy-chemist-drugstore-details/40922/ujala-medical-centre
469,Pharmacy,Uma Medical Store,(0522) 3231013,"292/153, Victoria Ganj, Lucknow",Lucknow,226004,India,Monday-Sunday 8am - 9pm,Cash,INR (Indian Rupees),https://www.medicineindia.org/pharmacy-chemist-drugstore-details/41035/uma-medical-store
470,Pharmacy,Unani & Ayurvedic Medical Store ,9198059753,"Noor Market Shop B-12, Near Era Medical Centre, Opposite Hasan Tailors, Akbari Gate, Chowk, Lucknow 226003 ",Lucknow,226003,India,Monday-Sunday 8am - 9pm,Cash,INR (Indian Rupees),https://www.medicineindia.org/pharmacy-chemist-drugstore-details/81927/unani-ayurvedic-medical-store
471,Pharmacy,Unique Medico,(0522) 3262970,"2-A, Near Harmain Hospital, Cantonment Road, Burlington Hotel, Lucknow",Lucknow,226001,India,Monday-Sunday 8am - 9pm,Cash,INR (Indian Rupees),https://www.medicineindia.org/pharmacy-chemist-drugstore-details/41103/unique-medico
472,Pharmacy,United Medicals,(0522) 4043094,"Near Kgmu Crossing, Lucknow Chowk, Lucknow",Lucknow,226003,India,Monday-Sunday 8am - 9pm,Cash,INR (Indian Rupees),https://www.medicineindia.org/pharmacy-chemist-drugstore-details/40993/united-medicals
473,Pharmacy,United Medico,(0522) 2617852,"Diamond Dairy,Udaiganj, Lucknow Gpo, Lucknow",Lucknow,226001,India,Monday-Sunday 8am - 9pm,Cash,INR (Indian Rupees),https://www.medicineindia.org/pharmacy-chemist-drugstore-details/41184/united-medico
474,Pharmacy,United Medicos,(0522) 2237011,"3, Diamond Dairy, Udayganj, Cantt Road, Udaiganj, Lucknow",Lucknow,226001,India,Monday-Sunday 8am - 9pm,Cash,INR (Indian Rupees),https://www.medicineindia.org/pharmacy-chemist-drugstore-details/41197/united-medicos
475,Pharmacy,United Medicos,(0522) 2325627,"Shop No. 3, Diamond Dairy, Udai Ganj, Cantt Road, Lucknow",Lucknow,226001,India,Monday-Sunday 8am - 9pm,Cash,INR (Indian Rupees),https://www.medicineindia.org/pharmacy-chemist-drugstore-details/41260/united-medicos
476,Pharmacy,Universal Medical Agency,(0522) 2349585,"340, Lekhrazj Khazana, Indira Nagar Lucknow, Lucknow",Lucknow,226016,India,Monday-Sunday 8am - 9pm,Cash,INR (Indian Rupees),https://www.medicineindia.org/pharmacy-chemist-drugstore-details/41000/universal-medical-agency
477,Pharmacy,V L Enterprises,9935560462,"B-9, New Bharat Medicine Marke, Gautam Budh Marg(Gb Marg), LUCKNOW",Lucknow,226018,India,Monday-Sunday 8am - 9pm,Cash,INR (Indian Rupees),https://www.medicineindia.org/pharmacy-chemist-drugstore-details/41390/v-l-enterprises
478,Pharmacy,V Pharma,(0522) 2787484,"25, Nirala Market, Nirala Nagar, Aliganj, Lucknow",Lucknow,226024,India,Monday-Sunday 8am - 9pm,Cash,INR (Indian Rupees),https://www.medicineindia.org/pharmacy-chemist-drugstore-details/40936/v-pharma
479,Pharmacy,V R Medicals,9839527218,"Shop No-36-37, Nirma Ambika Arcade, Lucknow Gpo, Lucknow",Lucknow,226001,India,Monday-Sunday 8am - 9pm,Cash,INR (Indian Rupees),https://www.medicineindia.org/pharmacy-chemist-drugstore-details/41163/v-r-medicals
480,Pharmacy,Vaibhav Medical Store,9452162431,"Guru Dayal Choraha Faridipur, Dubagga, Ring Rd, Lucknow Gpo, Lucknow",Lucknow,226001,India,Monday-Sunday 8am - 9pm,Cash,INR (Indian Rupees),https://www.medicineindia.org/pharmacy-chemist-drugstore-details/41202/vaibhav-medical-store
481,Pharmacy,Vaishnavi medicals,9044011370,"Shop. No.-8-A, 3/122, Vivek khand, Near neelkanth sweets, Gomti Nagar Lucknow, Lucknow",Lucknow,226001,India,Monday-Sunday 8am - 9pm,Cash,INR (Indian Rupees),https://www.medicineindia.org/pharmacy-chemist-drugstore-details/41280/vaishnavi-medicals
482,Pharmacy,Verma Assoc,(0522) 2731892,"6-7, Gorawada Complex, Terhi Puliya,Near Sabzi Mandi, Kursi Road, Lucknow",Lucknow,226026,India,Monday-Sunday 8am - 9pm,Cash,INR (Indian Rupees),https://www.medicineindia.org/pharmacy-chemist-drugstore-details/41087/verma-assoc
483,Pharmacy,Verma Medical And Surgical Centre,9335341528,"24, Khanvantari Dham, Near Auto Stand, Saraswati Puram, Telibagh, Lucknow",Lucknow,226002,India,Monday-Sunday 8am - 9pm,Cash,INR (Indian Rupees),https://www.medicineindia.org/pharmacy-chemist-drugstore-details/41335/verma-medical-and-surgical-centre
484,Pharmacy,Verma Medical Store,9415517706,"91 Nehru Road, Sadar Bazar, Cantt Road, Lucknow",Lucknow,226001,India,Monday-Sunday 8am - 9pm,Cash,INR (Indian Rupees),https://www.medicineindia.org/pharmacy-chemist-drugstore-details/41261/verma-medical-store
485,Pharmacy,Verma Medical Store,9839042243,"Near Shubham Cinema, Ghasiyari Mandi, Kaisarbagh, Lucknow",Lucknow,226001,India,Monday-Sunday 8am - 9pm,Cash,INR (Indian Rupees),https://www.medicineindia.org/pharmacy-chemist-drugstore-details/41262/verma-medical-store
486,Pharmacy,Verma Medicals,(0522) 2320458,"5, Chandganj, Garden Road, Aliganj, Lucknow",Lucknow,226024,India,Monday-Sunday 8am - 9pm,Cash,INR (Indian Rupees),https://www.medicineindia.org/pharmacy-chemist-drugstore-details/41129/verma-medicals
487,Pharmacy,Vijay Medical Store,9335270793,"Terhi Pulia, Kursi Road, Lucknow",Lucknow,226026,India,Monday-Sunday 8am - 9pm,Cash,INR (Indian Rupees),https://www.medicineindia.org/pharmacy-chemist-drugstore-details/41088/vijay-medical-store
488,Pharmacy,Vijay Pharma,(0522) 2274478,"Shop No.2, Aminabad, 113/10-1j.n.k. Market, Aminabad, Lucknow",Lucknow,226018,India,Monday-Sunday 8am - 9pm,Cash,INR (Indian Rupees),https://www.medicineindia.org/pharmacy-chemist-drugstore-details/41383/vijay-pharma
489,Pharmacy,Vinay Distributors,(0522) 2388427,"127-A,Chandralok Tower, Kapoorthala, Aliganj, Lucknow",Lucknow,226024,India,Monday-Sunday 8am - 9pm,Cash,INR (Indian Rupees),https://www.medicineindia.org/pharmacy-chemist-drugstore-details/41118/vinay-distributors
490,Pharmacy,Vinay Medical Store,9335046255,"632 Sadar Bazar, Sadar, Lucknow",Lucknow,226002,India,Monday-Sunday 8am - 9pm,Cash,INR (Indian Rupees),https://www.medicineindia.org/pharmacy-chemist-drugstore-details/41327/vinay-medical-store
491,Pharmacy,Vinayak Drug Agencies,(0522) 2610678,"Shop No-6, Soloman Mkt, Aminabad, Lucknow",Lucknow,226018,India,Monday-Sunday 8am - 9pm,Cash,INR (Indian Rupees),https://www.medicineindia.org/pharmacy-chemist-drugstore-details/41347/vinayak-drug-agencies
492,Pharmacy,Vipin medical & surgical,8353984600,"Awadh tower ,shop no.2,basement, Nr lic building, Naval kishor road, Hazratganj, Lucknow",Lucknow,226001,India,Monday-Sunday 8am - 9pm,Cash,INR (Indian Rupees),https://www.medicineindia.org/pharmacy-chemist-drugstore-details/41114/vipin-medical-surgical
493,Pharmacy,Virmani Medical Store,9415423742,"1-C, Adarsh Nagar, Tehri Pulia, Alambagh, Lucknow",Lucknow,226005,India,Monday-Sunday 8am - 9pm,Cash,INR (Indian Rupees),https://www.medicineindia.org/pharmacy-chemist-drugstore-details/41075/virmani-medical-store
494,Pharmacy,Vishal Medical Store,(0522) 2253665,"Shop no.A-8, Lda Shopping Complex, LDA Market, Vivek khand 4, Gomti Nagar, Lucknow",Lucknow,226010,India,Monday-Sunday 8am - 9pm,Cash,INR (Indian Rupees),https://www.medicineindia.org/pharmacy-chemist-drugstore-details/41057/vishal-medical-store
495,Pharmacy,Vishal Medical Store,9984731192,"Bamba Ghar Mallahi Tola, Thakurganj, Mallahi Tola, Lucknow",Lucknow,226018,India,Monday-Sunday 8am - 9pm,Cash,INR (Indian Rupees),https://www.medicineindia.org/pharmacy-chemist-drugstore-details/41382/vishal-medical-store
496,Pharmacy,Vishal Medicals,(0522) 2267745,"Kgmc, Shamina Rd, Lucknow Gpo, Lucknow",Lucknow,226001,India,Monday-Sunday 8am - 9pm,Cash,INR (Indian Rupees),https://www.medicineindia.org/pharmacy-chemist-drugstore-details/41185/vishal-medicals
497,Pharmacy,Vishal Pharma,(0522) 4003514,"AF-2, New Medicine Market, Gautam Budh Marg(Gb Marg), LUCKNOW",Lucknow,226018,India,Monday-Sunday 8am - 9pm,Cash,INR (Indian Rupees),https://www.medicineindia.org/pharmacy-chemist-drugstore-details/40982/vishal-pharma
498,Pharmacy,Vivekanand Aushadhi Bhandar,(0522) 2202333,"7, 1st Floor, Sugnamal Market, Aminabad, Lucknow",Lucknow,226018,India,Monday-Sunday 8am - 9pm,Cash,INR (Indian Rupees),https://www.medicineindia.org/pharmacy-chemist-drugstore-details/41372/vivekanand-aushadhi-bhandar
499,Pharmacy,Xyol Medicals Store,(0522) 2625134,"Aminabad, Lucknow",Lucknow,226018,India,Monday-Sunday 8am - 9pm,Cash,INR (Indian Rupees),https://www.medicineindia.org/pharmacy-chemist-drugstore-details/41346/xyol-medicals-store
500,Pharmacy,Yogesh Medicals,9919219725,"Dandaiya Bazaar, Aliganj, Kursi Road, Aliganj, Lucknow",Lucknow,226024,India,Monday-Sunday 8am - 9pm,Cash,INR (Indian Rupees),https://www.medicineindia.org/pharmacy-chemist-drugstore-details/41120/yogesh-medicals
501,Pharmacy,Yogesh Medicals,9919219727,"Aliganj Bazar, Kurshi Road, Aliganj, Lucknow",Lucknow,226024,India,Monday-Sunday 8am - 9pm,Cash,INR (Indian Rupees),https://www.medicineindia.org/pharmacy-chemist-drugstore-details/41121/yogesh-medicals
502,Pharmacy,Yogesh Medicals,9419219727,"Aliganj, Lucknow",Lucknow,226024,India,Monday-Sunday 8am - 9pm,Cash,INR (Indian Rupees),https://www.medicineindia.org/pharmacy-chemist-drugstore-details/41149/yogesh-medicals
503,Pharmacy,aviral Medical Store,9415433930,"Puliya Taadi Khana,Anna Market,Priti Nagar, Dhawan Colony, Lucknow",Lucknow,226001,India,Monday-Sunday 8am - 9pm,Cash,INR (Indian Rupees),https://www.medicineindia.org/pharmacy-chemist-drugstore-details/41251/aviral-medical-store
