,Type,Name,Phone,Address,City,Pincode,Country,Timings,Mode_of_Payment,Currency,Link_to_profile
0,Pharmacy,A B C Medicines,(0261) 2417596,"3/321 Krishna Palace, Branpuri, Main Road, Bhagal, Surat",Surat,395003,India,Monday-Sunday 8am - 9pm,Cash,INR (Indian Rupees),https://www.medicineindia.org/pharmacy-chemist-drugstore-details/53165/a-b-c-medicines
1,Pharmacy,A G Med & Pro Stores,9426874721,"KIM Char Rasta, Surat",Surat,394111,India,Monday-Sunday 8am - 9pm,Cash,INR (Indian Rupees),https://www.medicineindia.org/pharmacy-chemist-drugstore-details/53404/a-g-med-pro-stores
2,Pharmacy,A M Medicals,(0261) 2429125,"Swagat Appt, Saiyedpura, Surat",Surat,395003,India,Monday-Sunday 8am - 9pm,Cash,INR (Indian Rupees),https://www.medicineindia.org/pharmacy-chemist-drugstore-details/53428/a-m-medicals
3,Pharmacy,A One Medical,9173369888,"Shop No 19, Prabhukrupa Society, Behind Spiningmill, Near Laxmannagar, Punagam, SURAT",Surat,394210,India,Monday-Sunday 8am - 9pm,Cash,INR (Indian Rupees),https://www.medicineindia.org/pharmacy-chemist-drugstore-details/53372/a-one-medical
4,Pharmacy,A To Z Medicines,9824055123,"1 Kunj Gali, B/W Pooja Hospital, Opp Paras Police Chowki, Katargram, Surat",Surat,395004,India,Monday-Sunday 8am - 9pm,Cash,INR (Indian Rupees),https://www.medicineindia.org/pharmacy-chemist-drugstore-details/53392/a-to-z-medicines
5,Pharmacy,A U C Medicine,9898369296,"Plot No 44 Jalaram Nagar, Nr Piyush Point, Housing Board, Pandesara, SURAT",Surat,394221,India,Monday-Sunday 8am - 9pm,Cash,INR (Indian Rupees),https://www.medicineindia.org/pharmacy-chemist-drugstore-details/53324/a-u-c-medicine
6,Pharmacy,AAI Mata Medical Store,9725132661,"Plot No., Ashapuri Society - 1, 120 Feet Bamroli Road, Pandesara, Surat",Surat,394221,India,Monday-Sunday 8am - 9pm,Cash,INR (Indian Rupees),https://www.medicineindia.org/pharmacy-chemist-drugstore-details/53322/aai-mata-medical-store
7,Pharmacy,ABC Chemist,,"12/623,Shirin Chambers, LAL Gate, Opp: Pal Dairy, LAL Gate, Surat",Surat,395003,India,Monday-Sunday 8am - 9pm,Cash,INR (Indian Rupees),https://www.medicineindia.org/pharmacy-chemist-drugstore-details/53454/abc-chemist
8,Pharmacy,ABC Medical Store,(0261) 2431521,"7/279, Helena Trade, Nr. Railway Station, Una Pani Road, Unapani Road, Surat",Surat,395003,India,Monday-Sunday 8am - 9pm,Cash,INR (Indian Rupees),https://www.medicineindia.org/pharmacy-chemist-drugstore-details/53155/abc-medical-store
9,Pharmacy,AMI Medico & General Stores,(0261) 2481194,"1 Harsh Complex, B/H Police Station &amp; Bus Stand, Main Road, Katargram, Surat",Surat,395004,India,Monday-Sunday 8am - 9pm,Cash,INR (Indian Rupees),https://www.medicineindia.org/pharmacy-chemist-drugstore-details/53460/ami-medico-general-stores
10,Pharmacy,Aalok Medical & Provision Stores,(0261) 2892849,"B 311, Gujarat Housing Board, Opposite Water Tank, Pandesara, Surat",Surat,394221,India,Monday-Sunday 8am - 9pm,Cash,INR (Indian Rupees),https://www.medicineindia.org/pharmacy-chemist-drugstore-details/53269/aalok-medical-provision-stores
11,Pharmacy,Aaryan Medical Stores,9724651610,"Shop No-2, Plot No- 102, Sonal Industries, Chikuwadi, Pandesara, SURAT",Surat,394221,India,Monday-Sunday 8am - 9pm,Cash,INR (Indian Rupees),https://www.medicineindia.org/pharmacy-chemist-drugstore-details/53325/aaryan-medical-stores
12,Pharmacy,Aayush Medical & Pro Stores,9426107218,"4 Ambicanagar, Doswada, Surat",Surat,394365,India,Monday-Sunday 8am - 9pm,Cash,INR (Indian Rupees),https://www.medicineindia.org/pharmacy-chemist-drugstore-details/53511/aayush-medical-pro-stores
13,Pharmacy,Adarsh Chemist,(0261) 3054334,"9, Shiv Darshan Apartment, Near Pooja Hospital, L B Cinema, Bhatar Road, Surat",Surat,395007,India,Monday-Sunday 8am - 9pm,Cash,INR (Indian Rupees),https://www.medicineindia.org/pharmacy-chemist-drugstore-details/53493/adarsh-chemist
14,Pharmacy,Adarsh Medicals,(0261) 2667095,"U 3 Shilp Apartment, Opp Gokulam Dairy, Athwa, Surat",Surat,395007,India,Monday-Sunday 8am - 9pm,Cash,INR (Indian Rupees),https://www.medicineindia.org/pharmacy-chemist-drugstore-details/53192/adarsh-medicals
15,Pharmacy,Adinath Medicines,(0261) 3040960,"Tu 02 Shankheshwar Complex, Kailashnagar, Opp Raymond Showroom, Majura Gate, Majura Gate, Surat",Surat,395002,India,Monday-Sunday 8am - 9pm,Cash,INR (Indian Rupees),https://www.medicineindia.org/pharmacy-chemist-drugstore-details/53280/adinath-medicines
16,Pharmacy,Aditya Medical & Provision Store,(0261) 2778228,"18 Prerna Nagar, Nr Tadwadi, Rander Road, Surat",Surat,395005,India,Monday-Sunday 8am - 9pm,Cash,INR (Indian Rupees),https://www.medicineindia.org/pharmacy-chemist-drugstore-details/53237/aditya-medical-provision-store
17,Pharmacy,Aditya Medical & Provisional Store,(0261) 2778228,"Umang, Shop No. 2, Tadwadi, 18, Prerna Nagar Society, Rander Road, Surat",Surat,395005,India,Monday-Sunday 8am - 9pm,Cash,INR (Indian Rupees),https://www.medicineindia.org/pharmacy-chemist-drugstore-details/53235/aditya-medical-provisional-store
18,Pharmacy,Agarwal Medical Store,(02626) 233014,"Near Saddheshwar Mahadev Temple, 25 Patharda Bazar, Ukai Dam, Surat",Surat,394680,India,Monday-Sunday 8am - 9pm,Cash,INR (Indian Rupees),https://www.medicineindia.org/pharmacy-chemist-drugstore-details/53516/agarwal-medical-store
19,Pharmacy,Agrawal Medical Store,9998329048,"3rd Floor Bhagwati Ashish Apartment, City Light Road, Citylight Road, SURAT",Surat,395007,India,Monday-Sunday 8am - 9pm,Cash,INR (Indian Rupees),https://www.medicineindia.org/pharmacy-chemist-drugstore-details/53448/agrawal-medical-store
20,Pharmacy,Akash Medical & General Stores,9979466369,"Shop-4, Shiwam Avenue, Opp. Reshma Row-Houses, Punagam Road, Punagam, Surat",Surat,394210,India,Monday-Sunday 8am - 9pm,Cash,INR (Indian Rupees),https://www.medicineindia.org/pharmacy-chemist-drugstore-details/53379/akash-medical-general-stores
21,Pharmacy,Alsafa Medicals & Provision Stores,(0261) 2438282,"A-01, Lalgate, Jumma Masjid Ni Gali, LAL Gate, Surat",Surat,395003,India,Monday-Sunday 8am - 9pm,Cash,INR (Indian Rupees),https://www.medicineindia.org/pharmacy-chemist-drugstore-details/53455/alsafa-medicals-provision-stores
22,Pharmacy,Amar Krupa Medical Store,9879940961,"Shop No-1 Rameshwar Shopping Centre, Kapodra Char Rasta, Kapodra, Surat",Surat,395006,India,Monday-Sunday 8am - 9pm,Cash,INR (Indian Rupees),https://www.medicineindia.org/pharmacy-chemist-drugstore-details/53302/amar-krupa-medical-store
23,Pharmacy,Amar Medicines,(0261) 3354269,"G37, Corner Pnt, Op Seja; Apt, Citylight Rd, Surat Ho, Surat",Surat,395003,India,Monday-Sunday 8am - 9pm,Cash,INR (Indian Rupees),https://www.medicineindia.org/pharmacy-chemist-drugstore-details/53416/amar-medicines
24,Pharmacy,Ambica Medical Store,(0261) 2781337,"Shop No Gl 2 Center Point, B/S Vishal Nagar Opposite Gujarat Gas Circle, Adajan, SURAT",Surat,395009,India,Monday-Sunday 8am - 9pm,Cash,INR (Indian Rupees),https://www.medicineindia.org/pharmacy-chemist-drugstore-details/53198/ambica-medical-store
25,Pharmacy,Ambika Medical & General Stores,9725877588,"13, Ramipark Society, Opposite Mahadev Temple, Didoli Road, Godadara, Surat",Surat,395010,India,Monday-Sunday 8am - 9pm,Cash,INR (Indian Rupees),https://www.medicineindia.org/pharmacy-chemist-drugstore-details/53252/ambika-medical-general-stores
26,Pharmacy,Ambika Medical And General Store,9974724747,"A-28, Shakti Vijay Society, Aaspas Char Rasta, Dindoli Road, Surat",Surat,395010,India,Monday-Sunday 8am - 9pm,Cash,INR (Indian Rupees),https://www.medicineindia.org/pharmacy-chemist-drugstore-details/53181/ambika-medical-and-general-store
27,Pharmacy,Amruta Medical Store,(0261) 2231142,"2003 Vaibhav Appartment, Near Amruta Hospital, Bhatar Road, Bhatar Road, SURAT",Surat,395007,India,Monday-Sunday 8am - 9pm,Cash,INR (Indian Rupees),https://www.medicineindia.org/pharmacy-chemist-drugstore-details/53450/amruta-medical-store
28,Pharmacy,Anand Medical,9898494148,"7/8, Surbhi Complex, Parvat Patia, Parvatgam Road, Parvat Patia, Surat",Surat,395010,India,Monday-Sunday 8am - 9pm,Cash,INR (Indian Rupees),https://www.medicineindia.org/pharmacy-chemist-drugstore-details/53179/anand-medical
29,Pharmacy,Anand Medical Store,(0261) 2730123,"B-4,Shreeji Arcade, Anand Mahal Road, Adajan, SURAT",Surat,395009,India,Monday-Sunday 8am - 9pm,Cash,INR (Indian Rupees),https://www.medicineindia.org/pharmacy-chemist-drugstore-details/53476/anand-medical-store
30,Pharmacy,Anand Medical Stores,(0261) 2478228,"G/4, Paradise Apartment, Athwalines, Athwa Gates, SURAT",Surat,395001,India,Monday-Sunday 8am - 9pm,Cash,INR (Indian Rupees),https://www.medicineindia.org/pharmacy-chemist-drugstore-details/53170/anand-medical-stores
31,Pharmacy,Anand Medical Stores,(0261) 2478488,"G/4 Paradise Apt, Athwa Gates, Surat",Surat,395001,India,Monday-Sunday 8am - 9pm,Cash,INR (Indian Rupees),https://www.medicineindia.org/pharmacy-chemist-drugstore-details/53283/anand-medical-stores
32,Pharmacy,Anant Medical Stores,(0261) 2626472,"2/2 Singapuri Wadi, Rustampura, 4 Rasta, Surat Ho, Surat",Surat,395003,India,Monday-Sunday 8am - 9pm,Cash,INR (Indian Rupees),https://www.medicineindia.org/pharmacy-chemist-drugstore-details/53330/anant-medical-stores
33,Pharmacy,Anil Medical Store,(0261) 2510283,"Shop No 3, Narayan Chembers, Vishram Society, Ved Road, Surat",Surat,395004,India,Monday-Sunday 8am - 9pm,Cash,INR (Indian Rupees),https://www.medicineindia.org/pharmacy-chemist-drugstore-details/53399/anil-medical-store
34,Pharmacy,Anjali Medical & General Stores,(0261) 2906949,"Plot No. 62/63, Shop No. 1,167, Surat, Godadara Road, Godadara, Surat",Surat,395010,India,Monday-Sunday 8am - 9pm,Cash,INR (Indian Rupees),https://www.medicineindia.org/pharmacy-chemist-drugstore-details/53278/anjali-medical-general-stores
35,Pharmacy,Anmol Medical And General Store,9909841201,"1,2,Reliance-1, Shri Ram Chowk, Kosad Raod Sarkari Avas, Sayan, Surat",Surat,394130,India,Monday-Sunday 8am - 9pm,Cash,INR (Indian Rupees),https://www.medicineindia.org/pharmacy-chemist-drugstore-details/53468/anmol-medical-and-general-store
36,Pharmacy,Anupam Medical Store,(0261) 2477767,"Vishvkarma Arcade, Opp N C Hospital, Manjura Gate, Surat",Surat,395002,India,Monday-Sunday 8am - 9pm,Cash,INR (Indian Rupees),https://www.medicineindia.org/pharmacy-chemist-drugstore-details/53316/anupam-medical-store
37,Pharmacy,Apex Medico,(0261) 2768693,"Shop No. 1, Mangaldas Shopping Center, Palnpur Patiya, Rander Road, Rander Road, Surat",Surat,395005,India,Monday-Sunday 8am - 9pm,Cash,INR (Indian Rupees),https://www.medicineindia.org/pharmacy-chemist-drugstore-details/53236/apex-medico
38,Pharmacy,Apna Chemist,9879111188,"C/O Bhartimaiya Medical Store, Lalwadi, Salabatpura, Surat",Surat,395003,India,Monday-Sunday 8am - 9pm,Cash,INR (Indian Rupees),https://www.medicineindia.org/pharmacy-chemist-drugstore-details/53350/apna-chemist
39,Pharmacy,Apollo Pharmacy,(0261) 3215866,"6 Mann Complex, Opposite Shree Ram Petrol Pump, Anandmahal Road, Adajan Road, SURAT",Surat,395009,India,Monday-Sunday 8am - 9pm,Cash,INR (Indian Rupees),https://www.medicineindia.org/pharmacy-chemist-drugstore-details/53137/apollo-pharmacy
40,Pharmacy,Apollo Pharmacy,(0261) 3272857,"Shop No U 1, Ground Floor, Zaveri Complex, Bhatar Road, SURAT",Surat,395007,India,Monday-Sunday 8am - 9pm,Cash,INR (Indian Rupees),https://www.medicineindia.org/pharmacy-chemist-drugstore-details/53138/apollo-pharmacy
41,Pharmacy,Apollo Pharmacy,(0261) 3273573,"Shop No G 85, 86, Gr Flr, Silicon Cplx, Navsari, Udhna Road, Udhna, Surat",Surat,394210,India,Monday-Sunday 8am - 9pm,Cash,INR (Indian Rupees),https://www.medicineindia.org/pharmacy-chemist-drugstore-details/53139/apollo-pharmacy
42,Pharmacy,Arbuda Pharmacy,(0261) 2401179,"3/161, 1st Floor, Vanmali Bhavan, Parsi Sheri, Bhagal, Surat",Surat,395003,India,Monday-Sunday 8am - 9pm,Cash,INR (Indian Rupees),https://www.medicineindia.org/pharmacy-chemist-drugstore-details/53215/arbuda-pharmacy
43,Pharmacy,Arihant Medical & Provisional Store...,(0261) 2591787,"4, Hira Panna Apartment, Kazi Maidan, Gopipura, Surat",Surat,395001,India,Monday-Sunday 8am - 9pm,Cash,INR (Indian Rupees),https://www.medicineindia.org/pharmacy-chemist-drugstore-details/53287/arihant-medical-provisional-store
44,Pharmacy,Arihant Medical Store,(0261) 2234409,"8 Sheetal Shopping Square, 3rd Floor, Ghoddod Road, Bhatar Road, Surat",Surat,395007,India,Monday-Sunday 8am - 9pm,Cash,INR (Indian Rupees),https://www.medicineindia.org/pharmacy-chemist-drugstore-details/53443/arihant-medical-store
45,Pharmacy,Asaktashram Medical Store,(0261) 2421567,"Asaktashram Hospital, Opp. Police Line, Rampura, Surat",Surat,395003,India,Monday-Sunday 8am - 9pm,Cash,INR (Indian Rupees),https://www.medicineindia.org/pharmacy-chemist-drugstore-details/53144/asaktashram-medical-store
46,Pharmacy,Asha Medical,9033332934,"10, Ganesh Industrial Society, Near Navjivan Circle, Shantinath Mill Road, Udhna Magdala Road, Surat",Surat,394210,India,Monday-Sunday 8am - 9pm,Cash,INR (Indian Rupees),https://www.medicineindia.org/pharmacy-chemist-drugstore-details/53385/asha-medical
47,Pharmacy,Asha Medical & General Store,9825203847,"Vishal Nagar, Part 1, Katargram, Surat",Surat,395004,India,Monday-Sunday 8am - 9pm,Cash,INR (Indian Rupees),https://www.medicineindia.org/pharmacy-chemist-drugstore-details/53396/asha-medical-general-store
48,Pharmacy,Ashapura Medical,9998668483,"1, Ranchhod Nagar, Althan Pandesara Road, Pandesara, Surat",Surat,394221,India,Monday-Sunday 8am - 9pm,Cash,INR (Indian Rupees),https://www.medicineindia.org/pharmacy-chemist-drugstore-details/53270/ashapura-medical
49,Pharmacy,Ashirwad Medical Store,9428869526,"Shop No-1, Parle Point, Mamta Hospital, Shastri Road, Bardoli, Surat",Surat,394601,India,Monday-Sunday 8am - 9pm,Cash,INR (Indian Rupees),https://www.medicineindia.org/pharmacy-chemist-drugstore-details/53230/ashirwad-medical-store
50,Pharmacy,Ashish Medical & General Store,9687298510,"11, Pramukh Chambers, Tad Wadi, Rander Road, Rander Road, Surat",Surat,395005,India,Monday-Sunday 8am - 9pm,Cash,INR (Indian Rupees),https://www.medicineindia.org/pharmacy-chemist-drugstore-details/53234/ashish-medical-general-store
51,Pharmacy,Ashok Medical & General Store,(0261) 2760365,"14,15,16 Drashti Complex, L.p.savani Circle, Honey Park Road, Surat",Surat,394515,India,Monday-Sunday 8am - 9pm,Cash,INR (Indian Rupees),https://www.medicineindia.org/pharmacy-chemist-drugstore-details/53168/ashok-medical-general-store
52,Pharmacy,Ashwini Medical & General Stores,,"7, Umiya Nagar- 1, Udhana, Navagam-Dindoli Road, Udhna, Surat",Surat,394210,India,Monday-Sunday 8am - 9pm,Cash,INR (Indian Rupees),https://www.medicineindia.org/pharmacy-chemist-drugstore-details/53375/ashwini-medical-general-stores
53,Pharmacy,Avadh Medical & General Stores,(0261) 2541986,"1, Shyani Society, A.k. Road, Nr. Shah Clinic, Khodiyar Nagar Road, A K Road, Surat",Surat,395008,India,Monday-Sunday 8am - 9pm,Cash,INR (Indian Rupees),https://www.medicineindia.org/pharmacy-chemist-drugstore-details/53241/avadh-medical-general-stores
54,Pharmacy,Ayush Medicals Stores,9913782942,"18_19_20, Saitirth Residency, Opp, Nakshtra Platinum, Palanpur Patia, Surat",Surat,395009,India,Monday-Sunday 8am - 9pm,Cash,INR (Indian Rupees),https://www.medicineindia.org/pharmacy-chemist-drugstore-details/53487/ayush-medicals-stores
55,Pharmacy,Baba Medical & Provision Store,9898257269,"G-2 Maharaja Arcade, Near Agreshan Bhavan Hall, City Light Road, Citylight Road, SURAT",Surat,395007,India,Monday-Sunday 8am - 9pm,Cash,INR (Indian Rupees),https://www.medicineindia.org/pharmacy-chemist-drugstore-details/53172/baba-medical-provision-store
56,Pharmacy,Balkrishna Medical Storess,(0261) 2779849,"13 Nilanjam Apartments, Opp Navyug College, Rander Road, Adajan Hazira Road, Surat",Surat,395009,India,Monday-Sunday 8am - 9pm,Cash,INR (Indian Rupees),https://www.medicineindia.org/pharmacy-chemist-drugstore-details/53225/balkrishna-medical-storess
57,Pharmacy,Bapa Sitaram Medical,(0261) 2503540,"2,Patwa Building, Below Diamond Associate Hall, Opp Tapibaug, Varachha Road, Varachha Road, Surat",Surat,395006,India,Monday-Sunday 8am - 9pm,Cash,INR (Indian Rupees),https://www.medicineindia.org/pharmacy-chemist-drugstore-details/53245/bapa-sitaram-medical
58,Pharmacy,Bhagwati Sales,(0261) 2255155,"G- 3 Anmol Complex, Opp. Radhey Nagar, Modi Bunglow, Dumas Road, SURAT",Surat,395007,India,Monday-Sunday 8am - 9pm,Cash,INR (Indian Rupees),https://www.medicineindia.org/pharmacy-chemist-drugstore-details/53221/bhagwati-sales
59,Pharmacy,Bharat Medical,9428143646,"Plot No 12, Muktinagar Society, Bamroli Road, Pandesara, Surat",Surat,394221,India,Monday-Sunday 8am - 9pm,Cash,INR (Indian Rupees),https://www.medicineindia.org/pharmacy-chemist-drugstore-details/53207/bharat-medical
60,Pharmacy,Bharat Medical & General Store,9909347719,"1,Parvat Plaza, Parvat Gam, Godadra Road, Parvat Patia, Surat",Surat,395010,India,Monday-Sunday 8am - 9pm,Cash,INR (Indian Rupees),https://www.medicineindia.org/pharmacy-chemist-drugstore-details/53204/bharat-medical-general-store
61,Pharmacy,Bharat Medical Stores,(0261) 2429035,"7/50 Sufi Baug, Near Station, Station Rd, Surat Ho, Surat",Surat,395003,India,Monday-Sunday 8am - 9pm,Cash,INR (Indian Rupees),https://www.medicineindia.org/pharmacy-chemist-drugstore-details/53331/bharat-medical-stores
62,Pharmacy,Bhatia Hansraj Jamnadas,(0261) 2414699,"9/1664 Nanavati Shpg Centre, Nr Janta Ice Cream Chauta Pool, Surat Ho, Surat",Surat,395003,India,Monday-Sunday 8am - 9pm,Cash,INR (Indian Rupees),https://www.medicineindia.org/pharmacy-chemist-drugstore-details/53332/bhatia-hansraj-jamnadas
63,Pharmacy,Bhavani Chemist,(0261) 2421302,"5/2004 A Gajanan Niwas, Hari Fara, Bhavanivad, Surat",Surat,395003,India,Monday-Sunday 8am - 9pm,Cash,INR (Indian Rupees),https://www.medicineindia.org/pharmacy-chemist-drugstore-details/53216/bhavani-chemist
64,Pharmacy,Bhavani Medical Stores,(0261) 2418844,"9/1812, Kanpith Bazar, Main Road, LAL Gate, Surat",Surat,395003,India,Monday-Sunday 8am - 9pm,Cash,INR (Indian Rupees),https://www.medicineindia.org/pharmacy-chemist-drugstore-details/53222/bhavani-medical-stores
65,Pharmacy,Bhavani Medicals,(0261) 2418844,"Nr. Paris Showroom, LAL Gate, Surat",Surat,395003,India,Monday-Sunday 8am - 9pm,Cash,INR (Indian Rupees),https://www.medicineindia.org/pharmacy-chemist-drugstore-details/53145/bhavani-medicals
66,Pharmacy,Bhavani Medicals,(0261) 2532154,"A-01, Station Road, Station Road, Surat",Surat,395003,India,Monday-Sunday 8am - 9pm,Cash,INR (Indian Rupees),https://www.medicineindia.org/pharmacy-chemist-drugstore-details/53364/bhavani-medicals
67,Pharmacy,Bhavani Medicals,(0261) 2532338,"Shop No 2, Bhavani Chambers, Near Peoples Bank, Katargam Main Road, Katargram, Surat",Surat,395004,India,Monday-Sunday 8am - 9pm,Cash,INR (Indian Rupees),https://www.medicineindia.org/pharmacy-chemist-drugstore-details/53397/bhavani-medicals
68,Pharmacy,Bhavani Medicals,(0261) 2349494,"A-01, Salabatpura, Main Road, Salabatpura, Surat",Surat,395003,India,Monday-Sunday 8am - 9pm,Cash,INR (Indian Rupees),https://www.medicineindia.org/pharmacy-chemist-drugstore-details/53464/bhavani-medicals
69,Pharmacy,Bholeshwer Medical Store,9824572303,"15, Momai Complex, Mota Varachha, Surat",Surat,394101,India,Monday-Sunday 8am - 9pm,Cash,INR (Indian Rupees),https://www.medicineindia.org/pharmacy-chemist-drugstore-details/53262/bholeshwer-medical-store
70,Pharmacy,Bina Medical Agencies,(0261) 2430760,"11/2478, Navroj Appartment, Near Palia Bungalow, Machhli Pith, Wadia Street, Shahpore, Surat",Surat,395003,India,Monday-Sunday 8am - 9pm,Cash,INR (Indian Rupees),https://www.medicineindia.org/pharmacy-chemist-drugstore-details/53163/bina-medical-agencies
71,Pharmacy,Burhani Chemist,9825081526,"Under Burhani Hospital, Opposite Mahidharpura Police Station, Tayabi Street, Station Road, Surat",Surat,395003,India,Monday-Sunday 8am - 9pm,Cash,INR (Indian Rupees),https://www.medicineindia.org/pharmacy-chemist-drugstore-details/53363/burhani-chemist
72,Pharmacy,Century Medical Stores,(0261) 2411515,"C/O 21st Century Hospital, Dawer Plaza, Next To Savera Hotel, Nr Rly Station, Sufi Baug, Station Road, Surat",Surat,395003,India,Monday-Sunday 8am - 9pm,Cash,INR (Indian Rupees),https://www.medicineindia.org/pharmacy-chemist-drugstore-details/53362/century-medical-stores
73,Pharmacy,Charmi Medical Store,9376821003,"4 Vaishnodevi Apartment, Near District Co Op Bank, Surat Ho, Surat",Surat,395003,India,Monday-Sunday 8am - 9pm,Cash,INR (Indian Rupees),https://www.medicineindia.org/pharmacy-chemist-drugstore-details/53345/charmi-medical-store
74,Pharmacy,Charmi Medical Store,(0261) 2221003,"4 Vaishnodevi Apt, Near Surat District Co Operative Bank, Piplod, Piplod, SURAT",Surat,395007,India,Monday-Sunday 8am - 9pm,Cash,INR (Indian Rupees),https://www.medicineindia.org/pharmacy-chemist-drugstore-details/53449/charmi-medical-store
75,Pharmacy,Charming Medical Store,(0261) 3221003,"4 Vaishnodevi Apartment, Near District Co Op Bank, Surat Ho, Surat",Surat,395003,India,Monday-Sunday 8am - 9pm,Cash,INR (Indian Rupees),https://www.medicineindia.org/pharmacy-chemist-drugstore-details/53347/charming-medical-store
76,Pharmacy,Children Medical Stores,9904248282,"Doctor House 1st Floor, Opp Hari Om Bunglow, Main Road, Katargram, Surat",Surat,395004,India,Monday-Sunday 8am - 9pm,Cash,INR (Indian Rupees),https://www.medicineindia.org/pharmacy-chemist-drugstore-details/53459/children-medical-stores
77,Pharmacy,City Medicals,(0261) 2463260,"1, Truveni Apartment, Nanpura, Surat",Surat,395001,India,Monday-Sunday 8am - 9pm,Cash,INR (Indian Rupees),https://www.medicineindia.org/pharmacy-chemist-drugstore-details/53462/city-medicals
78,Pharmacy,DAX Medical & General Stores,9978822825,"Shop No. 22, Krishna Town Ship, Opp. Hans Society, Mota Varachha Road, Mota Varachha, Surat",Surat,394101,India,Monday-Sunday 8am - 9pm,Cash,INR (Indian Rupees),https://www.medicineindia.org/pharmacy-chemist-drugstore-details/53266/dax-medical-general-stores
79,Pharmacy,DR Tattitali Totappa Amarappa,(0261) 2423979,"Q.no. 2, Athwa Health Centre, Opp Lourdes Convent School, Athwa Lines, Athwa, Surat",Surat,395007,India,Monday-Sunday 8am - 9pm,Cash,INR (Indian Rupees),https://www.medicineindia.org/pharmacy-chemist-drugstore-details/53439/dr-tattitali-totappa-amarappa
80,Pharmacy,Darshan Traders,,"B/1-5, Vishal Nagar Apartment, Adajan, B/S, New Bridge, Above Vijay Dairy, Adajan Dn, Surat",Surat,395009,India,Monday-Sunday 8am - 9pm,Cash,INR (Indian Rupees),https://www.medicineindia.org/pharmacy-chemist-drugstore-details/53471/darshan-traders
81,Pharmacy,Daruwala Bros,(0261) 2424114,"3/4225, Bhagal, Surat",Surat,395003,India,Monday-Sunday 8am - 9pm,Cash,INR (Indian Rupees),https://www.medicineindia.org/pharmacy-chemist-drugstore-details/53164/daruwala-bros
82,Pharmacy,Desai Kushumben Kishorkumar,(0261) 2414637,"9/1182, Balaji Rd, Surat",Surat,395003,India,Monday-Sunday 8am - 9pm,Cash,INR (Indian Rupees),https://www.medicineindia.org/pharmacy-chemist-drugstore-details/53333/desai-kushumben-kishorkumar
83,Pharmacy,Desai Medical Store,8866660530,"No: 2, Varachha Road, Pavan Apparments, Khodiyar Nagar Road, Surat, SURAT",Surat,395006,India,Monday-Sunday 8am - 9pm,Cash,INR (Indian Rupees),https://www.medicineindia.org/pharmacy-chemist-drugstore-details/53311/desai-medical-store
84,Pharmacy,Desai Medical Store,(0261) 2675691,"Udhna Bestan, Main Rd, Udhna, Surat",Surat,394210,India,Monday-Sunday 8am - 9pm,Cash,INR (Indian Rupees),https://www.medicineindia.org/pharmacy-chemist-drugstore-details/53367/desai-medical-store
85,Pharmacy,Dhan Laxmi Enterprise,(0261) 6573509,"94 ,Kabir Wadi, Opp Himson Mill, Ashwani Kumar Road, Ashwini Kumar Road, Surat",Surat,395008,India,Monday-Sunday 8am - 9pm,Cash,INR (Indian Rupees),https://www.medicineindia.org/pharmacy-chemist-drugstore-details/53314/dhan-laxmi-enterprise
86,Pharmacy,Dhanlaxmi Chemist,(0261) 2534144,"7/8, Dhanlaxmi Compound, LAL Darwaja Road, Below Gabani Kidney Hospital, LAL Darwaja, Surat",Surat,395003,India,Monday-Sunday 8am - 9pm,Cash,INR (Indian Rupees),https://www.medicineindia.org/pharmacy-chemist-drugstore-details/53188/dhanlaxmi-chemist
87,Pharmacy,Dharm Jivan Medical Store,9879019061,"Shop No. 4, Ramdev Pir Shopping Centre, Old Shakti Vijay, Varachha Road, Varachha Road, Surat",Surat,395006,India,Monday-Sunday 8am - 9pm,Cash,INR (Indian Rupees),https://www.medicineindia.org/pharmacy-chemist-drugstore-details/53300/dharm-jivan-medical-store
88,Pharmacy,Dharmik Medical Store,(0261) 2341362,"2/4350, Chhapgar Sheri Na Nake, Sagrampura, Sagrampura, Sagrampura, Surat",Surat,395002,India,Monday-Sunday 8am - 9pm,Cash,INR (Indian Rupees),https://www.medicineindia.org/pharmacy-chemist-drugstore-details/53318/dharmik-medical-store
89,Pharmacy,Dhruvi Medical & General Store,9428457185,"33, Shyamdham Society, Near Shyamdham Temple, Sarthana - Jakatnaka, Surat Ho, Surat",Surat,395003,India,Monday-Sunday 8am - 9pm,Cash,INR (Indian Rupees),https://www.medicineindia.org/pharmacy-chemist-drugstore-details/53419/dhruvi-medical-general-store
90,Pharmacy,Dignity Agencies,(0261) 2425436,"4/3461/62 Zampa Bazar, Khadi Rd, Nurpura, Surat",Surat,395003,India,Monday-Sunday 8am - 9pm,Cash,INR (Indian Rupees),https://www.medicineindia.org/pharmacy-chemist-drugstore-details/53463/dignity-agencies
91,Pharmacy,Digvijay Chemist,(0261) 2439584,"108, Parisar Apartment, Near Hotel Yatri, Sumul Dairy Road, Sumul Dairy Road, Surat",Surat,395008,India,Monday-Sunday 8am - 9pm,Cash,INR (Indian Rupees),https://www.medicineindia.org/pharmacy-chemist-drugstore-details/53423/digvijay-chemist
92,Pharmacy,Dilip Medico Surgical Corporation,(0261) 2417353,"12/883 Khatrkiwad Tawakhal Manzil, Rani Talao, Station Road, Surat",Surat,395003,India,Monday-Sunday 8am - 9pm,Cash,INR (Indian Rupees),https://www.medicineindia.org/pharmacy-chemist-drugstore-details/53210/dilip-medico-surgical-corporation
93,Pharmacy,Dipkiran Medical,(0261) 2484656,"200 Madhavdeep Apt Madhvanand Soc, Shinganpole Rd, Katargram, Surat",Surat,395004,India,Monday-Sunday 8am - 9pm,Cash,INR (Indian Rupees),https://www.medicineindia.org/pharmacy-chemist-drugstore-details/53393/dipkiran-medical
94,Pharmacy,Divya Medical Store,(0261) 3221462,"103,Shiv Shakti Appt, Ghod Dod Road, Opp Pruthvi Appt,Kakadia Complex, Ghoddod Road, Surat",Surat,395007,India,Monday-Sunday 8am - 9pm,Cash,INR (Indian Rupees),https://www.medicineindia.org/pharmacy-chemist-drugstore-details/53149/divya-medical-store
95,Pharmacy,Divya Medical Store,(0261) 2221462,"103 ,Shiv Shakti Apartment, Kakadia Complex, Ghod Dod Road, Ghoddod Road, Surat",Surat,395007,India,Monday-Sunday 8am - 9pm,Cash,INR (Indian Rupees),https://www.medicineindia.org/pharmacy-chemist-drugstore-details/53492/divya-medical-store
96,Pharmacy,Dr Hiren A Dala,(0261) 2462575,"M11 Western View Complex, Opp Bhulka Bhavan Cmplx, Adajan Road, Surat",Surat,395009,India,Monday-Sunday 8am - 9pm,Cash,INR (Indian Rupees),https://www.medicineindia.org/pharmacy-chemist-drugstore-details/53479/dr-hiren-a-dala
97,Pharmacy,Drashti Medical & General Store,(0261) 2531242,"Ground Floor, Hari Krishna Society, Shop No 1, Mayur Appart, Choryasi Katargam Road, Katargram, Surat",Surat,395004,India,Monday-Sunday 8am - 9pm,Cash,INR (Indian Rupees),https://www.medicineindia.org/pharmacy-chemist-drugstore-details/53391/drashti-medical-general-store
98,Pharmacy,Drashti Medical & General Store,9879323607,"1/2, Mayur Apartment, Katargam, Hari Krishna Society, Katargram, Surat",Surat,395004,India,Monday-Sunday 8am - 9pm,Cash,INR (Indian Rupees),https://www.medicineindia.org/pharmacy-chemist-drugstore-details/53398/drashti-medical-general-store
99,Pharmacy,Durga Medical Store,(0261) 2233420,"U 1 Bhagvati Darshan Complex, Bhatar Road, Surat Ho, Surat",Surat,395003,India,Monday-Sunday 8am - 9pm,Cash,INR (Indian Rupees),https://www.medicineindia.org/pharmacy-chemist-drugstore-details/53344/durga-medical-store
100,Pharmacy,Durlabh Medical Store,(0261) 2457756,"415, National Plaza, Nr. Ayurvedic College, Opp: Railway Station, Station Road, Surat",Surat,395003,India,Monday-Sunday 8am - 9pm,Cash,INR (Indian Rupees),https://www.medicineindia.org/pharmacy-chemist-drugstore-details/53360/durlabh-medical-store
101,Pharmacy,Dwarkesh Medical Agency,,"13, Swagat Complex, First Floor, Varachha Road, Kubernagar, Varachha Road, Surat",Surat,395006,India,Monday-Sunday 8am - 9pm,Cash,INR (Indian Rupees),https://www.medicineindia.org/pharmacy-chemist-drugstore-details/53295/dwarkesh-medical-agency
102,Pharmacy,Eagle Medical & Provisional Store,(0261) 2343097,"Gali No. 2, Shop No. 12, Limbayat, Raja Chowk, Mithi Khadi, Udhna, Surat",Surat,394210,India,Monday-Sunday 8am - 9pm,Cash,INR (Indian Rupees),https://www.medicineindia.org/pharmacy-chemist-drugstore-details/53387/eagle-medical-provisional-store
103,Pharmacy,Fm Body Chemisty,9898019007,"A-01,Machhi Market, Bardoli Pitha, Salabatpura, Salabatpura, Surat",Surat,395003,India,Monday-Sunday 8am - 9pm,Cash,INR (Indian Rupees),https://www.medicineindia.org/pharmacy-chemist-drugstore-details/53465/fm-body-chemisty
104,Pharmacy,Gageshwar Medical Store,(0261) 2731095,"Adajan Road, Adajan Dn, Surat",Surat,395009,India,Monday-Sunday 8am - 9pm,Cash,INR (Indian Rupees),https://www.medicineindia.org/pharmacy-chemist-drugstore-details/53474/gageshwar-medical-store
105,Pharmacy,Gandhi Medical Store,(0261) 2428073,"10/330 A Dungar Kuwa Sheri, Limda Chawk, Surat Ho, Surat",Surat,395003,India,Monday-Sunday 8am - 9pm,Cash,INR (Indian Rupees),https://www.medicineindia.org/pharmacy-chemist-drugstore-details/53156/gandhi-medical-store
106,Pharmacy,Gayatri Medical Store,(0261) 2558841,"92 Kamal Park Society, Near Ishwarkrupa, Varachha Road, Surat",Surat,395006,India,Monday-Sunday 8am - 9pm,Cash,INR (Indian Rupees),https://www.medicineindia.org/pharmacy-chemist-drugstore-details/53293/gayatri-medical-store
107,Pharmacy,General Medical Stores,9427812196,"A-01,Sufi Baug, Opp Mohan Mithai, Station Road, Station Road, Surat",Surat,395003,India,Monday-Sunday 8am - 9pm,Cash,INR (Indian Rupees),https://www.medicineindia.org/pharmacy-chemist-drugstore-details/53365/general-medical-stores
108,Pharmacy,Girish Medico Pvt Ltd,(0261) 2463146,"S-9, G Tower, Shankheshwar Complex, Opposite Raymond Showroom, Majura Gate, Surat",Surat,395002,India,Monday-Sunday 8am - 9pm,Cash,INR (Indian Rupees),https://www.medicineindia.org/pharmacy-chemist-drugstore-details/53143/girish-medico-pvt-ltd
109,Pharmacy,Gopal Medical Store,(0261) 2331027,"1 Prabhunagar 1 Ni Wadi, Opposite Hariom Society Katargam, Katargram, Surat",Surat,395004,India,Monday-Sunday 8am - 9pm,Cash,INR (Indian Rupees),https://www.medicineindia.org/pharmacy-chemist-drugstore-details/53388/gopal-medical-store
110,Pharmacy,Green Cross Medical,(0261) 2732272,"Shop No 4, Green Avenue Apartment, Near Tgb Restaurant, L P Shavani Road, Adajan Road, Surat",Surat,395009,India,Monday-Sunday 8am - 9pm,Cash,INR (Indian Rupees),https://www.medicineindia.org/pharmacy-chemist-drugstore-details/53494/green-cross-medical
111,Pharmacy,Gulmohar Medical & Provision Store,(0261) 2452880,"A-03, Nr Nira Kendra, Kotsafil Road, Surat Ho, Surat",Surat,395003,India,Monday-Sunday 8am - 9pm,Cash,INR (Indian Rupees),https://www.medicineindia.org/pharmacy-chemist-drugstore-details/53407/gulmohar-medical-provision-store
112,Pharmacy,Gurukrupa Medical Store,(0261) 2681616,"Nr 5 7 Adajan, Adajan Road, Surat",Surat,395009,India,Monday-Sunday 8am - 9pm,Cash,INR (Indian Rupees),https://www.medicineindia.org/pharmacy-chemist-drugstore-details/53481/gurukrupa-medical-store
113,Pharmacy,Gurupooja Medical Store,9974835391,"Shop No 2, Vibhag A, Ground Floor, Harekrishna Appartment, Surat, Surat",Surat,395001,India,Monday-Sunday 8am - 9pm,Cash,INR (Indian Rupees),https://www.medicineindia.org/pharmacy-chemist-drugstore-details/53289/gurupooja-medical-store
114,Pharmacy,H M Chemist,(0261) 2668408,"14 Mission Shopping Centre, Opp Athwa Petrol Pump, Athwa, Surat",Surat,395007,India,Monday-Sunday 8am - 9pm,Cash,INR (Indian Rupees),https://www.medicineindia.org/pharmacy-chemist-drugstore-details/53429/h-m-chemist
115,Pharmacy,Harihar Medical Store,(0261) 2414841,"4/4129, Chowki Sheri, Begumpura, Main Road, Begumpura, Surat",Surat,395003,India,Monday-Sunday 8am - 9pm,Cash,INR (Indian Rupees),https://www.medicineindia.org/pharmacy-chemist-drugstore-details/53358/harihar-medical-store
116,Pharmacy,Harihar Medical Store,(0261) 3291723,"Ghoddod Road, SURAT",Surat,395007,India,Monday-Sunday 8am - 9pm,Cash,INR (Indian Rupees),https://www.medicineindia.org/pharmacy-chemist-drugstore-details/53447/harihar-medical-store
117,Pharmacy,Harikripa Medical Store,9879157588,"7/4669-70, Near Prakash Talkes, Station Road, Surat Ho, Surat",Surat,395003,India,Monday-Sunday 8am - 9pm,Cash,INR (Indian Rupees),https://www.medicineindia.org/pharmacy-chemist-drugstore-details/53352/harikripa-medical-store
118,Pharmacy,Harsh Medical & Provision Store,9898436936,"Shop No 5 Ug Shital Complex,Opp, Vegetable Market, Surat Ho, Surat",Surat,395003,India,Monday-Sunday 8am - 9pm,Cash,INR (Indian Rupees),https://www.medicineindia.org/pharmacy-chemist-drugstore-details/53334/harsh-medical-provision-store
119,Pharmacy,Harsh Medical & Provision Stores,(0261) 2267282,"Shop No. A-2, Dhanpal App., Althan Tenament, Bhatar Road, Bhatar Road, Surat",Surat,395007,India,Monday-Sunday 8am - 9pm,Cash,INR (Indian Rupees),https://www.medicineindia.org/pharmacy-chemist-drugstore-details/53440/harsh-medical-provision-stores
120,Pharmacy,Harsh Medical Store,9377853330,"G 2 Shakuntal Complex, Nr Sanghvi Tower, Main Road, Adajan Dn, Surat",Surat,395009,India,Monday-Sunday 8am - 9pm,Cash,INR (Indian Rupees),https://www.medicineindia.org/pharmacy-chemist-drugstore-details/53504/harsh-medical-store
121,Pharmacy,Hem Jyot Laboratory,(0261) 2677539,"1st Floor A P Market, Main Road, Udhna, Surat",Surat,394210,India,Monday-Sunday 8am - 9pm,Cash,INR (Indian Rupees),https://www.medicineindia.org/pharmacy-chemist-drugstore-details/53370/hem-jyot-laboratory
122,Pharmacy,Hetal Medical,9824151118,"Shop No. 4, Samarpan Apartment, Opp. Rang Avdhut Soc., L.h.road, Varachha Road, Surat",Surat,395006,India,Monday-Sunday 8am - 9pm,Cash,INR (Indian Rupees),https://www.medicineindia.org/pharmacy-chemist-drugstore-details/53304/hetal-medical
123,Pharmacy,Hir Yug Medical Store,(0261) 3231206,"Shop No. 7, Sahara Daravaja, Nr. Sahara Daravaja Police Station, Ring Road, Ring Road, Surat",Surat,395002,India,Monday-Sunday 8am - 9pm,Cash,INR (Indian Rupees),https://www.medicineindia.org/pharmacy-chemist-drugstore-details/53320/hir-yug-medical-store
124,Pharmacy,Hiralal Chemist,(0261) 2439513,"A-01, Opp Surat General Hospital, Balaji Road, Surat Ho, Surat",Surat,395003,India,Monday-Sunday 8am - 9pm,Cash,INR (Indian Rupees),https://www.medicineindia.org/pharmacy-chemist-drugstore-details/53413/hiralal-chemist
125,Pharmacy,Hiralal Medical Store,(0261) 2403091,"9/2009, Baranpuri Bhagal, Main Road, Surat Ho, Surat",Surat,395003,India,Monday-Sunday 8am - 9pm,Cash,INR (Indian Rupees),https://www.medicineindia.org/pharmacy-chemist-drugstore-details/53408/hiralal-medical-store
126,Pharmacy,Hiralal Medical Store,(0261) 2413091,"Bhagal, Surat",Surat,395003,India,Monday-Sunday 8am - 9pm,Cash,INR (Indian Rupees),https://www.medicineindia.org/pharmacy-chemist-drugstore-details/53425/hiralal-medical-store
127,Pharmacy,Honest Medical,9998076795,"Akabari Mension, Opposite Siddique Square, Adajan Patia, New Rander Road, Adajan Dn, Surat",Surat,395009,India,Monday-Sunday 8am - 9pm,Cash,INR (Indian Rupees),https://www.medicineindia.org/pharmacy-chemist-drugstore-details/53507/honest-medical
128,Pharmacy,Honest Medical & General Stores,9898452626,"Opp. Police Station, Sardar Chowk, Bardoli, Surat",Surat,394601,India,Monday-Sunday 8am - 9pm,Cash,INR (Indian Rupees),https://www.medicineindia.org/pharmacy-chemist-drugstore-details/53226/honest-medical-general-stores
129,Pharmacy,Honest Medical Store,(0261) 2765479,"Opposite Rander Peoples Bank, Umad Street, Rander, Surat",Surat,395005,India,Monday-Sunday 8am - 9pm,Cash,INR (Indian Rupees),https://www.medicineindia.org/pharmacy-chemist-drugstore-details/53238/honest-medical-store
130,Pharmacy,Honey Medical & General Store,9879066801,"Near Kapadiya Heath Club, New Civil Road, Bhatar Road, Surat",Surat,395007,India,Monday-Sunday 8am - 9pm,Cash,INR (Indian Rupees),https://www.medicineindia.org/pharmacy-chemist-drugstore-details/53451/honey-medical-general-store
131,Pharmacy,Icchanath Medical Store,(0261) 2256622,"12 Shivshankar Apartment, Surat Ho, Surat",Surat,395003,India,Monday-Sunday 8am - 9pm,Cash,INR (Indian Rupees),https://www.medicineindia.org/pharmacy-chemist-drugstore-details/53349/icchanath-medical-store
132,Pharmacy,Ilaj Medical Store,(0261) 2255416,"L 9 Meghmayur Plaza, Parle Point, Surat",Surat,395007,India,Monday-Sunday 8am - 9pm,Cash,INR (Indian Rupees),https://www.medicineindia.org/pharmacy-chemist-drugstore-details/53193/ilaj-medical-store
133,Pharmacy,JAY Ambe Chemist,(0261) 2258845,"Shopno 2 Prasham Building, Below H 3 Hospital, City Light Road, Citylight Road, Surat",Surat,395007,India,Monday-Sunday 8am - 9pm,Cash,INR (Indian Rupees),https://www.medicineindia.org/pharmacy-chemist-drugstore-details/53490/jay-ambe-chemist
134,Pharmacy,JAY Ambe Medical Store,(0261) 2737706,"Shop 13/14, Shantiniketan Shoppctr Adj, Surat Ho, Surat",Surat,395003,India,Monday-Sunday 8am - 9pm,Cash,INR (Indian Rupees),https://www.medicineindia.org/pharmacy-chemist-drugstore-details/53417/jay-ambe-medical-store
135,Pharmacy,JAY Ambe Medical Store,(0261) 2743360,"13/14, Shanti Niketan Shopping C, Opposite Sagar Complex Anand Mahal Road Adajan Road, Adajan Road, Surat",Surat,395009,India,Monday-Sunday 8am - 9pm,Cash,INR (Indian Rupees),https://www.medicineindia.org/pharmacy-chemist-drugstore-details/53482/jay-ambe-medical-store
136,Pharmacy,JAY Jalaram Medical & Genl Store,(0261) 2851317,"367/A, Sitaram Nagar, Near Puna Jakat Naka Tal Choryasi, Surat Ho, Surat",Surat,395003,India,Monday-Sunday 8am - 9pm,Cash,INR (Indian Rupees),https://www.medicineindia.org/pharmacy-chemist-drugstore-details/53351/jay-jalaram-medical-genl-store
137,Pharmacy,JAY Khodiyar Medical Store,9829911222,"Rachna Society, Kapodra,Punagam Bombay Market Road, Punagam, Surat",Surat,394210,India,Monday-Sunday 8am - 9pm,Cash,INR (Indian Rupees),https://www.medicineindia.org/pharmacy-chemist-drugstore-details/53376/jay-khodiyar-medical-store
138,Pharmacy,JAY Medical Store,(0261) 2568239,"G-20 Sargam Complex Varachha, Varachha Road, Surat",Surat,395006,India,Monday-Sunday 8am - 9pm,Cash,INR (Indian Rupees),https://www.medicineindia.org/pharmacy-chemist-drugstore-details/53274/jay-medical-store
139,Pharmacy,Jai Ambe Medico,(0261) 2539372,"Shop No 4, Dhanwantari Complex, Opposite Varachha Garnala, Sumul Dairy Road, Surat",Surat,395008,India,Monday-Sunday 8am - 9pm,Cash,INR (Indian Rupees),https://www.medicineindia.org/pharmacy-chemist-drugstore-details/53242/jai-ambe-medico
140,Pharmacy,Jain Medical,(0261) 3223873,"Shop No.2, Rameshwaram Complex, Near Agresen Bhavan, Citylight Road, Citylight Road, SURAT",Surat,395007,India,Monday-Sunday 8am - 9pm,Cash,INR (Indian Rupees),https://www.medicineindia.org/pharmacy-chemist-drugstore-details/53194/jain-medical
141,Pharmacy,Jaliyan Medical & Provision Stores,9924416012,"14, Classic Point, Behind Sneh Sankool Wadi, Anand Mahal Road, Anand Mahal Road, Surat",Surat,395009,India,Monday-Sunday 8am - 9pm,Cash,INR (Indian Rupees),https://www.medicineindia.org/pharmacy-chemist-drugstore-details/53470/jaliyan-medical-provision-stores
142,Pharmacy,Janta Medical & General Store,,"No.4 Panch Ratana Apt ., Vishal Nagar Soc, Opp. C-6 Tenament, Tenament Bhatar, Bhatar Road, Surat",Surat,395007,India,Monday-Sunday 8am - 9pm,Cash,INR (Indian Rupees),https://www.medicineindia.org/pharmacy-chemist-drugstore-details/53220/janta-medical-general-store
143,Pharmacy,Janta Medical Store,(0261) 2269702,"Near Shiv Complex Bhatar Altan Road, Althan, Surat",Surat,395017,India,Monday-Sunday 8am - 9pm,Cash,INR (Indian Rupees),https://www.medicineindia.org/pharmacy-chemist-drugstore-details/53196/janta-medical-store
144,Pharmacy,Janta Medical Store,(0261) 2938796,"Upvan Row House No 2, Near Sahaj Super, Adajan, Surat",Surat,395009,India,Monday-Sunday 8am - 9pm,Cash,INR (Indian Rupees),https://www.medicineindia.org/pharmacy-chemist-drugstore-details/53472/janta-medical-store
145,Pharmacy,Jasal Medical Store,(02626) 222359,"Near Lakshmi General Store, 65 Geb Colony, Ukai Dam, Surat",Surat,394680,India,Monday-Sunday 8am - 9pm,Cash,INR (Indian Rupees),https://www.medicineindia.org/pharmacy-chemist-drugstore-details/53515/jasal-medical-store
146,Pharmacy,Jaydeep Medical Stores,9428396449,"B/77 Ram Krishna Scty, L H Road, Surat Ho, Surat",Surat,395003,India,Monday-Sunday 8am - 9pm,Cash,INR (Indian Rupees),https://www.medicineindia.org/pharmacy-chemist-drugstore-details/53290/jaydeep-medical-stores
147,Pharmacy,Jayu Medical & Provision Store,(0261) 2346513,"2/1340-41, Hanuman Street, Opposite Sub Jail, Sagrampura, Surat",Surat,395002,India,Monday-Sunday 8am - 9pm,Cash,INR (Indian Rupees),https://www.medicineindia.org/pharmacy-chemist-drugstore-details/53319/jayu-medical-provision-store
148,Pharmacy,Jinendra Medicos,8469316768,"Shop No.C-13, Aagam Shopping World, Near Nandini Appartments, Vesu, Surat",Surat,395007,India,Monday-Sunday 8am - 9pm,Cash,INR (Indian Rupees),https://www.medicineindia.org/pharmacy-chemist-drugstore-details/53452/jinendra-medicos
149,Pharmacy,Kabir Medical & Provision Store,9374518334,"Shop No 119, Bamroli General Hospital, New Haridham Society, Bamroli 120 Feet Road, Pandesara, Surat",Surat,394221,India,Monday-Sunday 8am - 9pm,Cash,INR (Indian Rupees),https://www.medicineindia.org/pharmacy-chemist-drugstore-details/53271/kabir-medical-provision-store
150,Pharmacy,Kailash Medical & Provision Stores,(0261) 2738217,"15,Green Plaza, Opp.lp Savani School, Adajan Road, Adajan Road, Surat",Surat,395009,India,Monday-Sunday 8am - 9pm,Cash,INR (Indian Rupees),https://www.medicineindia.org/pharmacy-chemist-drugstore-details/53495/kailash-medical-provision-stores
151,Pharmacy,Kalp Medicals,(02629) 2851951,"Kalp Medicals, Bhayanagar, Pungam Road, Punagam, Surat",Surat,394210,India,Monday-Sunday 8am - 9pm,Cash,INR (Indian Rupees),https://www.medicineindia.org/pharmacy-chemist-drugstore-details/53371/kalp-medicals
152,Pharmacy,Kantilal & Bros,(0261) 2426162,"12/269, Patva Sheri, Limda Chowk, Main Road, Surat Ho, Surat",Surat,395003,India,Monday-Sunday 8am - 9pm,Cash,INR (Indian Rupees),https://www.medicineindia.org/pharmacy-chemist-drugstore-details/53412/kantilal-bros
153,Pharmacy,Kare Medicines,2612462905,"L 20 centre point complex, Nr. Nirmal hospital, Civil 4 rasta",Surat,395002,India,Monday-Sunday 8am - 9pm,Cash,INR (Indian Rupees),https://www.medicineindia.org/pharmacy-chemist-drugstore-details/82526/kare-medicines
154,Pharmacy,Khodal Kripa Medical Store,(0261) 2561436,"248, Surya Kiran Apartment, Nilkanth Society, Choriyasi Udhana Magdalla Road, Magdalla, Surat",Surat,395007,India,Monday-Sunday 8am - 9pm,Cash,INR (Indian Rupees),https://www.medicineindia.org/pharmacy-chemist-drugstore-details/53434/khodal-kripa-medical-store
155,Pharmacy,Khodiyar Krupa Medical,9925946237,"1, Ground Floor, Below I C Gandhi School, Gandhi Shopping Center, Sumul Dairy Road, Surat",Surat,395008,India,Monday-Sunday 8am - 9pm,Cash,INR (Indian Rupees),https://www.medicineindia.org/pharmacy-chemist-drugstore-details/53424/khodiyar-krupa-medical
156,Pharmacy,Khodiyar Medical Store,(0261) 2560534,"15 Chandrakiran Apartment A.k. Road, A K Road, Surat",Surat,395008,India,Monday-Sunday 8am - 9pm,Cash,INR (Indian Rupees),https://www.medicineindia.org/pharmacy-chemist-drugstore-details/53177/khodiyar-medical-store
157,Pharmacy,Khushboo Medical Stores,9879863897,"4, 1st Floor, Yash Shopping Centre, Surat Ho, Surat",Surat,395003,India,Monday-Sunday 8am - 9pm,Cash,INR (Indian Rupees),https://www.medicineindia.org/pharmacy-chemist-drugstore-details/53422/khushboo-medical-stores
158,Pharmacy,Kirty Medical & General Store,9662228195,"11,Devendra Nagar, Pandesara, Bamroli Road, Pandesara, SURAT",Surat,394221,India,Monday-Sunday 8am - 9pm,Cash,INR (Indian Rupees),https://www.medicineindia.org/pharmacy-chemist-drugstore-details/53326/kirty-medical-general-store
159,Pharmacy,Kishan Medical Store,(0261) 2791107,"Parshvanagar Co-Op Society, Surat Ho, Surat",Surat,395003,India,Monday-Sunday 8am - 9pm,Cash,INR (Indian Rupees),https://www.medicineindia.org/pharmacy-chemist-drugstore-details/53420/kishan-medical-store
160,Pharmacy,Kothari Medical Agencies,(0261) 2791106,"Shop No. D-1, Managaldeep Appartment, Palanpur Jakat Naka, L P Savani Road, Palanpur Jakat Naka, Surat",Surat,395009,India,Monday-Sunday 8am - 9pm,Cash,INR (Indian Rupees),https://www.medicineindia.org/pharmacy-chemist-drugstore-details/53502/kothari-medical-agencies
161,Pharmacy,Krishna Medical & Genral Store,9099731179,"Shop No. 1, A-1 Building, Rudraksha Avenue, Nr. Nova Restaurant, Puna Kumbhariya Road, Puna Kumbhariya Road, Surat",Surat,395001,India,Monday-Sunday 8am - 9pm,Cash,INR (Indian Rupees),https://www.medicineindia.org/pharmacy-chemist-drugstore-details/53205/krishna-medical-genral-store
162,Pharmacy,Krishna Medical Store,9825258140,"Shop No.3, Patidar Jin Complex, Opp.sardar Hospital, Station Road, Bardoli, Surat",Surat,394601,India,Monday-Sunday 8am - 9pm,Cash,INR (Indian Rupees),https://www.medicineindia.org/pharmacy-chemist-drugstore-details/53160/krishna-medical-store
163,Pharmacy,Krishna Medical Store,(0261) 6954193,"Ramkuti Shivaji Road, Surat HO, SURAT",Surat,395003,India,Monday-Sunday 8am - 9pm,Cash,INR (Indian Rupees),https://www.medicineindia.org/pharmacy-chemist-drugstore-details/53426/krishna-medical-store
164,Pharmacy,Krishna Medical Stores,9998759754,"5 ,Nagnath Shopping, Sachin, Station Road, Sachin, Surat",Surat,394230,India,Monday-Sunday 8am - 9pm,Cash,INR (Indian Rupees),https://www.medicineindia.org/pharmacy-chemist-drugstore-details/53249/krishna-medical-stores
165,Pharmacy,Krupa Medical Store,9825946752,"A 4, Ishwar Nagar Society, Singanpore Cross Road, Ved Road, Surat",Surat,395004,India,Monday-Sunday 8am - 9pm,Cash,INR (Indian Rupees),https://www.medicineindia.org/pharmacy-chemist-drugstore-details/53171/krupa-medical-store
166,Pharmacy,Laxmi Medical Store,(0261) 2692740,"G 2 Saifee Complex, Udhna, Surat",Surat,394210,India,Monday-Sunday 8am - 9pm,Cash,INR (Indian Rupees),https://www.medicineindia.org/pharmacy-chemist-drugstore-details/53368/laxmi-medical-store
167,Pharmacy,Laxmi Medical Stores,(0261) 274648,"A-01,Thakorji Complex, Main Road, Opp Hotel Rashraj, Opp Hotel Rashraj, Main Road, Kadodara, Surat",Surat,394327,India,Monday-Sunday 8am - 9pm,Cash,INR (Indian Rupees),https://www.medicineindia.org/pharmacy-chemist-drugstore-details/53239/laxmi-medical-stores
168,Pharmacy,Lokseva medical & General stores ,9099856450,House num 205 zaveri street valod dist tapi 394640,Surat,394640,India,Monday-Sunday 8am - 9pm,Cash,INR (Indian Rupees),https://www.medicineindia.org/pharmacy-chemist-drugstore-details/82543/lokseva-medical-general-stores
169,Pharmacy,MAA Tarini Medical Store,9426444559,"Nr Chokasi Mill, Magdalla Road,Udhna, Udhna, Surat",Surat,394210,India,Monday-Sunday 8am - 9pm,Cash,INR (Indian Rupees),https://www.medicineindia.org/pharmacy-chemist-drugstore-details/53377/maa-tarini-medical-store
170,Pharmacy,Madhubhai Kikani Medical Store,(0261) 2547186,"38, Shop No 3, Kailash Dham Society, P P Savani Road A.k. Road, A K Road, Surat",Surat,395008,India,Monday-Sunday 8am - 9pm,Cash,INR (Indian Rupees),https://www.medicineindia.org/pharmacy-chemist-drugstore-details/53240/madhubhai-kikani-medical-store
171,Pharmacy,Madhuram Medical Stores,9824110495,"A-01,Dharam Shopping Centre, Near Dharam Cinema, Char Rasta, Kamrej, Surat",Surat,394180,India,Monday-Sunday 8am - 9pm,Cash,INR (Indian Rupees),https://www.medicineindia.org/pharmacy-chemist-drugstore-details/53244/madhuram-medical-stores
172,Pharmacy,Mahadev Medical Stores,(0261) 2693424,"1st Floor A P Market, Udhna, Surat",Surat,394210,India,Monday-Sunday 8am - 9pm,Cash,INR (Indian Rupees),https://www.medicineindia.org/pharmacy-chemist-drugstore-details/53369/mahadev-medical-stores
173,Pharmacy,Mahavir Medicals,(0261) 2796422,"2 Kalpana Shopping Centre, Adajan, Main Road, Adajan Dn, Surat",Surat,395009,India,Monday-Sunday 8am - 9pm,Cash,INR (Indian Rupees),https://www.medicineindia.org/pharmacy-chemist-drugstore-details/53506/mahavir-medicals
174,Pharmacy,Mahavir Medicine,9374739338,"Galemandi Delhi Gate, Main Road, Delhi Gate, Surat",Surat,395003,India,Monday-Sunday 8am - 9pm,Cash,INR (Indian Rupees),https://www.medicineindia.org/pharmacy-chemist-drugstore-details/53206/mahavir-medicine
175,Pharmacy,Maheshwari Medical,(0261) 2541831,"Maheshwari Society, Varachha Road, Surat",Surat,395006,India,Monday-Sunday 8am - 9pm,Cash,INR (Indian Rupees),https://www.medicineindia.org/pharmacy-chemist-drugstore-details/53140/maheshwari-medical
176,Pharmacy,Maheshwari Medical Stores,(0261) 2677883,"1 Madhav Market, Udhna Railway Station, Road No 0, Surat Ho, Surat",Surat,395003,India,Monday-Sunday 8am - 9pm,Cash,INR (Indian Rupees),https://www.medicineindia.org/pharmacy-chemist-drugstore-details/53209/maheshwari-medical-stores
177,Pharmacy,Malavia Medicals,(0261) 2541761,"4 Vaibhav Chambers, Near Sadhana School, Varachha Road, Surat",Surat,395006,India,Monday-Sunday 8am - 9pm,Cash,INR (Indian Rupees),https://www.medicineindia.org/pharmacy-chemist-drugstore-details/53292/malavia-medicals
178,Pharmacy,Man Meet Medicines,9925392422,"Plot A-1 Gayatri Parivar Society Part 2, Behind Anath Ashram, Chikuwadi Road, Katargram, Surat",Surat,395004,India,Monday-Sunday 8am - 9pm,Cash,INR (Indian Rupees),https://www.medicineindia.org/pharmacy-chemist-drugstore-details/53401/man-meet-medicines
179,Pharmacy,Mansa Medico,9879026267,"KIM Char Rasta, Surat",Surat,394111,India,Monday-Sunday 8am - 9pm,Cash,INR (Indian Rupees),https://www.medicineindia.org/pharmacy-chemist-drugstore-details/53405/mansa-medico
180,Pharmacy,Mansarover Medical & General Store,9725188900,"Adajan Dn, Surat",Surat,395009,India,Monday-Sunday 8am - 9pm,Cash,INR (Indian Rupees),https://www.medicineindia.org/pharmacy-chemist-drugstore-details/53477/mansarover-medical-general-store
181,Pharmacy,Maruti Medical,(0261) 2541522,"5 Maheshwari Shopping Centre, Varachha Road, Surat",Surat,395006,India,Monday-Sunday 8am - 9pm,Cash,INR (Indian Rupees),https://www.medicineindia.org/pharmacy-chemist-drugstore-details/53182/maruti-medical
182,Pharmacy,Matoshree Godavarilal G Zakariya Medical...,(0261) 2562277,"Rudraksh,Hirabagh, Varachha Road, Varachha Road, Surat",Surat,395006,India,Monday-Sunday 8am - 9pm,Cash,INR (Indian Rupees),https://www.medicineindia.org/pharmacy-chemist-drugstore-details/53296/matoshree-godavarilal-g-zakariya-medical
183,Pharmacy,Matru Ashish Medical Stores,(0261) 2223124,"Shop No 2 Shalibhadra Apartments, Parle Point, Surat",Surat,395007,India,Monday-Sunday 8am - 9pm,Cash,INR (Indian Rupees),https://www.medicineindia.org/pharmacy-chemist-drugstore-details/53159/matru-ashish-medical-stores
184,Pharmacy,Mdhuvan Medical & General Stores,9904177541,"Shop No. 184/185, JAY Banjarang Complex, Nr. Hira Baug, Varachha Road, Varachha Road, Surat",Surat,395006,India,Monday-Sunday 8am - 9pm,Cash,INR (Indian Rupees),https://www.medicineindia.org/pharmacy-chemist-drugstore-details/53299/mdhuvan-medical-general-stores
185,Pharmacy,Medi Point,(0261) 3210872,"L18, Sajni Cplx, Op Surya Cplx, Citilight Rd, Surat Ho, Surat",Surat,395003,India,Monday-Sunday 8am - 9pm,Cash,INR (Indian Rupees),https://www.medicineindia.org/pharmacy-chemist-drugstore-details/53154/medi-point
186,Pharmacy,Medi Point,(0261) 2210872,"City Light Shopping Center, Nr. Citylight Restaurant, Opp. Surya Complex, Citylight Road, Surat",Surat,395007,India,Monday-Sunday 8am - 9pm,Cash,INR (Indian Rupees),https://www.medicineindia.org/pharmacy-chemist-drugstore-details/53166/medi-point
187,Pharmacy,Meetr Medical General Store,9979135898,"Shop No. 18, Bholanath Complex, Sarathana Jakat Naka, New Nirmal Nagar Road, Varachha Road, Surat",Surat,395006,India,Monday-Sunday 8am - 9pm,Cash,INR (Indian Rupees),https://www.medicineindia.org/pharmacy-chemist-drugstore-details/53306/meetr-medical-general-store
188,Pharmacy,Mega Medical & Provision Store,9925757070,"2, Riddhi Residency, Near Jalaram Mandir, L P Sawani Road, Adajan Road, SURAT",Surat,395009,India,Monday-Sunday 8am - 9pm,Cash,INR (Indian Rupees),https://www.medicineindia.org/pharmacy-chemist-drugstore-details/53483/mega-medical-provision-store
189,Pharmacy,Meghvi Medical Store,9913894954,"Westen City, L.p. Savani Road, Adajan Dn, Surat",Surat,395009,India,Monday-Sunday 8am - 9pm,Cash,INR (Indian Rupees),https://www.medicineindia.org/pharmacy-chemist-drugstore-details/53475/meghvi-medical-store
190,Pharmacy,Modi Medical Store,(02626) 233282,"Near Hotel Kells, 77 Geb Colony, Ukai Dam, Surat",Surat,394680,India,Monday-Sunday 8am - 9pm,Cash,INR (Indian Rupees),https://www.medicineindia.org/pharmacy-chemist-drugstore-details/53514/modi-medical-store
191,Pharmacy,Moham Medical Store,(0261) 2691416,"G 4 Saifee Complex, Opp B R C, Udhana Main Road, Surat Ho, Surat",Surat,395003,India,Monday-Sunday 8am - 9pm,Cash,INR (Indian Rupees),https://www.medicineindia.org/pharmacy-chemist-drugstore-details/53340/moham-medical-store
192,Pharmacy,Mohit Medical Store,(0261) 2442509,"6/1030, Near Station Road, Galamandi Bazaar, Surat Ho, Surat",Surat,395003,India,Monday-Sunday 8am - 9pm,Cash,INR (Indian Rupees),https://www.medicineindia.org/pharmacy-chemist-drugstore-details/53343/mohit-medical-store
193,Pharmacy,Montu Medical Store,9909240799,"Shop No. 3, Laxmi Kunj Apartment, Pal Road, Palanpur Jakat Naka, Surat",Surat,395009,India,Monday-Sunday 8am - 9pm,Cash,INR (Indian Rupees),https://www.medicineindia.org/pharmacy-chemist-drugstore-details/53500/montu-medical-store
194,Pharmacy,Muskan Medical Store,(0261) 2253609,"4th Floor, Siddhi Shopping Center, Above ICICI Bank, Citylight Road, Surat",Surat,395007,India,Monday-Sunday 8am - 9pm,Cash,INR (Indian Rupees),https://www.medicineindia.org/pharmacy-chemist-drugstore-details/53431/muskan-medical-store
195,Pharmacy,Nagnath Medical & General Store,9913895467,"Shgop No. 8, Satyam Shivam Sundaram Complex, Opp. Rajhans Tower, Mota Varachha Road, Mota Varachha, Surat",Surat,394101,India,Monday-Sunday 8am - 9pm,Cash,INR (Indian Rupees),https://www.medicineindia.org/pharmacy-chemist-drugstore-details/53265/nagnath-medical-general-store
196,Pharmacy,Narendra Medical Store,(0261) 2427236,"Dhudhara Sheri, Opp Tar Office, Main Road, Surat Ho, Surat",Surat,395003,India,Monday-Sunday 8am - 9pm,Cash,INR (Indian Rupees),https://www.medicineindia.org/pharmacy-chemist-drugstore-details/53335/narendra-medical-store
197,Pharmacy,Navin Medical,9825399760,"Plot No 29/30, Moriya Nagar, Udhna, Dindoli Road, Udhna, Surat",Surat,394210,India,Monday-Sunday 8am - 9pm,Cash,INR (Indian Rupees),https://www.medicineindia.org/pharmacy-chemist-drugstore-details/53259/navin-medical
198,Pharmacy,Navjivan Medical &Amp; Provision St...,9979151036,"Honey Park Road,Nr Lp Savani Road, Surat",Surat,395009,India,Monday-Sunday 8am - 9pm,Cash,INR (Indian Rupees),https://www.medicineindia.org/pharmacy-chemist-drugstore-details/53224/navjivan-medical-amp-provision-st
199,Pharmacy,Navkar Chemist,(0261) 2895052,"Plot No.93 - 94, Daksheshwar Apartment, Near Nova Complex, Gujarat Housing Board Road, Pandesara, Surat",Surat,394221,India,Monday-Sunday 8am - 9pm,Cash,INR (Indian Rupees),https://www.medicineindia.org/pharmacy-chemist-drugstore-details/53323/navkar-chemist
200,Pharmacy,Navkar Medical Store,9825336806,"X-2,Upper Ground,Shankheshwar Complex, Opp Raymond Shwo Room, Kailash Nagar, Surat, Surat",Surat,395001,India,Monday-Sunday 8am - 9pm,Cash,INR (Indian Rupees),https://www.medicineindia.org/pharmacy-chemist-drugstore-details/53288/navkar-medical-store
201,Pharmacy,Neelam Medical & General Store,9909092647,"Plot No 20, Limbayat, Nani Naher,Subhash Nagar, Limbayat, Surat",Surat,394210,India,Monday-Sunday 8am - 9pm,Cash,INR (Indian Rupees),https://www.medicineindia.org/pharmacy-chemist-drugstore-details/53212/neelam-medical-general-store
202,Pharmacy,Neeta Medical Stores,(0261) 2348928,"Opposite Maharaja Cinema, Salabatpura, Surat",Surat,395003,India,Monday-Sunday 8am - 9pm,Cash,INR (Indian Rupees),https://www.medicineindia.org/pharmacy-chemist-drugstore-details/53466/neeta-medical-stores
203,Pharmacy,Neville Medicine,(0261) 2421249,"Opp Daruwala Petrol Pump, 2 Station Road, Surat Ho, Surat",Surat,395003,India,Monday-Sunday 8am - 9pm,Cash,INR (Indian Rupees),https://www.medicineindia.org/pharmacy-chemist-drugstore-details/53341/neville-medicine
204,Pharmacy,Nikunj Medical & Surgical Store,(0261) 2792400,"U6, Mahan Terrace, Opposite Bhulka Bhavan, Adajan Road, Surat",Surat,395009,India,Monday-Sunday 8am - 9pm,Cash,INR (Indian Rupees),https://www.medicineindia.org/pharmacy-chemist-drugstore-details/53176/nikunj-medical-surgical-store
205,Pharmacy,Nikunj Medical Stores,(0261) 2791527,"U 6, Mahan Terrace, Opp Bhulka Bhavan, Adajan, Main Road, Adajan Dn, Surat",Surat,395009,India,Monday-Sunday 8am - 9pm,Cash,INR (Indian Rupees),https://www.medicineindia.org/pharmacy-chemist-drugstore-details/53505/nikunj-medical-stores
206,Pharmacy,Nilkanth Agency,(0261) 2546764,"B-19, Surya Nagar Society, Opposite Dharamnagar, A K Road, Surat",Surat,395008,India,Monday-Sunday 8am - 9pm,Cash,INR (Indian Rupees),https://www.medicineindia.org/pharmacy-chemist-drugstore-details/53243/nilkanth-agency
207,Pharmacy,Nirali Chemist,9904180438,"546/547 Karmayogi C 2, Pandesara, Main Road, Pandesara, Surat",Surat,394221,India,Monday-Sunday 8am - 9pm,Cash,INR (Indian Rupees),https://www.medicineindia.org/pharmacy-chemist-drugstore-details/53272/nirali-chemist
208,Pharmacy,Nirali Chemist And Druggist,9428874182,"Plot No.547, Shop No.3, Karm Yogi Society 2, B/H Police Colony, Near Bamroli Road, Pandesara, SURAT",Surat,394221,India,Monday-Sunday 8am - 9pm,Cash,INR (Indian Rupees),https://www.medicineindia.org/pharmacy-chemist-drugstore-details/53328/nirali-chemist-and-druggist
209,Pharmacy,Nirali Medical And General Store,9377261119,"Plot No.1,2, Shop No.4, Karm Yogi Society 2, B/H Police Colony, Near Bamroli Road, Pandesara, SURAT",Surat,394221,India,Monday-Sunday 8am - 9pm,Cash,INR (Indian Rupees),https://www.medicineindia.org/pharmacy-chemist-drugstore-details/53327/nirali-medical-and-general-store
210,Pharmacy,Nirav Medicl Stores,(0261) 2663026,"Shop No 7 Vandana Apartments, Nr Althan Tena, Bhatar Road, Athwa Lines, Surat",Surat,395007,India,Monday-Sunday 8am - 9pm,Cash,INR (Indian Rupees),https://www.medicineindia.org/pharmacy-chemist-drugstore-details/53430/nirav-medicl-stores
211,Pharmacy,Nityanand Medical And Provision Store,(0261) 2424536,"3 Gajjar Building, Opp Guj School Kanskiwad, Surat Ho, Surat",Surat,395003,India,Monday-Sunday 8am - 9pm,Cash,INR (Indian Rupees),https://www.medicineindia.org/pharmacy-chemist-drugstore-details/53342/nityanand-medical-and-provision-store
212,Pharmacy,Nityanand Medicals & Provision Store,(0261) 2420732,"Shop-3 Opposite Dharuwala Guj Scheme-Gajjar Building Kanskiwad Haripura, Begumpura, Surat",Surat,395003,India,Monday-Sunday 8am - 9pm,Cash,INR (Indian Rupees),https://www.medicineindia.org/pharmacy-chemist-drugstore-details/53357/nityanand-medicals-provision-store
213,Pharmacy,OM KAR Medical Store,9898061254,"171, Jalaram Nagar Society, Aaspas Road, Godadara Naher Road, Godadara, Surat",Surat,395010,India,Monday-Sunday 8am - 9pm,Cash,INR (Indian Rupees),https://www.medicineindia.org/pharmacy-chemist-drugstore-details/53279/om-kar-medical-store
214,Pharmacy,OM SAI Medical Store,9428892891,"Opposite Udhana Bus Depot, Old Petrol Pump, Udhna Main Road, Udhna, Surat",Surat,394210,India,Monday-Sunday 8am - 9pm,Cash,INR (Indian Rupees),https://www.medicineindia.org/pharmacy-chemist-drugstore-details/53380/om-sai-medical-store
215,Pharmacy,OM Shiv Medical Agency,,"3012, Momai Complex, Puna Kumbhariya Road, Sahara Darwaja, Opp: New Bombay Market, Puna Kumbhariya Road, Surat",Surat,395001,India,Monday-Sunday 8am - 9pm,Cash,INR (Indian Rupees),https://www.medicineindia.org/pharmacy-chemist-drugstore-details/53286/om-shiv-medical-agency
216,Pharmacy,Om Medical Store,9723358558,"Labhuba Nagar Society, Parvat Patia, Surat",Surat,395010,India,Monday-Sunday 8am - 9pm,Cash,INR (Indian Rupees),https://www.medicineindia.org/pharmacy-chemist-drugstore-details/53276/om-medical-store
217,Pharmacy,Om SAI Medical & Provision Stores,9979485093,"1, Mahavir Complex, KIM Cross Road, KIM, Surat",Surat,394110,India,Monday-Sunday 8am - 9pm,Cash,INR (Indian Rupees),https://www.medicineindia.org/pharmacy-chemist-drugstore-details/53508/om-sai-medical-provision-stores
218,Pharmacy,P P Savani Rahatdar Medical Store,(0261) 2580020,"Manshi Building, Nr Siddhkutir Ind Estate, Opp Kapodra Police Station, Kapodra, Surat",Surat,395006,India,Monday-Sunday 8am - 9pm,Cash,INR (Indian Rupees),https://www.medicineindia.org/pharmacy-chemist-drugstore-details/53157/p-p-savani-rahatdar-medical-store
219,Pharmacy,P R Medical & General Store,(0261) 2275137,"Plot No-1, Daginawala Nagar, Opp, Madhi Ki Khamni, Udhana Main Road, Udhna, Surat",Surat,394210,India,Monday-Sunday 8am - 9pm,Cash,INR (Indian Rupees),https://www.medicineindia.org/pharmacy-chemist-drugstore-details/53378/p-r-medical-general-store
220,Pharmacy,Panwala Medical Store,(0261) 2411025,"Saiyedpura Market, Surat Ho, Surat",Surat,395003,India,Monday-Sunday 8am - 9pm,Cash,INR (Indian Rupees),https://www.medicineindia.org/pharmacy-chemist-drugstore-details/53187/panwala-medical-store
221,Pharmacy,Paras Medical,9724397553,"136, New Haridham Society, Near Kashinagar, 120 Feet Bamroli Road, Bamroli, Surat",Surat,394210,India,Monday-Sunday 8am - 9pm,Cash,INR (Indian Rupees),https://www.medicineindia.org/pharmacy-chemist-drugstore-details/53382/paras-medical
222,Pharmacy,Paras Medico,(0261) 3471726,"Shop No 2 Manmandir, Nanpura, Timaliawad, Nanpura, Surat",Surat,395001,India,Monday-Sunday 8am - 9pm,Cash,INR (Indian Rupees),https://www.medicineindia.org/pharmacy-chemist-drugstore-details/53461/paras-medico
223,Pharmacy,Parish Medical Store,9898823274,"Shasvath Complex, Honey Park Road, Surat HO, SURAT",Surat,395003,India,Monday-Sunday 8am - 9pm,Cash,INR (Indian Rupees),https://www.medicineindia.org/pharmacy-chemist-drugstore-details/53427/parish-medical-store
224,Pharmacy,Park Medical Store,(0261) 2232003,"6, Krishana Complex Bhatar Road, Bhatar Road, Surat",Surat,395007,India,Monday-Sunday 8am - 9pm,Cash,INR (Indian Rupees),https://www.medicineindia.org/pharmacy-chemist-drugstore-details/53435/park-medical-store
225,Pharmacy,Patel Medical,9825587026,"G 4, Matawadi Shopping Center, Opp Matawadi Jakat Naka, Lambe Hanuman Road, Varachha Road, Surat",Surat,395006,India,Monday-Sunday 8am - 9pm,Cash,INR (Indian Rupees),https://www.medicineindia.org/pharmacy-chemist-drugstore-details/53247/patel-medical
226,Pharmacy,Pavan Medical & General Store,9909662960,"Plot No 70, Biliya Nagar 2, Navagam, Dindoli, Surat",Surat,394210,India,Monday-Sunday 8am - 9pm,Cash,INR (Indian Rupees),https://www.medicineindia.org/pharmacy-chemist-drugstore-details/53253/pavan-medical-general-store
227,Pharmacy,Pinkle Hospital,(0261) 6562726,"Near Patidar Bhavan, Haripura Main Road, Rampura, Surat",Surat,395003,India,Monday-Sunday 8am - 9pm,Cash,INR (Indian Rupees),https://www.medicineindia.org/pharmacy-chemist-drugstore-details/53217/pinkle-hospital
228,Pharmacy,Pioneer Medical & Provision Stores,9898493757,"Shop No 5,Patel Shopping Center, Mota Borsara,Mangrol, M M Mangrol, Surat",Surat,394410,India,Monday-Sunday 8am - 9pm,Cash,INR (Indian Rupees),https://www.medicineindia.org/pharmacy-chemist-drugstore-details/53510/pioneer-medical-provision-stores
229,Pharmacy,Pooja Medicals,(0261) 3023368,"L-22/23, Bhagwati Ashish Complex, Opp. Rani Sati Dadi Mandir, Citylight Road, Surat",Surat,395007,India,Monday-Sunday 8am - 9pm,Cash,INR (Indian Rupees),https://www.medicineindia.org/pharmacy-chemist-drugstore-details/53197/pooja-medicals
230,Pharmacy,Poonam Medical Store,(0261) 2594094,"8/450 Nayantara Apartment, Gopipura, Main Road, Gopipura, Surat",Surat,395001,India,Monday-Sunday 8am - 9pm,Cash,INR (Indian Rupees),https://www.medicineindia.org/pharmacy-chemist-drugstore-details/53456/poonam-medical-store
231,Pharmacy,Prabhat Medical & Provi Store,(0261) 2850281,"Shop-5, Narayan Palace Tal Choryasi, Parvat Patia, Surat",Surat,395010,India,Monday-Sunday 8am - 9pm,Cash,INR (Indian Rupees),https://www.medicineindia.org/pharmacy-chemist-drugstore-details/53277/prabhat-medical-provi-store
232,Pharmacy,Pragati Medical,9375370474,"Shanti Palace, Kadodra Garden. Silk Mill, Kadodara, Surat",Surat,394210,India,Monday-Sunday 8am - 9pm,Cash,INR (Indian Rupees),https://www.medicineindia.org/pharmacy-chemist-drugstore-details/53386/pragati-medical
233,Pharmacy,Pramukh Medical & General Stores,(0261) 2854733,"Doctor House, Bombay Market, Surat",Surat,395010,India,Monday-Sunday 8am - 9pm,Cash,INR (Indian Rupees),https://www.medicineindia.org/pharmacy-chemist-drugstore-details/53147/pramukh-medical-general-stores
234,Pharmacy,Pramukh Medical & General Stores,(0261) 2775466,"M-19,Silvar Plaza Complex, Rander Road, Rander Road, Surat",Surat,395005,India,Monday-Sunday 8am - 9pm,Cash,INR (Indian Rupees),https://www.medicineindia.org/pharmacy-chemist-drugstore-details/53233/pramukh-medical-general-stores
235,Pharmacy,Pramukh Medical Store,(0261) 2232611,"A-01, Near Vaishali Apartment, Opp L B Cinema, Bhatar Road, Bhatar Road, Surat",Surat,395007,India,Monday-Sunday 8am - 9pm,Cash,INR (Indian Rupees),https://www.medicineindia.org/pharmacy-chemist-drugstore-details/53146/pramukh-medical-store
236,Pharmacy,Prangal Medical Store,(0261) 3050073,"Bhatar Road, SURAT",Surat,395007,India,Monday-Sunday 8am - 9pm,Cash,INR (Indian Rupees),https://www.medicineindia.org/pharmacy-chemist-drugstore-details/53195/prangal-medical-store
237,Pharmacy,Prem Medical Store,9099122996,"25, Prasiddhi Appt, Jakat Naka, Piplod, Surat",Surat,395007,India,Monday-Sunday 8am - 9pm,Cash,INR (Indian Rupees),https://www.medicineindia.org/pharmacy-chemist-drugstore-details/53441/prem-medical-store
238,Pharmacy,Premier Traders,(0261) 2433288,"Shahpore, Surat",Surat,395003,India,Monday-Sunday 8am - 9pm,Cash,INR (Indian Rupees),https://www.medicineindia.org/pharmacy-chemist-drugstore-details/53208/premier-traders
239,Pharmacy,Prince Chemist,(0261) 2548156,"3/12 Roopsagar Society, Rambaug, A K Road, Surat",Surat,395008,India,Monday-Sunday 8am - 9pm,Cash,INR (Indian Rupees),https://www.medicineindia.org/pharmacy-chemist-drugstore-details/53178/prince-chemist
240,Pharmacy,Prince Chemist,9714491057,"Shop No.3 Shivanjali Park, Shivanjali Park, Palanpur Road, Palanpur Jakat Naka, Surat",Surat,395009,India,Monday-Sunday 8am - 9pm,Cash,INR (Indian Rupees),https://www.medicineindia.org/pharmacy-chemist-drugstore-details/53496/prince-chemist
241,Pharmacy,Puja Medical & General Store,7405532852,"Shop No 1, Opposite Chacha School, Punagam Road, Un, Surat",Surat,394210,India,Monday-Sunday 8am - 9pm,Cash,INR (Indian Rupees),https://www.medicineindia.org/pharmacy-chemist-drugstore-details/53213/puja-medical-general-store
242,Pharmacy,R K Medico,(0261) 2420050,"12/1223, Sh Pr, Surat Ho, Surat",Surat,395003,India,Monday-Sunday 8am - 9pm,Cash,INR (Indian Rupees),https://www.medicineindia.org/pharmacy-chemist-drugstore-details/53418/r-k-medico
243,Pharmacy,R M Medical Stores,(0261) 2431658,"9 2094, Nr Gopi Shri Opp Khandwala Street, Mohan Mithai Gali Ambaji Road, Surat Ho, Surat",Surat,395003,India,Monday-Sunday 8am - 9pm,Cash,INR (Indian Rupees),https://www.medicineindia.org/pharmacy-chemist-drugstore-details/53339/r-m-medical-stores
244,Pharmacy,Radha Krishna Medical Agencies,(0261) 2418826,"B 2 Sneh Sagar Apartment, Near Bhakkas Clinic, Saiyedpura, Surat",Surat,395003,India,Monday-Sunday 8am - 9pm,Cash,INR (Indian Rupees),https://www.medicineindia.org/pharmacy-chemist-drugstore-details/53175/radha-krishna-medical-agencies
245,Pharmacy,Radhey Medical Store,9898699257,"2,Harekrishna Society, Udaynagar-2,Katargam Road, Katargram, Surat",Surat,395004,India,Monday-Sunday 8am - 9pm,Cash,INR (Indian Rupees),https://www.medicineindia.org/pharmacy-chemist-drugstore-details/53214/radhey-medical-store
246,Pharmacy,Raghuvanshi Medical Store,(0261) 2656056,"L 5 Bhavik Complex, Opp L B Park, Ghoddod Road, Surat",Surat,395007,India,Monday-Sunday 8am - 9pm,Cash,INR (Indian Rupees),https://www.medicineindia.org/pharmacy-chemist-drugstore-details/53442/raghuvanshi-medical-store
247,Pharmacy,Rahat Medical,(0261) 6453618,"11 To 14, Golden Park, Opp. Prime Arcade, Anand Mahal Road, Adajan Road, Surat",Surat,395009,India,Monday-Sunday 8am - 9pm,Cash,INR (Indian Rupees),https://www.medicineindia.org/pharmacy-chemist-drugstore-details/53167/rahat-medical
248,Pharmacy,Rahat Medical,(0261) 6531163,"3-4, S.m.c. Complex, Nr. Ayurvedic College, Station Road, Surat",Surat,395003,India,Monday-Sunday 8am - 9pm,Cash,INR (Indian Rupees),https://www.medicineindia.org/pharmacy-chemist-drugstore-details/53189/rahat-medical
249,Pharmacy,Rahat Medical,9227161320,"Dhanmora Rangdarshan Society, Singanpur Road, Katargram, Surat",Surat,395004,India,Monday-Sunday 8am - 9pm,Cash,INR (Indian Rupees),https://www.medicineindia.org/pharmacy-chemist-drugstore-details/53190/rahat-medical
250,Pharmacy,Rahat Medical,(0261) 6951413,"F-9, Sargam Complex, Doctor House, Hirabaug Circle, Varachha Road, Surat",Surat,395006,India,Monday-Sunday 8am - 9pm,Cash,INR (Indian Rupees),https://www.medicineindia.org/pharmacy-chemist-drugstore-details/53273/rahat-medical
251,Pharmacy,Rahat Medical,(0261) 6565512,"Opp. Udhna Bus Station, Udhna, Surat",Surat,394210,India,Monday-Sunday 8am - 9pm,Cash,INR (Indian Rupees),https://www.medicineindia.org/pharmacy-chemist-drugstore-details/53374/rahat-medical
252,Pharmacy,Rahat Medical,(0261) 6594616,"204-204, Turning Point, Opp. Fire Brigade, Bhatar Road, Surat",Surat,395007,India,Monday-Sunday 8am - 9pm,Cash,INR (Indian Rupees),https://www.medicineindia.org/pharmacy-chemist-drugstore-details/53432/rahat-medical
253,Pharmacy,Rahat Medical,9227161321,"L-12, Sargam Complex, Dumas Road, Surat",Surat,395007,India,Monday-Sunday 8am - 9pm,Cash,INR (Indian Rupees),https://www.medicineindia.org/pharmacy-chemist-drugstore-details/53433/rahat-medical
254,Pharmacy,Rahul Medical & General Store,(0261) 2893920,"Shop No 8, Ramnagar Society, Surat Navsari Main Road, Bhestan, Surat",Surat,395023,India,Monday-Sunday 8am - 9pm,Cash,INR (Indian Rupees),https://www.medicineindia.org/pharmacy-chemist-drugstore-details/53275/rahul-medical-general-store
255,Pharmacy,Raja Medical & Provisan Store,(0261) 2348938,"3/2991-92, Shop No 6, Chalamwad, Charrasta, King Palace Apartment Rustampura, Rustampura, Surat",Surat,395002,India,Monday-Sunday 8am - 9pm,Cash,INR (Indian Rupees),https://www.medicineindia.org/pharmacy-chemist-drugstore-details/53317/raja-medical-provisan-store
256,Pharmacy,Rajesh Medicals,9825705707,"Machlipul, Nr. New SAI Baba Mandir, Main Road, LAL Gate, Surat",Surat,395003,India,Monday-Sunday 8am - 9pm,Cash,INR (Indian Rupees),https://www.medicineindia.org/pharmacy-chemist-drugstore-details/53453/rajesh-medicals
257,Pharmacy,Rajvi Medical Store,9879604041,"5 ,Jaydeep Chambers, Pani Ni Bhint, Bhagatalao, Soni Falia, Bhagatalao, Surat",Surat,395003,India,Monday-Sunday 8am - 9pm,Cash,INR (Indian Rupees),https://www.medicineindia.org/pharmacy-chemist-drugstore-details/53458/rajvi-medical-store
258,Pharmacy,Raksha Medicals,(0261) 3272003,"7 / B Green Velly Residency B/ H Gangeshwar Temple - Adajan - Surat, Adajan, Gangeshwar Temple, Adajan Road, SURAT",Surat,395009,India,Monday-Sunday 8am - 9pm,Cash,INR (Indian Rupees),https://www.medicineindia.org/pharmacy-chemist-drugstore-details/53484/raksha-medicals
259,Pharmacy,Ramabhai Umia Medical Store,(0261) 2510618,"Shop-2, Pandol Industrial, Ved Munjani Chamber, Choriyasi Ved Road, Ved Road, Surat",Surat,395004,India,Monday-Sunday 8am - 9pm,Cash,INR (Indian Rupees),https://www.medicineindia.org/pharmacy-chemist-drugstore-details/53389/ramabhai-umia-medical-store
260,Pharmacy,Ramdev Medical Store,(0261) 8580382,"Shop No. G-4, B M Complex, Next To Chopati, Nana Varachha, Nana Varaccha, Surat",Surat,395006,India,Monday-Sunday 8am - 9pm,Cash,INR (Indian Rupees),https://www.medicineindia.org/pharmacy-chemist-drugstore-details/53307/ramdev-medical-store
261,Pharmacy,Ramesh Medical Stores,(0261) 2675017,"152 Hari Nagar, Main Road, Udhna, Surat",Surat,394210,India,Monday-Sunday 8am - 9pm,Cash,INR (Indian Rupees),https://www.medicineindia.org/pharmacy-chemist-drugstore-details/53211/ramesh-medical-stores
262,Pharmacy,Ratneshwar Medical Store,9327053313,"6/975, Giyasheri Tekra, Mahidharpura, Main Road, Mahidharpura, Surat",Surat,395003,India,Monday-Sunday 8am - 9pm,Cash,INR (Indian Rupees),https://www.medicineindia.org/pharmacy-chemist-drugstore-details/53403/ratneshwar-medical-store
263,Pharmacy,Ravi Medical & General Store,(0261) 2254076,"U 3 Malhar Complex, Opp Nehru Nagar, Ichchnath Road, Parle Point, Surat",Surat,395007,India,Monday-Sunday 8am - 9pm,Cash,INR (Indian Rupees),https://www.medicineindia.org/pharmacy-chemist-drugstore-details/53148/ravi-medical-general-store
264,Pharmacy,Ravi Medical Store,(0261) 2402930,"9/56 Ab Gamanlal Mention, Kotsafil Road, Bhagal, SURAT",Surat,395003,India,Monday-Sunday 8am - 9pm,Cash,INR (Indian Rupees),https://www.medicineindia.org/pharmacy-chemist-drugstore-details/53173/ravi-medical-store
265,Pharmacy,Ravitej Medical Stores,9825132864,"18, Municipal Buildig, Kotsafil Road, Surat Ho, Surat",Surat,395003,India,Monday-Sunday 8am - 9pm,Cash,INR (Indian Rupees),https://www.medicineindia.org/pharmacy-chemist-drugstore-details/53409/ravitej-medical-stores
266,Pharmacy,Real Medical & General Store,(0261) 2751867,"Shop-02 Unn Patia, Adit Shopping Centre Shak Market, Bhestan, Surat",Surat,395023,India,Monday-Sunday 8am - 9pm,Cash,INR (Indian Rupees),https://www.medicineindia.org/pharmacy-chemist-drugstore-details/53261/real-medical-general-store
267,Pharmacy,Reema Medical Stores,(0261) 2365141,"Bardoli Pitha, Salabatpura, Surat",Surat,395003,India,Monday-Sunday 8am - 9pm,Cash,INR (Indian Rupees),https://www.medicineindia.org/pharmacy-chemist-drugstore-details/53353/reema-medical-stores
268,Pharmacy,Relief Chemist,(0261) 2597501,"Raj Laxmi Building, Opp Surat General Hospital, Balaji Road, Surat, Surat",Surat,395001,India,Monday-Sunday 8am - 9pm,Cash,INR (Indian Rupees),https://www.medicineindia.org/pharmacy-chemist-drugstore-details/53284/relief-chemist
269,Pharmacy,Relief Medical & General Store,9898798551,"Shop No. C-1, Sakina Chamber, Surti Jakatnaka, Bardoli, Surat",Surat,394601,India,Monday-Sunday 8am - 9pm,Cash,INR (Indian Rupees),https://www.medicineindia.org/pharmacy-chemist-drugstore-details/53227/relief-medical-general-store
270,Pharmacy,Ritesh Medical Stores,(0261) 2411761,"3 Ambawadi, Below Mahadev Temple, Kalipul, Salabatpura, Surat",Surat,395003,India,Monday-Sunday 8am - 9pm,Cash,INR (Indian Rupees),https://www.medicineindia.org/pharmacy-chemist-drugstore-details/53338/ritesh-medical-stores
271,Pharmacy,Ronak Medical & General Stores,(0261) 3256073,"Shop No 23 Sachin Plaza, Near Railway Station, Main Road, Sachin, Surat",Surat,394230,India,Monday-Sunday 8am - 9pm,Cash,INR (Indian Rupees),https://www.medicineindia.org/pharmacy-chemist-drugstore-details/53250/ronak-medical-general-stores
272,Pharmacy,Roopali Medical & General Store,(0261) 2391199,"Shop No 2, Mangal Bhavan, Station Road, Sachin, Surat",Surat,394230,India,Monday-Sunday 8am - 9pm,Cash,INR (Indian Rupees),https://www.medicineindia.org/pharmacy-chemist-drugstore-details/53251/roopali-medical-general-store
273,Pharmacy,Royal Drug House,9825156261,"205, Meghani Tower, Station Road, Cinema Road, Station Road, Surat",Surat,395003,India,Monday-Sunday 8am - 9pm,Cash,INR (Indian Rupees),https://www.medicineindia.org/pharmacy-chemist-drugstore-details/53366/royal-drug-house
274,Pharmacy,Royal Hakim Pharmacy,9586968485,"A-01, Opp Khatkiwad Masjeed, Laldarwaja, Rani Talao Main Road, Surat Ho, Surat",Surat,395003,India,Monday-Sunday 8am - 9pm,Cash,INR (Indian Rupees),https://www.medicineindia.org/pharmacy-chemist-drugstore-details/53410/royal-hakim-pharmacy
275,Pharmacy,Royal Medicines,9913894707,"Shop No 12, Satyam Apartment, Manmohan Society, Pritam Nagar 2, L H Road, Surat Ho, Surat",Surat,395003,India,Monday-Sunday 8am - 9pm,Cash,INR (Indian Rupees),https://www.medicineindia.org/pharmacy-chemist-drugstore-details/53354/royal-medicines
276,Pharmacy,Rudri Distributors,(0261) 2414025,"Al Noor Palace Basement, Machhlipthi Nr Bina Medical, Vadia Street, Shahpore, Surat",Surat,395003,India,Monday-Sunday 8am - 9pm,Cash,INR (Indian Rupees),https://www.medicineindia.org/pharmacy-chemist-drugstore-details/53186/rudri-distributors
277,Pharmacy,S.K Medical & Provision General Stores,(0261) 2771632,"Shop No.7 , Narayan Park, Near Sarojni Naydu Circle, Palanpure Jakat Naka Road, Palanpur Jakat Naka, Surat",Surat,395009,India,Monday-Sunday 8am - 9pm,Cash,INR (Indian Rupees),https://www.medicineindia.org/pharmacy-chemist-drugstore-details/53501/sk-medical-provision-general-stores
278,Pharmacy,SAI Care Medicines,(0261) 2733991,"B 6, Divyadarshan, Rander, Rushabh Char Rasta, Rander, Surat",Surat,395005,India,Monday-Sunday 8am - 9pm,Cash,INR (Indian Rupees),https://www.medicineindia.org/pharmacy-chemist-drugstore-details/53485/sai-care-medicines
279,Pharmacy,SAI Jyoti Medical And General Store,9974022631,"1, Om SAI Jalaram Nagar, B/H Hari Nagar-2, Udhna, Surat",Surat,394210,India,Monday-Sunday 8am - 9pm,Cash,INR (Indian Rupees),https://www.medicineindia.org/pharmacy-chemist-drugstore-details/53381/sai-jyoti-medical-and-general-store
280,Pharmacy,SAI Niketan Medical Store,(0261) 2543650,"Ratna Deep Society Althan Bhatar Road, Bhatar Road, Surat",Surat,395007,India,Monday-Sunday 8am - 9pm,Cash,INR (Indian Rupees),https://www.medicineindia.org/pharmacy-chemist-drugstore-details/53436/sai-niketan-medical-store
281,Pharmacy,Sagar Medical Store,9925606505,"No: 1, Tejenrda Na Nake, Khodiya Nagar Road, Varachha Surat, Surat, SURAT",Surat,395006,India,Monday-Sunday 8am - 9pm,Cash,INR (Indian Rupees),https://www.medicineindia.org/pharmacy-chemist-drugstore-details/53310/sagar-medical-store
282,Pharmacy,Sagar Medical Stores,(0261) 2554718,"Shop No-5, Ratna Nagar Society, Varachha Road, Surat",Surat,395006,India,Monday-Sunday 8am - 9pm,Cash,INR (Indian Rupees),https://www.medicineindia.org/pharmacy-chemist-drugstore-details/53248/sagar-medical-stores
283,Pharmacy,Samarth Medical & General Stores,(0261) 6946348,"9, Samarth Park, Vijay Nagar, Near Archana School, Umarwada, Surat Ho, Surat",Surat,395003,India,Monday-Sunday 8am - 9pm,Cash,INR (Indian Rupees),https://www.medicineindia.org/pharmacy-chemist-drugstore-details/53152/samarth-medical-general-stores
284,Pharmacy,Sandip Medical Store,9727054524,"A-01, Unn, Unngam Road, Un, Surat",Surat,394210,India,Monday-Sunday 8am - 9pm,Cash,INR (Indian Rupees),https://www.medicineindia.org/pharmacy-chemist-drugstore-details/53258/sandip-medical-store
285,Pharmacy,Sangam Medical & General Stores,9724194504,"Shop No 8, Krishnadham Shopping Centre Vesu, Piplod, Main Road, Piplod, Surat",Surat,395007,India,Monday-Sunday 8am - 9pm,Cash,INR (Indian Rupees),https://www.medicineindia.org/pharmacy-chemist-drugstore-details/53489/sangam-medical-general-stores
286,Pharmacy,Sanghavi Medical And Provision Stor...,(0261) 2687408,"5 Upper Ground Krishna Complex, Nr Gujarat Gas Circle, Adajan Road, Surat",Surat,395009,India,Monday-Sunday 8am - 9pm,Cash,INR (Indian Rupees),https://www.medicineindia.org/pharmacy-chemist-drugstore-details/53223/sanghavi-medical-and-provision-stor
287,Pharmacy,Sanghavi Medical And Provisional St...,(0261) 2681922,"Adajan, Surat., Adajan Road, Surat",Surat,395009,India,Monday-Sunday 8am - 9pm,Cash,INR (Indian Rupees),https://www.medicineindia.org/pharmacy-chemist-drugstore-details/53480/sanghavi-medical-and-provisional-st
288,Pharmacy,Sanjay Medical Agencies,(0261) 2410624,"B/1, Snehsagar Appartment, Shahpur, Saiyedpura, Surat",Surat,395003,India,Monday-Sunday 8am - 9pm,Cash,INR (Indian Rupees),https://www.medicineindia.org/pharmacy-chemist-drugstore-details/53219/sanjay-medical-agencies
289,Pharmacy,Sanjeevani Medical Stores,(0261) 2470048,"Ground Floor, Laxmi Arcade, Opposite Banarsi Pan House, Timaliawad, Nanpura, Surat",Surat,395001,India,Monday-Sunday 8am - 9pm,Cash,INR (Indian Rupees),https://www.medicineindia.org/pharmacy-chemist-drugstore-details/53169/sanjeevani-medical-stores
290,Pharmacy,Sanjivani Medical Store,7567777733,"Shop No 5, 6, JAY Complex, Hira Baug Circle, Varachha Road, Surat",Surat,395006,India,Monday-Sunday 8am - 9pm,Cash,INR (Indian Rupees),https://www.medicineindia.org/pharmacy-chemist-drugstore-details/53308/sanjivani-medical-store
291,Pharmacy,Sapana Medical Store,(0261) 2550672,"Shop No-8, Panchvati, Opp ,Oasis Hotel, Varachha Road, Varachha Road, Surat",Surat,395006,India,Monday-Sunday 8am - 9pm,Cash,INR (Indian Rupees),https://www.medicineindia.org/pharmacy-chemist-drugstore-details/53305/sapana-medical-store
292,Pharmacy,Sardar Medical & Provision Store,9427468200,"Shop No-1, Shivam Chambers, Station Road, Bardoli, Surat",Surat,394601,India,Monday-Sunday 8am - 9pm,Cash,INR (Indian Rupees),https://www.medicineindia.org/pharmacy-chemist-drugstore-details/53199/sardar-medical-provision-store
293,Pharmacy,Sarjan Medical Store,(0261) 2452430,"12/1233 Mathia Falia, Shahpore, Shahpore, SURAT",Surat,395003,India,Monday-Sunday 8am - 9pm,Cash,INR (Indian Rupees),https://www.medicineindia.org/pharmacy-chemist-drugstore-details/53355/sarjan-medical-store
294,Pharmacy,Saurabh Medicines,(0261) 2651172,"Harsh Co Op Housing Society, Near Jamna Nagar Bus Stand, Ghod Dod Road, Ghoddod Road, Surat",Surat,395007,India,Monday-Sunday 8am - 9pm,Cash,INR (Indian Rupees),https://www.medicineindia.org/pharmacy-chemist-drugstore-details/53491/saurabh-medicines
295,Pharmacy,Saurastra Patidar Trust Medical Sto...,(0261) 2555550,"Saurastra Patel Bhavan, 01, Sardar Chowk, Mini Bazar, Choryasi Varachha Road, Varachha Road, Surat",Surat,395006,India,Monday-Sunday 8am - 9pm,Cash,INR (Indian Rupees),https://www.medicineindia.org/pharmacy-chemist-drugstore-details/53183/saurastra-patidar-trust-medical-sto
296,Pharmacy,Savani Rameshbhai Odhavjibhai Puja Medic...,(0261) 2568272,"Plot-76, Ghanshyam Nagar, 2, Street No 20 Varachha Road, Varachha Road, Surat",Surat,395006,India,Monday-Sunday 8am - 9pm,Cash,INR (Indian Rupees),https://www.medicineindia.org/pharmacy-chemist-drugstore-details/53313/savani-rameshbhai-odhavjibhai-puja-medic
297,Pharmacy,Sejal Medical Store,9327333891,"3, Shaktinagar, Near Mahadev Temple, 60 Feet Road, Udhna, Surat",Surat,394210,India,Monday-Sunday 8am - 9pm,Cash,INR (Indian Rupees),https://www.medicineindia.org/pharmacy-chemist-drugstore-details/53254/sejal-medical-store
298,Pharmacy,Shahkar Medical Stores,(0261) 2558519,"Plot No 3, Bhawani Nagar, L H Road, Varachha Road, Surat",Surat,395006,India,Monday-Sunday 8am - 9pm,Cash,INR (Indian Rupees),https://www.medicineindia.org/pharmacy-chemist-drugstore-details/53294/shahkar-medical-stores
299,Pharmacy,Shakti Medical Stores,(0261) 2572801,"Block No.44, Shop No.1/2, Shakti Vijay Soc, Nana Varacha, Nana Varaccha, Surat",Surat,395006,India,Monday-Sunday 8am - 9pm,Cash,INR (Indian Rupees),https://www.medicineindia.org/pharmacy-chemist-drugstore-details/53298/shakti-medical-stores
300,Pharmacy,Shana Chemist,(0261) 2871786,"Shop No 1, Goodluck Shopping Center, Unn, Surat Navsari Road Unn Patia, Un, Surat",Surat,394210,India,Monday-Sunday 8am - 9pm,Cash,INR (Indian Rupees),https://www.medicineindia.org/pharmacy-chemist-drugstore-details/53255/shana-chemist
301,Pharmacy,Shankeshwar Chemist,(0261) 2471567,"142 A Shankeshwar Complex, Majura Gate, Surat",Surat,395002,India,Monday-Sunday 8am - 9pm,Cash,INR (Indian Rupees),https://www.medicineindia.org/pharmacy-chemist-drugstore-details/53315/shankeshwar-chemist
302,Pharmacy,Sharda Medical,9898177922,"B-1, New Haridham Society, Near Savita Hospital, 120 Feet Bamroli Road, Bamroli, Surat",Surat,394210,India,Monday-Sunday 8am - 9pm,Cash,INR (Indian Rupees),https://www.medicineindia.org/pharmacy-chemist-drugstore-details/53383/sharda-medical
303,Pharmacy,Shashi Medical & General Store,9879448978,"Shop No. 24, Snehmudra Shooping Cantre, Varacha Road, Kapodra Char Rasta, Kapodra Char Rasta, Surat",Surat,395006,India,Monday-Sunday 8am - 9pm,Cash,INR (Indian Rupees),https://www.medicineindia.org/pharmacy-chemist-drugstore-details/53301/shashi-medical-general-store
304,Pharmacy,Shashi Medical & Genl Store,(0261) 2573593,"24, Sneh Mudra Shopping, Kapodra, Char Rasta Udhana Magdalla Road, Magdalla, Surat",Surat,395007,India,Monday-Sunday 8am - 9pm,Cash,INR (Indian Rupees),https://www.medicineindia.org/pharmacy-chemist-drugstore-details/53437/shashi-medical-genl-store
305,Pharmacy,Sheetal Medical Stores,9737243414,"786, Near Kribhco Township, Hazira Road, Kribhco Nagar, Surat",Surat,394515,India,Monday-Sunday 8am - 9pm,Cash,INR (Indian Rupees),https://www.medicineindia.org/pharmacy-chemist-drugstore-details/53509/sheetal-medical-stores
306,Pharmacy,Shital Medical Store,(0261) 3256915,"A-01,Kawas Patia, Hazira, Kawas, Hazira Surat, Surat",Surat,394270,India,Monday-Sunday 8am - 9pm,Cash,INR (Indian Rupees),https://www.medicineindia.org/pharmacy-chemist-drugstore-details/53513/shital-medical-store
307,Pharmacy,Shiv Darshan Medical Stores,9998219087,"Shop No. 1-2. Sundaram Apartment, Nr. Nutan Raw House, Palanpur Gam Road, Palanpur Jakat Naka, Surat",Surat,395009,India,Monday-Sunday 8am - 9pm,Cash,INR (Indian Rupees),https://www.medicineindia.org/pharmacy-chemist-drugstore-details/53499/shiv-darshan-medical-stores
308,Pharmacy,Shiv Medical Store,(0261) 2490264,"Helena Trade, Opposite Sadhana Hospital, Unapani Road, SURAT",Surat,395003,India,Monday-Sunday 8am - 9pm,Cash,INR (Indian Rupees),https://www.medicineindia.org/pharmacy-chemist-drugstore-details/53356/shiv-medical-store
309,Pharmacy,Shiva Medical Stores,9898614191,"4/896, Pani Ni Tanki, Nr Rajat Hospital, Cinema Road, Station Road, Surat",Surat,395003,India,Monday-Sunday 8am - 9pm,Cash,INR (Indian Rupees),https://www.medicineindia.org/pharmacy-chemist-drugstore-details/53361/shiva-medical-stores
310,Pharmacy,Shivam Medical,(0261) 3124282,"379, Satyanarayan Society, B/H Rachana Society, Kapodara Char Rasta, Kapodra, Surat",Surat,395006,India,Monday-Sunday 8am - 9pm,Cash,INR (Indian Rupees),https://www.medicineindia.org/pharmacy-chemist-drugstore-details/53267/shivam-medical
311,Pharmacy,Shivam Medical Store,9925392433,"Shop No. 1, Plot No. 21, Sumul Desai Wadi, Udhana Darvaja, Khatodara Road, Udhna, Surat",Surat,394210,India,Monday-Sunday 8am - 9pm,Cash,INR (Indian Rupees),https://www.medicineindia.org/pharmacy-chemist-drugstore-details/53200/shivam-medical-store
312,Pharmacy,Shivkrupa Medical,9737521740,Kim,Surat,394110,India,Monday-Sunday 8am - 9pm,Cash,INR (Indian Rupees),https://www.medicineindia.org/pharmacy-chemist-drugstore-details/82058/shivkrupa-medical
313,Pharmacy,Shivkrupa Medical & Provision Store,(0261) 2233800,"Shop No G/29,Bhatar Road, Opp Vidhya Bharati School, Silver Point, Bhatar Road, Surat",Surat,395007,India,Monday-Sunday 8am - 9pm,Cash,INR (Indian Rupees),https://www.medicineindia.org/pharmacy-chemist-drugstore-details/53438/shivkrupa-medical-provision-store
314,Pharmacy,Shree Ambica Medical Store,(0261) 2433875,"Saiyedpura, Surat",Surat,395003,India,Monday-Sunday 8am - 9pm,Cash,INR (Indian Rupees),https://www.medicineindia.org/pharmacy-chemist-drugstore-details/53191/shree-ambica-medical-store
315,Pharmacy,Shree Gurunanak Medical Store,(0261) 2232221,"8, Umiya Nagar, Bhatar Road, Surat",Surat,395007,India,Monday-Sunday 8am - 9pm,Cash,INR (Indian Rupees),https://www.medicineindia.org/pharmacy-chemist-drugstore-details/53151/shree-gurunanak-medical-store
316,Pharmacy,Shree Hari Medical Store,(0261) 2420363,"3 Mani Bag Society, Opp People Bank, Katargam Road, Katargram, Surat",Surat,395004,India,Monday-Sunday 8am - 9pm,Cash,INR (Indian Rupees),https://www.medicineindia.org/pharmacy-chemist-drugstore-details/53395/shree-hari-medical-store
317,Pharmacy,Shree Jalaram Medicals,(0261) 2552258,"2 ,Tapi Baug Shopping Center, Varachha Road, Varachha Road, Surat",Surat,395006,India,Monday-Sunday 8am - 9pm,Cash,INR (Indian Rupees),https://www.medicineindia.org/pharmacy-chemist-drugstore-details/53246/shree-jalaram-medicals
318,Pharmacy,Shree Mahalaxmi Medical Store,(0261) 2369040,"2/1248, Shop 4, Sankdi Street, Sagrampura, Surat",Surat,395002,India,Monday-Sunday 8am - 9pm,Cash,INR (Indian Rupees),https://www.medicineindia.org/pharmacy-chemist-drugstore-details/53281/shree-mahalaxmi-medical-store
319,Pharmacy,Shree Mahavir Medical & General Sto...,(0261) 6950482,"Near Polytecnic Girls College, Jolly Plza, Surat HO, SURAT",Surat,395003,India,Monday-Sunday 8am - 9pm,Cash,INR (Indian Rupees),https://www.medicineindia.org/pharmacy-chemist-drugstore-details/53218/shree-mahavir-medical-general-sto
320,Pharmacy,Shree Mahavir Medical & General Store,9974572200,"Shop No-G/2-3, Sardhdha Complex, Kapodra Char Rasta, Kapodra, Surat",Surat,395006,India,Monday-Sunday 8am - 9pm,Cash,INR (Indian Rupees),https://www.medicineindia.org/pharmacy-chemist-drugstore-details/53303/shree-mahavir-medical-general-store
321,Pharmacy,Shree Medical & General Store,9924344751,"Jagdamba Industrial-Plot No-56-Ganeshnagar, Pandesara Gidc, Pandesara, SURAT",Surat,394221,India,Monday-Sunday 8am - 9pm,Cash,INR (Indian Rupees),https://www.medicineindia.org/pharmacy-chemist-drugstore-details/53329/shree-medical-general-store
322,Pharmacy,Shree Morpiya Medical Store,(0261) 2465544,"3rd Floor, 304, Kashi Plaza, Majura Gate, SURAT",Surat,395002,India,Monday-Sunday 8am - 9pm,Cash,INR (Indian Rupees),https://www.medicineindia.org/pharmacy-chemist-drugstore-details/53457/shree-morpiya-medical-store
323,Pharmacy,Shree Nathji,(0261) 2236650,"R.k Point, Basement Shop 1.2.3, Near Gurudware Hospital, Bhatar Road, Bhatar Road, SURAT",Surat,395007,India,Monday-Sunday 8am - 9pm,Cash,INR (Indian Rupees),https://www.medicineindia.org/pharmacy-chemist-drugstore-details/53444/shree-nathji
324,Pharmacy,Shree Parhwa Medsical Stores,(0261) 2419477,"A-01,Creative Corner, Opp Old Vitthalwadi Main Road,, Nanavat, Surat Ho, Surat",Surat,395003,India,Monday-Sunday 8am - 9pm,Cash,INR (Indian Rupees),https://www.medicineindia.org/pharmacy-chemist-drugstore-details/53411/shree-parhwa-medsical-stores
325,Pharmacy,Shree Punit Chemist,9374725959,"Mohini Complex, Kamrej, Kamrej Char Rasta, Surat",Surat,394185,India,Monday-Sunday 8am - 9pm,Cash,INR (Indian Rupees),https://www.medicineindia.org/pharmacy-chemist-drugstore-details/53202/shree-punit-chemist
326,Pharmacy,Shree Ram Medical Stores,(0261) 2418710,"12 283, Durgapura Limda Chowk Sheri Na Naka, Main Road, Surat Ho, Surat",Surat,395003,India,Monday-Sunday 8am - 9pm,Cash,INR (Indian Rupees),https://www.medicineindia.org/pharmacy-chemist-drugstore-details/53184/shree-ram-medical-stores
327,Pharmacy,Shree SAI Medical Stores,(0261) 3222637,"1/891, Athugar Maholla, Surat Ho, Surat",Surat,395003,India,Monday-Sunday 8am - 9pm,Cash,INR (Indian Rupees),https://www.medicineindia.org/pharmacy-chemist-drugstore-details/53421/shree-sai-medical-stores
328,Pharmacy,Shree Sai Medical Store,9913656813,"Silicon Park, Near Pramukh Doctor House, Parvat Patia, Surat",Surat,395010,India,Monday-Sunday 8am - 9pm,Cash,INR (Indian Rupees),https://www.medicineindia.org/pharmacy-chemist-drugstore-details/53174/shree-sai-medical-store
329,Pharmacy,Shree Sainath Medicals,9974101502,"G-4,Silicon Park, Parvat Patia, Nr.pramukh Doctor House, Parvat Patia, Surat",Surat,395010,India,Monday-Sunday 8am - 9pm,Cash,INR (Indian Rupees),https://www.medicineindia.org/pharmacy-chemist-drugstore-details/53263/shree-sainath-medicals
330,Pharmacy,Shree Yogeshwari Medical Store,(0261) 2552013,"B 33 Swati Society, Tilak Nagar, L H Road, Surat Ho, Surat",Surat,395003,India,Monday-Sunday 8am - 9pm,Cash,INR (Indian Rupees),https://www.medicineindia.org/pharmacy-chemist-drugstore-details/53348/shree-yogeshwari-medical-store
331,Pharmacy,Shree Yogi Medicals,9426847602,"Shop No 7 3rd Floor Siddhi Complex, Care &amp; Caur Hospital, City Light Road, Citylight Road, Surat",Surat,395007,India,Monday-Sunday 8am - 9pm,Cash,INR (Indian Rupees),https://www.medicineindia.org/pharmacy-chemist-drugstore-details/53488/shree-yogi-medicals
332,Pharmacy,Shri Homoeopathic Medical Store,7802924064,"Sahyog Shopping Center, Opposite Dena Bank, Udhna Main Road, Surat",Surat,395002,India,Monday-Sunday 8am - 9pm,Cash,INR (Indian Rupees),https://www.medicineindia.org/pharmacy-chemist-drugstore-details/53321/shri-homoeopathic-medical-store
333,Pharmacy,Shri Krishna Medico & General Store,9879164503,"4, Samrat Park, Opp.bsnl Office, Palanpur Patiya, Palanpur Patia, Surat",Surat,395009,India,Monday-Sunday 8am - 9pm,Cash,INR (Indian Rupees),https://www.medicineindia.org/pharmacy-chemist-drugstore-details/53486/shri-krishna-medico-general-store
334,Pharmacy,Shri Shri Medical Store,(02626) 293444,"Nr. Adarsh Guest House, Station Road, Vyara, Surat",Surat,394650,India,Monday-Sunday 8am - 9pm,Cash,INR (Indian Rupees),https://www.medicineindia.org/pharmacy-chemist-drugstore-details/53402/shri-shri-medical-store
335,Pharmacy,Shrijee Medical Store,9427177217,"No 2, Baroda Pristage, B B Complex, Varachha Main Road, Surat, SURAT",Surat,395006,India,Monday-Sunday 8am - 9pm,Cash,INR (Indian Rupees),https://www.medicineindia.org/pharmacy-chemist-drugstore-details/53312/shrijee-medical-store
336,Pharmacy,Shrinathji Chemist,9898493495,"B/2, Rajlaxmi Complex, Dabholi Cross Road, Ved Road, Surat",Surat,395004,India,Monday-Sunday 8am - 9pm,Cash,INR (Indian Rupees),https://www.medicineindia.org/pharmacy-chemist-drugstore-details/53400/shrinathji-chemist
337,Pharmacy,Shriram Medical And Provision Store,(0261) 2485483,"5 Shiv Rajani Shopping Centre, Opp Mamta Juice Centre Shiganpur, Char Rasta, Katargram, Surat",Surat,395004,India,Monday-Sunday 8am - 9pm,Cash,INR (Indian Rupees),https://www.medicineindia.org/pharmacy-chemist-drugstore-details/53394/shriram-medical-and-provision-store
338,Pharmacy,Shubham Medical Stores,(0261) 2451469,"6/592, Moti Sheri, Galemandi, Kotsafil Road, Surat Ho, Surat",Surat,395003,India,Monday-Sunday 8am - 9pm,Cash,INR (Indian Rupees),https://www.medicineindia.org/pharmacy-chemist-drugstore-details/53414/shubham-medical-stores
339,Pharmacy,Siddheshwar Medicals,9228238437,"6, Vikram Nagar Society, Punagam, Surat",Surat,394210,India,Monday-Sunday 8am - 9pm,Cash,INR (Indian Rupees),https://www.medicineindia.org/pharmacy-chemist-drugstore-details/53260/siddheshwar-medicals
340,Pharmacy,Sifa Medical Stores,(0261) 2871800,"A-01, Opp Sabji Market, Unn, Ta Choryasi, Un, Surat",Surat,394210,India,Monday-Sunday 8am - 9pm,Cash,INR (Indian Rupees),https://www.medicineindia.org/pharmacy-chemist-drugstore-details/53256/sifa-medical-stores
341,Pharmacy,Sindh Ayurvedic Pharmacy,(0261) 2427422,"Opp New Police Station, Chautapul, Surat Ho, Surat",Surat,395003,India,Monday-Sunday 8am - 9pm,Cash,INR (Indian Rupees),https://www.medicineindia.org/pharmacy-chemist-drugstore-details/53336/sindh-ayurvedic-pharmacy
342,Pharmacy,Sitaram Medical & Pro Store,9825768019,"48,New Baroda Pristage, Varachha Road, Raghu Bhavan, Varachha Road, Surat",Surat,395006,India,Monday-Sunday 8am - 9pm,Cash,INR (Indian Rupees),https://www.medicineindia.org/pharmacy-chemist-drugstore-details/53297/sitaram-medical-pro-store
343,Pharmacy,Sitaram Medical Store,9879191121,"Kadodara, Surat",Surat,394210,India,Monday-Sunday 8am - 9pm,Cash,INR (Indian Rupees),https://www.medicineindia.org/pharmacy-chemist-drugstore-details/53373/sitaram-medical-store
344,Pharmacy,Smaile Medicine,9725181333,"A-6, Swapna Srushti Complex, Opp. T.v.s. Auto Point, Nr. Saibaba Mandir, Parvat Patia, Surat",Surat,395010,India,Monday-Sunday 8am - 9pm,Cash,INR (Indian Rupees),https://www.medicineindia.org/pharmacy-chemist-drugstore-details/53264/smaile-medicine
345,Pharmacy,Soham Medical Store,(0261) 2531887,"157, Kubernagar 1, Near Katargam Darwaja, Katargram, SURAT",Surat,395004,India,Monday-Sunday 8am - 9pm,Cash,INR (Indian Rupees),https://www.medicineindia.org/pharmacy-chemist-drugstore-details/53390/soham-medical-store
346,Pharmacy,Spaico Pharmacy,(0261) 2414767,"11718 Bushra Appartment, Masala Galli, Shahpore, Surat",Surat,395003,India,Monday-Sunday 8am - 9pm,Cash,INR (Indian Rupees),https://www.medicineindia.org/pharmacy-chemist-drugstore-details/53185/spaico-pharmacy
347,Pharmacy,Sterling Medicines,9377794100,"L 6 Kiran Chamber, Nr Chamunda Restaurant, Ring Road, Ring Road, Surat",Surat,395002,India,Monday-Sunday 8am - 9pm,Cash,INR (Indian Rupees),https://www.medicineindia.org/pharmacy-chemist-drugstore-details/53141/sterling-medicines
348,Pharmacy,Stuti Medical & General Store,9725782830,"10, Vrundavan Raw House, Opposite Ramji Mandir, Pandesara, Surat",Surat,394221,India,Monday-Sunday 8am - 9pm,Cash,INR (Indian Rupees),https://www.medicineindia.org/pharmacy-chemist-drugstore-details/53162/stuti-medical-general-store
349,Pharmacy,Subham Medical,8511988306,"SAI Pujan Resident, Amroli, Surat",Surat,394107,India,Monday-Sunday 8am - 9pm,Cash,INR (Indian Rupees),https://www.medicineindia.org/pharmacy-chemist-drugstore-details/53359/subham-medical
350,Pharmacy,Suddha Medical Store,(0261) 2760793,"Shop No-3, Ranpole, Adajan Dn, Surat",Surat,395009,India,Monday-Sunday 8am - 9pm,Cash,INR (Indian Rupees),https://www.medicineindia.org/pharmacy-chemist-drugstore-details/53473/suddha-medical-store
351,Pharmacy,Sumukh Medical,8128652120,"Green House, Opposite Torrent Power, Kailashnagar, Nanpura, Surat",Surat,395001,India,Monday-Sunday 8am - 9pm,Cash,INR (Indian Rupees),https://www.medicineindia.org/pharmacy-chemist-drugstore-details/53285/sumukh-medical
352,Pharmacy,Sun City Chemist,(0261) 2233432,"U 204, Kanchanjangha Complex, Near Bhatar Char Rasta, Bhatar Road, Ankhleswar Industial Industris, Surat",Surat,395001,India,Monday-Sunday 8am - 9pm,Cash,INR (Indian Rupees),https://www.medicineindia.org/pharmacy-chemist-drugstore-details/53282/sun-city-chemist
353,Pharmacy,Sunil Medical Agencies,(0261) 2412210,"Shop No 12/185, Rani Talao Opp Musalman Tekra, Renuka Street, Surat Ho, Surat",Surat,395003,India,Monday-Sunday 8am - 9pm,Cash,INR (Indian Rupees),https://www.medicineindia.org/pharmacy-chemist-drugstore-details/53153/sunil-medical-agencies
354,Pharmacy,Sunlit Medical Store,(0261) 2778778,"Adajan Patia, Near Adajan Circle, Olpad, Surat",Surat,395005,India,Monday-Sunday 8am - 9pm,Cash,INR (Indian Rupees),https://www.medicineindia.org/pharmacy-chemist-drugstore-details/53232/sunlit-medical-store
355,Pharmacy,Suraj Medical & General Stores,(0261) 6956295,"Shop No. 36, Shantikunj Shoping Center, Palanpur Jakat Naka, Mini Veerpur Road, Palanpur Jakat Naka, Surat",Surat,395009,India,Monday-Sunday 8am - 9pm,Cash,INR (Indian Rupees),https://www.medicineindia.org/pharmacy-chemist-drugstore-details/53498/suraj-medical-general-stores
356,Pharmacy,Suraj Medical Store,(02622) 229718,"Near Alankar Cinema, Ten Road, Bardoli, Surat",Surat,394601,India,Monday-Sunday 8am - 9pm,Cash,INR (Indian Rupees),https://www.medicineindia.org/pharmacy-chemist-drugstore-details/53229/suraj-medical-store
357,Pharmacy,Suvidha Medical Stores,(0261) 2767563,"22 Mangalmurti Apartments, Limda Chowk, Rander Rd, Surat Ho, Surat",Surat,395003,India,Monday-Sunday 8am - 9pm,Cash,INR (Indian Rupees),https://www.medicineindia.org/pharmacy-chemist-drugstore-details/53337/suvidha-medical-stores
358,Pharmacy,Suyog Medical Store,9427151260,"Shop No.1, Near Shraddha Hospital, M G Road, Bardoli, Surat",Surat,394601,India,Monday-Sunday 8am - 9pm,Cash,INR (Indian Rupees),https://www.medicineindia.org/pharmacy-chemist-drugstore-details/53228/suyog-medical-store
359,Pharmacy,Tanish Medical Stores,(0261) 6950944,"11, Varsha Society, Vibhag - 2, L P Savani School Shopping Center, L H Road, Matawadi, Varachha Road, Surat",Surat,395006,India,Monday-Sunday 8am - 9pm,Cash,INR (Indian Rupees),https://www.medicineindia.org/pharmacy-chemist-drugstore-details/53309/tanish-medical-stores
360,Pharmacy,Tejani Medical Centre,(0261) 2521891,"Dabholi Circle, Ved Road, SURAT",Surat,395004,India,Monday-Sunday 8am - 9pm,Cash,INR (Indian Rupees),https://www.medicineindia.org/pharmacy-chemist-drugstore-details/53142/tejani-medical-centre
361,Pharmacy,Topaz The Furniture World,(0261) 2254947,"Chandni Chowk, Piplod, Surat",Surat,395007,India,Monday-Sunday 8am - 9pm,Cash,INR (Indian Rupees),https://www.medicineindia.org/pharmacy-chemist-drugstore-details/53150/topaz-the-furniture-world
362,Pharmacy,Tulsi Medical,9427165140,"A/R/13 Shop No 3 Deepmala Complex, Udhna, Road No 1, Mahatma Gandhi Road, Udhna, Surat",Surat,394210,India,Monday-Sunday 8am - 9pm,Cash,INR (Indian Rupees),https://www.medicineindia.org/pharmacy-chemist-drugstore-details/53257/tulsi-medical
363,Pharmacy,Vadheshwari Medical Stores,9825112423,"383, Varsha Society, B/W Sarvoday Vidhyalay, Lambe Hanuman Road, Surat Ho, Surat",Surat,395003,India,Monday-Sunday 8am - 9pm,Cash,INR (Indian Rupees),https://www.medicineindia.org/pharmacy-chemist-drugstore-details/53415/vadheshwari-medical-stores
364,Pharmacy,Vaibhav Chemist,(0261) 2747705,"12, Garden View Apartment, Adajan, Honey Park Road, Adajan Dn, Surat",Surat,395009,India,Monday-Sunday 8am - 9pm,Cash,INR (Indian Rupees),https://www.medicineindia.org/pharmacy-chemist-drugstore-details/53503/vaibhav-chemist
365,Pharmacy,Vardhman Medical Store,(0261) 2650012,"Ug 6, Sarela Shopping Centre, Ghoddod Road, Surat",Surat,395007,India,Monday-Sunday 8am - 9pm,Cash,INR (Indian Rupees),https://www.medicineindia.org/pharmacy-chemist-drugstore-details/53346/vardhman-medical-store
366,Pharmacy,Videhkrupa Medical Store,9662023746,"12, Shiv Campus, Near L P Savani Circle, Behind Drishti Complex, Adajan Dn, Surat",Surat,395009,India,Monday-Sunday 8am - 9pm,Cash,INR (Indian Rupees),https://www.medicineindia.org/pharmacy-chemist-drugstore-details/53469/videhkrupa-medical-store
367,Pharmacy,Vijay Medico,(0261) 6456844,"G-1, Shankheshwar Complex, Opposite Parvat Patia, Puna Kumbhariya Road, Parvat Patia, Surat",Surat,395010,India,Monday-Sunday 8am - 9pm,Cash,INR (Indian Rupees),https://www.medicineindia.org/pharmacy-chemist-drugstore-details/53180/vijay-medico
368,Pharmacy,Vijay Medicos,9033600940,"Shop 31,Silver Plaza Complex, Gandhi Road, Bardoli, Surat",Surat,394601,India,Monday-Sunday 8am - 9pm,Cash,INR (Indian Rupees),https://www.medicineindia.org/pharmacy-chemist-drugstore-details/53231/vijay-medicos
369,Pharmacy,Vijay Medicos Chemist & Druggist,9377639429,"Shop No. 5, Navab Chal, Nr. Chamunda Hotel, Sahara Darvaja, Ring Road, Ring Road, Surat",Surat,395002,India,Monday-Sunday 8am - 9pm,Cash,INR (Indian Rupees),https://www.medicineindia.org/pharmacy-chemist-drugstore-details/53161/vijay-medicos-chemist-druggist
370,Pharmacy,Vikram Medical Store,9722191399,"No: 12, Nr Bombay Shopping Center, Opp Darpan Cinema, L H Road, Surat, SURAT",Surat,395009,India,Monday-Sunday 8am - 9pm,Cash,INR (Indian Rupees),https://www.medicineindia.org/pharmacy-chemist-drugstore-details/53478/vikram-medical-store
371,Pharmacy,Vikram Medicals And General Stores,9998436372,"Plot No-11, Bilieya Nagar-2, Navagam Dindoli Road, Surat Ho, Surat",Surat,395003,India,Monday-Sunday 8am - 9pm,Cash,INR (Indian Rupees),https://www.medicineindia.org/pharmacy-chemist-drugstore-details/53406/vikram-medicals-and-general-stores
372,Pharmacy,Vinayak Mediacl Store,(0261) 2514353,"3, Pandol Shopping Centre, Ved Road, Surat",Surat,395004,India,Monday-Sunday 8am - 9pm,Cash,INR (Indian Rupees),https://www.medicineindia.org/pharmacy-chemist-drugstore-details/53467/vinayak-mediacl-store
373,Pharmacy,Vinayak Medical And General Store,9428143402,"L.4,Plot No.4, Prasad Chember, G.i.d.c.sachin, Sachin G I D C, Surat",Surat,394520,India,Monday-Sunday 8am - 9pm,Cash,INR (Indian Rupees),https://www.medicineindia.org/pharmacy-chemist-drugstore-details/53203/vinayak-medical-and-general-store
374,Pharmacy,Vishwas Medical And General Stores,(0261) 6996671,"Shop No 1, Jivanganganagar, Udhna, Udhanagaon, Surat",Surat,394210,India,Monday-Sunday 8am - 9pm,Cash,INR (Indian Rupees),https://www.medicineindia.org/pharmacy-chemist-drugstore-details/53291/vishwas-medical-and-general-stores
375,Pharmacy,Vishwas Medical Stores,9913166107,"4, Rameshwar Shopping Centre, L H Road, Kapodra, Surat",Surat,395006,India,Monday-Sunday 8am - 9pm,Cash,INR (Indian Rupees),https://www.medicineindia.org/pharmacy-chemist-drugstore-details/53268/vishwas-medical-stores
376,Pharmacy,Vivek Medical Store,(0261) 2256267,"H/20 Mahalaxmi Complex, Bhatar Char Rasta, Bhatar Road, SURAT",Surat,395007,India,Monday-Sunday 8am - 9pm,Cash,INR (Indian Rupees),https://www.medicineindia.org/pharmacy-chemist-drugstore-details/53445/vivek-medical-store
377,Pharmacy,Vrundavan Medical & Provision Store,(0261) 2256651,"G- 4 Bhagwati Ashish Appartment -2, City Light Main Road, Parle Point, SURAT",Surat,395007,India,Monday-Sunday 8am - 9pm,Cash,INR (Indian Rupees),https://www.medicineindia.org/pharmacy-chemist-drugstore-details/53446/vrundavan-medical-provision-store
378,Pharmacy,Welcome Medical,(0261) 2550128,"C/O, Kashiba Hospital, 4 Jamuna Chambers, Near Shakti Vijay Society, Near Laxmi Hotel, Varachha Road, Surat",Surat,395006,India,Monday-Sunday 8am - 9pm,Cash,INR (Indian Rupees),https://www.medicineindia.org/pharmacy-chemist-drugstore-details/53158/welcome-medical
379,Pharmacy,Well Nature Medical Store,9898849850,"Kimawati Complex, Opposite Bank Of Baroda, Near Railway Station, Olpad, Surat",Surat,394540,India,Monday-Sunday 8am - 9pm,Cash,INR (Indian Rupees),https://www.medicineindia.org/pharmacy-chemist-drugstore-details/53512/well-nature-medical-store
380,Pharmacy,Yash Medical Store,(0261) 6959264,"U - 6, Yash Kamal Complex, Below Puja Hospital, Main Road, Udhna, Surat",Surat,394210,India,Monday-Sunday 8am - 9pm,Cash,INR (Indian Rupees),https://www.medicineindia.org/pharmacy-chemist-drugstore-details/53384/yash-medical-store
381,Pharmacy,Yashfeen Medical And Provision Stor...,9825775487,"Shop 5, Maviya Residency, Near Koz Way, Gorat, Ajmeri Cross Road, Surat Ho, Surat",Surat,395003,India,Monday-Sunday 8am - 9pm,Cash,INR (Indian Rupees),https://www.medicineindia.org/pharmacy-chemist-drugstore-details/53201/yashfeen-medical-and-provision-stor
382,Pharmacy,Yogeshwar Medical & Provision Stores,9825262184,"6, Sandhya Vandan Society, Palanpur Road, Palanpur Jakat Naka, Surat",Surat,395009,India,Monday-Sunday 8am - 9pm,Cash,INR (Indian Rupees),https://www.medicineindia.org/pharmacy-chemist-drugstore-details/53497/yogeshwar-medical-provision-stores
383,Pharmacy,Zainab medical & general store,9998266670,"plot no:38 low cost colony near umarwada health center,umarwada.surat",Surat,395002,India,Monday-Sunday 8am - 9pm,Cash,INR (Indian Rupees),https://www.medicineindia.org/pharmacy-chemist-drugstore-details/82221/zainab-medical-general-store
