,Type,Photo,Name,Speciality,Address,City,State,Country,Contacts,Page Link,Raitngs,Votes
0,Hospital,https://content.jdmagicbox.com/comp/surat/v6/0261px261.x261.170501133132.f7v6/catalogue/unity-hospital-parvat-patia-surat-neurologists-jopxmt.jpg?clr=#464620?fit=around%7C270%3A130&crop=270%3A130%3B%2A%2C%2A,Unity Hospital,Multispeciality Hospitals in Surat,"Aai Mata Road, Par.. |",Surat,Gujarat,India,08045786199,https://www.justdial.com/Surat/Unity-Hospital-Near-D-R-World-Parvat-Patia/0261PX261-X261-170501133132-F7V6_BZDET?xid=U3VyYXQgTXVsdGlzcGVjaWFsaXR5IEhvc3BpdGFscw==,4.0,NaN
1,Hospital,https://content.jdmagicbox.com/comp/surat/b5/0261px261.x261.170107132333.r6b5/catalogue/city-life-care-multispeciality-hospital-kamrej-char-rasta-surat-hospitals-j2lwew.jpg?clr=#123e54?fit=around%7C270%3A130&crop=270%3A130%3B%2A%2C%2A,City Life Care Multispecial..,Multispeciality Hospitals,"Kamrej Road, Kamre.. |",Surat,Gujarat,India,07947255441,https://www.justdial.com/Surat/City-Life-Care-Multispeciality-Hospital-Kamrej-Char-Rasta/0261PX261-X261-170107132333-R6B5_BZDET?xid=U3VyYXQgTXVsdGlzcGVjaWFsaXR5IEhvc3BpdGFscw==,4.9,130 Votes
2,Hospital,https://content.jdmagicbox.com/comp/surat/48/0261p261std2148/catalogue/harsh-hospital-and-maternity-home-adajan-road-surat-hospitals-61qke7ejkg.jpg?fit=around%7C270%3A130&crop=270%3A130%3B%2A%2C%2A,Harsh Hospital & Maternity ..,Hospitals near me,Gujarat Gas Circle.. |,Surat,Gujarat,India,07947446035,https://www.justdial.com/Surat/Harsh-Hospital-Maternity-Home-Near-Sanghvi-Tower-Gujarat-Gas-Circle-Adajan-Road/0261P261STD2148_BZDET?xid=U3VyYXQgTXVsdGlzcGVjaWFsaXR5IEhvc3BpdGFscw==,4.9,NaN
3,Hospital,https://content.jdmagicbox.com/comp/surat/dc/0261px261.x261.090613093539.q8n6dc/catalogue/asutosh-multispeciality-hospital-majura-gate-surat-hospitals-8fqv5.jpg?clr=#1d492c?fit=around%7C270%3A130&crop=270%3A130%3B%2A%2C%2A,Asutosh Multispeciality Hos..,Private Hospitals near me,"Kshetrapal Road, M.. |",Surat,Gujarat,India,07947255775,https://www.justdial.com/Surat/Asutosh-Multispeciality-Hospital-Kailash-Nagar-Beside-Kshetrapal-Temple-Majura-Gate/0261PX261-X261-090613093539-Q8N6DC_BZDET?xid=U3VyYXQgTXVsdGlzcGVjaWFsaXR5IEhvc3BpdGFscw==,4.3,414 Votes
4,Hospital,https://content.jdmagicbox.com/comp/surat/k6/0261px261.x261.140410075607.y4k6/catalogue/malavia-hospital-adajan-dn-surat-hospitals-ggljw.jpg?clr=#47291f?fit=around%7C270%3A130&crop=270%3A130%3B%2A%2C%2A,Malavia Hospital,Eye Hospitals near me,"Anand Mahal Road, .. |",Surat,Gujarat,India,07947332895,https://www.justdial.com/Surat/Malavia-Hospital-Opposite-Prime-Arcade-Adajan-Dn/0261PX261-X261-140410075607-Y4K6_BZDET?xid=U3VyYXQgTXVsdGlzcGVjaWFsaXR5IEhvc3BpdGFscw==,4.2,NaN
5,Hospital,https://content.jdmagicbox.com/comp/surat/x1/0261px261.x261.210615135218.q2x1/catalogue/deep-children-hospital-katargam-singanpore-road-katargram-surat-children-hospitals-0u8w1k2vy7.jpg?clr=#006666?fit=around%7C270%3A130&crop=270%3A130%3B%2A%2C%2A,Deep Children Hospital,Children Hospitals near me,Katargam Singanpor.. |,Surat,Gujarat,India,07947247649,https://www.justdial.com/Surat/Deep-Children-Hospital-Near-Rajdeep-Society-Katargam-Singanpore-Road-Katargram/0261PX261-X261-210615135218-Q2X1_BZDET?xid=U3VyYXQgTXVsdGlzcGVjaWFsaXR5IEhvc3BpdGFscw==,4.5,208 Votes
6,Hospital,https://content.jdmagicbox.com/comp/surat/x4/0261px261.x261.181115190511.e6x4/catalogue/apex-hospital-and-icu-pal-bhatha-surat-hospitals-zulo5so6xv.jpg?clr=#203346?fit=around%7C270%3A130&crop=270%3A130%3B%2A%2C%2A,Apex Hospital & ICU,Charitable Hospitals near me,New Gaurav Path Ro.. |,Surat,Gujarat,India,07947079718,https://www.justdial.com/Surat/Apex-Hospital-ICU-Near-Raj-Corner-Pal-Bhatha/0261PX261-X261-181115190511-E6X4_BZDET?xid=U3VyYXQgTXVsdGlzcGVjaWFsaXR5IEhvc3BpdGFscw==,4.6,NaN
7,Hospital,https://content.jdmagicbox.com/comp/surat/e8/0261px261.x261.181214194610.l5e8/catalogue/ratandeep-cancer-centre-and-multi-speciality-hospital-surat-joutd6zblf.jpg?clr=#392d2d?fit=around%7C270%3A130&crop=270%3A130%3B%2A%2C%2A,Ratandeep - Cancer Centre a..,Shalby Hospitals near me,"Citylight Road, Ne.. |",Surat,Gujarat,India,07947077139,https://www.justdial.com/Surat/Ratandeep-Cancer-Centre-and-Multi-Speciality-Hospital-Opposite-Spring-Valley-Apartments-New-City-Light/0261PX261-X261-181214194610-L5E8_BZDET?xid=U3VyYXQgTXVsdGlzcGVjaWFsaXR5IEhvc3BpdGFscw==,4.4,537 Votes
8,Hospital,https://content.jdmagicbox.com/comp/surat/f2/0261px261.x261.190204182851.c8f2/catalogue/golden-care-multispeciality-hospital-city-light-town-surat-polyclinics-fbuu0sobwa.jpg?clr=#521414?fit=around%7C270%3A130&crop=270%3A130%3B%2A%2C%2A,Golden Care Multispeciality..,Maternity Hospitals near me,"Citylight Road, Ci.. |",Surat,Gujarat,India,07947082177,https://www.justdial.com/Surat/Golden-Care-Multispeciality-Hospital-Opposite-Science-Center-City-Light-Town/0261PX261-X261-190204182851-C8F2_BZDET?xid=U3VyYXQgTXVsdGlzcGVjaWFsaXR5IEhvc3BpdGFscw==,4.9,NaN
9,Hospital,https://content.jdmagicbox.com/comp/surat/y9/0261px261.x261.131224111304.z3y9/catalogue/skinwise-skin-and-hair-transplant-clinic-adajan-dn-surat-hair-loss-doctors-tm3sxsq7tv.jpg?clr=#2e382e?fit=around%7C270%3A130&crop=270%3A130%3B%2A%2C%2A,Skinwise Skin clinic And Me..,Veterinary Hospitals near me,"Hazira Road, Adaja.. |",Surat,Gujarat,India,07947295553,https://www.justdial.com/Surat/Skinwise-Skin-clinic-And-Mediwise-Hospital-Icu-Opposit-Bhulaka-Bhawan-School-Adajan-Dn/0261PX261-X261-131224111304-Z3Y9_BZDET?xid=U3VyYXQgTXVsdGlzcGVjaWFsaXR5IEhvc3BpdGFscw==,4.8,140 Votes
10,Hospital,https://content.jdmagicbox.com/comp/surat/y6/0261px261.x261.190213231728.s5y6/catalogue/sanskruti-prasutigruh-and-surgical-hospital-katargam-surat-hospitals-hz1fg7nscp.jpg?clr=#444422?fit=around%7C270%3A130&crop=270%3A130%3B%2A%2C%2A,Sanskruti Prasutigruh & Sur..,Public Hospitals near me,"Singanpor Road, Ka.. |",Surat,Gujarat,India,+(91)-9909789444,https://www.justdial.com/Surat/Sanskruti-Prasutigruh-Surgical-Hospital-Katargam/0261PX261-X261-190213231728-S5Y6_BZDET?xid=U3VyYXQgTXVsdGlzcGVjaWFsaXR5IEhvc3BpdGFscw==,5.0,NaN
11,Hospital,https://content.jdmagicbox.com/comp/def_content/hospitals/default-hospitals-18.jpg?clr=#143d52?fit=around%7C270%3A130&crop=270%3A130%3B%2A%2C%2A,Nirmal Hospital Pvt Ltd,Coronavirus Treatment Hospitals near me,"Civil Cross Road, .. |",Surat,Gujarat,India,08045795165,https://www.justdial.com/Surat/Nirmal-Hospital-Pvt-Ltd-Sagrampura/0261PX261-X261-210326115717-M9B9_BZDET?xid=U3VyYXQgTXVsdGlzcGVjaWFsaXR5IEhvc3BpdGFscw==,4.2,1 Votes
12,Hospital,https://content.jdmagicbox.com/comp/surat/g1/0261px261.x261.160709165303.n8g1/catalogue/v4u-multi-speciality-hospital-palanpur-jakat-naka-surat-dermatologists-3bb6mke.png?clr=#28283e?fit=around%7C270%3A130&crop=270%3A130%3B%2A%2C%2A,V4u Multi Speciality Hospit..,NaN,"Canal Road, Palanp.. |",Surat,Gujarat,India,07947255363,https://www.justdial.com/Surat/V4u-Multi-Speciality-Hospital-Near-L-P-Savani-School-Palanpur-Jakat-Naka/0261PX261-X261-160709165303-N8G1_BZDET?xid=U3VyYXQgTXVsdGlzcGVjaWFsaXR5IEhvc3BpdGFscw==,4.1,NaN
13,Hospital,https://content.jdmagicbox.com/comp/surat/u5/0261px261.x261.210729192424.h4u5/catalogue/-caaw62ad6c.jpg?clr=#4d331a?fit=around%7C270%3A130&crop=270%3A130%3B%2A%2C%2A,Monarch Multi-Speciality Ho..,NaN,Pal Gam Road-Palan.. |,Surat,Gujarat,India,07947060598,https://www.justdial.com/Surat/Monarch-Multi-Speciality-Hospital-Pal-Gam-Road-Palanpur-Patia/0261PX261-X261-210729192424-H4U5_BZDET?xid=U3VyYXQgTXVsdGlzcGVjaWFsaXR5IEhvc3BpdGFscw==,5.0,38 Votes
14,Hospital,https://content.jdmagicbox.com/comp/surat/u3/0261px261.x261.210318172147.f6u3/catalogue/amrutam-multispeciality-hospital-puna-patiya-surat-8v5p1f39g6.jpg?clr=#333333?fit=around%7C270%3A130&crop=270%3A130%3B%2A%2C%2A,Amrutam Multispeciality Hos..,NaN,"Patiya Main Road, .. |",Surat,Gujarat,India,08045793359,https://www.justdial.com/Surat/Amrutam-Multispeciality-Hospital-ICU-Near-CNG-Pump-Puna-Patiya/0261PX261-X261-210318172147-F6U3_BZDET?xid=U3VyYXQgTXVsdGlzcGVjaWFsaXR5IEhvc3BpdGFscw==,4.9,NaN
15,Hospital,https://content.jdmagicbox.com/comp/surat/m6/0261px261.x261.130807101148.n9m6/catalogue/sanjeevani-multi-speciality-hospital-vesu-surat-hospitals-dhqv7g6cfv.jpg?clr=#2b2b3b?fit=around%7C270%3A130&crop=270%3A130%3B%2A%2C%2A,Sanjeevani Multi Speciality..,NaN,"University Road, V.. |",Surat,Gujarat,India,07947254889,https://www.justdial.com/Surat/Sanjeevani-Multi-Speciality-Hospital-Opposite-S-D-Jain-School-Vesu/0261PX261-X261-130807101148-N9M6_BZDET?xid=U3VyYXQgTXVsdGlzcGVjaWFsaXR5IEhvc3BpdGFscw==,4.5,81 Votes
16,Hospital,https://content.jdmagicbox.com/comp/surat/w9/0261px261.x261.210208130542.z3w9/catalogue/shree-prannath-multispeciality-hospital-amroli-surat-orthopaedic-doctors-8fs11hgi7h.jpg?clr=#254141?fit=around%7C270%3A130&crop=270%3A130%3B%2A%2C%2A,Shree Prannath Multispecial..,NaN,Amroli Chhapar Bha.. |,Surat,Gujarat,India,07947290314,https://www.justdial.com/Surat/Shree-Prannath-Multispeciality-Hospital-Amroli/0261PX261-X261-210208130542-Z3W9_BZDET?xid=U3VyYXQgTXVsdGlzcGVjaWFsaXR5IEhvc3BpdGFscw==,5.0,NaN
17,Hospital,https://content.jdmagicbox.com/comp/surat/l6/0261px261.x261.151231170645.j3l6/catalogue/anupam-hospital-parvat-patia-surat-hospitals-bfhro85m30.jpg?clr=#28333e?fit=around%7C270%3A130&crop=270%3A130%3B%2A%2C%2A,Anupam Hospital,NaN,"Canal Road, Parvat.. |",Surat,Gujarat,India,07947255292,https://www.justdial.com/Surat/Anupam-Hospital-Opposite-Amazia-Water-Park-Parvat-Patia/0261PX261-X261-151231170645-J3L6_BZDET?xid=U3VyYXQgTXVsdGlzcGVjaWFsaXR5IEhvc3BpdGFscw==,4.2,96 Votes
18,Hospital,https://content.jdmagicbox.com/comp/surat/u7/0261px261.x261.160928093117.i7u7/catalogue/green-leaf-hospital-surat-mafak8am98.jpg?clr=#333333?fit=around%7C270%3A130&crop=270%3A130%3B%2A%2C%2A,Green Leaf Hospital,NaN,"Vesu Cross Road, V.. |",Surat,Gujarat,India,07947082787,https://www.justdial.com/Surat/Green-Leaf-Hospital-Opposite-Vijayalaxmi-Hall-Vesu/0261PX261-X261-160928093117-I7U7_BZDET?xid=U3VyYXQgTXVsdGlzcGVjaWFsaXR5IEhvc3BpdGFscw==,4.5,NaN
19,Hospital,https://content.jdmagicbox.com/comp/def_content/blood-testing-centres/ou3dqtaqml-blood-testing-centres-10-cq540.jpg?clr=#273f27?fit=around%7C270%3A130&crop=270%3A130%3B%2A%2C%2A,Velocity Multispeciality Ho..,NaN,"Lp Savani Road, Ad.. |",Surat,Gujarat,India,07947291432,https://www.justdial.com/Surat/Velocity-Multispeciality-Hospital-Near-Madhuvan-Circle-Adajan-Dn/0261PX261-X261-210527111125-Z5X3_BZDET?xid=U3VyYXQgTXVsdGlzcGVjaWFsaXR5IEhvc3BpdGFscw==,5.0,8 Votes
20,Hospital,https://content.jdmagicbox.com/comp/surat/x4/0261px261.x261.181115190511.e6x4/catalogue/apex-hospital-and-icu-pal-bhatha-surat-hospitals-zulo5so6xv.jpg?clr=#203346?fit=around%7C270%3A130&crop=270%3A130%3B%2A%2C%2A,Apex Hospital & ICU,Multispeciality Hospitals in Surat,New Gaurav Path Ro.. |,Surat,Gujarat,India,07947079718,https://www.justdial.com/Surat/Apex-Hospital-ICU-Near-Raj-Corner-Pal-Bhatha/0261PX261-X261-181115190511-E6X4_BZDET?xid=U3VyYXQgTXVsdGlzcGVjaWFsaXR5IEhvc3BpdGFscw==,4.6,NaN
21,Hospital,https://content.jdmagicbox.com/comp/surat/u5/0261px261.x261.210729192424.h4u5/catalogue/-caaw62ad6c.jpg?clr=#4d331a?fit=around%7C270%3A130&crop=270%3A130%3B%2A%2C%2A,Monarch Multi-Speciality Ho..,Multispeciality Hospitals,Pal Gam Road-Palan.. |,Surat,Gujarat,India,07947060598,https://www.justdial.com/Surat/Monarch-Multi-Speciality-Hospital-Pal-Gam-Road-Palanpur-Patia/0261PX261-X261-210729192424-H4U5_BZDET?xid=U3VyYXQgTXVsdGlzcGVjaWFsaXR5IEhvc3BpdGFscw==,5.0,38 Votes
22,Hospital,https://content.jdmagicbox.com/comp/surat/m6/0261px261.x261.130807101148.n9m6/catalogue/sanjeevani-multi-speciality-hospital-vesu-surat-hospitals-dhqv7g6cfv.jpg?clr=#2b2b3b?fit=around%7C270%3A130&crop=270%3A130%3B%2A%2C%2A,Sanjeevani Multi Speciality..,Hospitals near me,"University Road, V.. |",Surat,Gujarat,India,07947254889,https://www.justdial.com/Surat/Sanjeevani-Multi-Speciality-Hospital-Opposite-S-D-Jain-School-Vesu/0261PX261-X261-130807101148-N9M6_BZDET?xid=U3VyYXQgTXVsdGlzcGVjaWFsaXR5IEhvc3BpdGFscw==,4.5,NaN
23,Hospital,https://content.jdmagicbox.com/comp/surat/f2/0261px261.x261.190204182851.c8f2/catalogue/golden-care-multispeciality-hospital-city-light-town-surat-polyclinics-fbuu0sobwa.jpg?clr=#521414?fit=around%7C270%3A130&crop=270%3A130%3B%2A%2C%2A,Golden Care Multispeciality..,Private Hospitals near me,"Citylight Road, Ci.. |",Surat,Gujarat,India,07947082177,https://www.justdial.com/Surat/Golden-Care-Multispeciality-Hospital-Opposite-Science-Center-City-Light-Town/0261PX261-X261-190204182851-C8F2_BZDET?xid=U3VyYXQgTXVsdGlzcGVjaWFsaXR5IEhvc3BpdGFscw==,4.9,1 Votes
24,Hospital,https://content.jdmagicbox.com/comp/surat/15/0261p261std2010215/catalogue/shree-prannath-multispeciality-hospital-ved-road-surat-hospitals-4lavuqg.jpg?clr=#3d2929?fit=around%7C270%3A130&crop=270%3A130%3B%2A%2C%2A,Shree Prannath Multispecial..,Eye Hospitals near me,"Prannath Marg, Ved.. |",Surat,Gujarat,India,07947254572,https://www.justdial.com/Surat/Shree-Prannath-Multispeciality-Hospital-Opposite-Nani-Bahuchraji-Mandir-Ved-Road/0261P261STD2010215_BZDET?xid=U3VyYXQgTXVsdGlzcGVjaWFsaXR5IEhvc3BpdGFscw==,4.1,NaN
25,Hospital,https://content.jdmagicbox.com/comp/surat/y9/0261px261.x261.131224111304.z3y9/catalogue/skinwise-skin-and-hair-transplant-clinic-adajan-dn-surat-hair-loss-doctors-tm3sxsq7tv.jpg?clr=#2e382e?fit=around%7C270%3A130&crop=270%3A130%3B%2A%2C%2A,Skinwise Skin clinic And Me..,Children Hospitals near me,"Hazira Road, Adaja.. |",Surat,Gujarat,India,07947295553,https://www.justdial.com/Surat/Skinwise-Skin-clinic-And-Mediwise-Hospital-Icu-Opposit-Bhulaka-Bhawan-School-Adajan-Dn/0261PX261-X261-131224111304-Z3Y9_BZDET?xid=U3VyYXQgTXVsdGlzcGVjaWFsaXR5IEhvc3BpdGFscw==,4.8,247 Votes
26,Hospital,https://content.jdmagicbox.com/comp/surat/g1/0261px261.x261.160709165303.n8g1/catalogue/v4u-multi-speciality-hospital-palanpur-jakat-naka-surat-dermatologists-3bb6mke.png?clr=#28283e?fit=around%7C270%3A130&crop=270%3A130%3B%2A%2C%2A,V4u Multi Speciality Hospit..,Charitable Hospitals near me,"Canal Road, Palanp.. |",Surat,Gujarat,India,07947255363,https://www.justdial.com/Surat/V4u-Multi-Speciality-Hospital-Near-L-P-Savani-School-Palanpur-Jakat-Naka/0261PX261-X261-160709165303-N8G1_BZDET?xid=U3VyYXQgTXVsdGlzcGVjaWFsaXR5IEhvc3BpdGFscw==,4.1,NaN
27,Hospital,https://content.jdmagicbox.com/comp/def_content/blood-testing-centres/ou3dqtaqml-blood-testing-centres-10-cq540.jpg?clr=#273f27?fit=around%7C270%3A130&crop=270%3A130%3B%2A%2C%2A,Velocity Multispeciality Ho..,Shalby Hospitals near me,"Lp Savani Road, Ad.. |",Surat,Gujarat,India,07947291432,https://www.justdial.com/Surat/Velocity-Multispeciality-Hospital-Near-Madhuvan-Circle-Adajan-Dn/0261PX261-X261-210527111125-Z5X3_BZDET?xid=U3VyYXQgTXVsdGlzcGVjaWFsaXR5IEhvc3BpdGFscw==,5.0,96 Votes
28,Hospital,https://content.jdmagicbox.com/comp/surat/y6/0261px261.x261.210716170233.y1y6/catalogue/shri-vikalp-hospital-surat-hospitals-tspf6tdsmr.jpg?clr=#333333?fit=around%7C270%3A130&crop=270%3A130%3B%2A%2C%2A,Shri Vikalp Hospital,Maternity Hospitals near me,Ugat Canal Road-Ja.. |,Surat,Gujarat,India,07947266139,https://www.justdial.com/Surat/Shri-Vikalp-Hospital-Opposite-Radiant-English-School-Ugat-Canal-Road-Jahangirpura/0261PX261-X261-210716170233-Y1Y6_BZDET?xid=U3VyYXQgTXVsdGlzcGVjaWFsaXR5IEhvc3BpdGFscw==,5.0,NaN
29,Hospital,https://content.jdmagicbox.com/comp/surat/u3/0261px261.x261.210318172147.f6u3/catalogue/amrutam-multispeciality-hospital-puna-patiya-surat-8v5p1f39g6.jpg?clr=#333333?fit=around%7C270%3A130&crop=270%3A130%3B%2A%2C%2A,Amrutam Multispeciality Hos..,Veterinary Hospitals near me,"Patiya Main Road, .. |",Surat,Gujarat,India,08045793359,https://www.justdial.com/Surat/Amrutam-Multispeciality-Hospital-ICU-Near-CNG-Pump-Puna-Patiya/0261PX261-X261-210318172147-F6U3_BZDET?xid=U3VyYXQgTXVsdGlzcGVjaWFsaXR5IEhvc3BpdGFscw==,4.9,262 Votes
30,Hospital,https://content.jdmagicbox.com/comp/surat/l6/0261px261.x261.151231170645.j3l6/catalogue/anupam-hospital-parvat-patia-surat-hospitals-bfhro85m30.jpg?clr=#28333e?fit=around%7C270%3A130&crop=270%3A130%3B%2A%2C%2A,Anupam Hospital,Public Hospitals near me,"Canal Road, Parvat.. |",Surat,Gujarat,India,07947255292,https://www.justdial.com/Surat/Anupam-Hospital-Opposite-Amazia-Water-Park-Parvat-Patia/0261PX261-X261-151231170645-J3L6_BZDET?xid=U3VyYXQgTXVsdGlzcGVjaWFsaXR5IEhvc3BpdGFscw==,4.2,NaN
31,Hospital,https://content.jdmagicbox.com/comp/surat/c3/0261px261.x261.161117191143.w1c3/catalogue/harmony-homoeopathy-clinic-adajan-dn-surat-dermatologists-5425e.jpg?clr=#333333?fit=around%7C270%3A130&crop=270%3A130%3B%2A%2C%2A,Harmony Homoeopathy Clinic,Coronavirus Treatment Hospitals near me,"Anand Mahal Road, .. |",Surat,Gujarat,India,+(91)-9376577704,https://www.justdial.com/Surat/Harmony-Homoeopathy-Clinic-Adajan-Dn/0261PX261-X261-161117191143-W1C3_BZDET?xid=U3VyYXQgTXVsdGlzcGVjaWFsaXR5IEhvc3BpdGFscw==,4.3,8 Votes
32,Hospital,https://content.jdmagicbox.com/comp/surat/w9/0261px261.x261.210208130542.z3w9/catalogue/shree-prannath-multispeciality-hospital-amroli-surat-orthopaedic-doctors-8fs11hgi7h.jpg?clr=#254141?fit=around%7C270%3A130&crop=270%3A130%3B%2A%2C%2A,Shree Prannath Multispecial..,NaN,Amroli Chhapar Bha.. |,Surat,Gujarat,India,07947290314,https://www.justdial.com/Surat/Shree-Prannath-Multispeciality-Hospital-Amroli/0261PX261-X261-210208130542-Z3W9_BZDET?xid=U3VyYXQgTXVsdGlzcGVjaWFsaXR5IEhvc3BpdGFscw==,5.0,NaN
33,Hospital,https://content.jdmagicbox.com/comp/surat/u7/0261px261.x261.160928093117.i7u7/catalogue/green-leaf-hospital-surat-mafak8am98.jpg?clr=#333333?fit=around%7C270%3A130&crop=270%3A130%3B%2A%2C%2A,Green Leaf Hospital,NaN,"Vesu Cross Road, V.. |",Surat,Gujarat,India,07947082787,https://www.justdial.com/Surat/Green-Leaf-Hospital-Opposite-Vijayalaxmi-Hall-Vesu/0261PX261-X261-160928093117-I7U7_BZDET?xid=U3VyYXQgTXVsdGlzcGVjaWFsaXR5IEhvc3BpdGFscw==,4.5,52 Votes
34,Hospital,https://content.jdmagicbox.com/comp/surat/p3/0261px261.x261.170804181919.b5p3/catalogue/dr-vipul-bhadiyadra-mota-varachha-surat-hospitals-bov70yrd50.jpg?fit=around%7C270%3A130&crop=270%3A130%3B%2A%2C%2A,Dr Vipul Bhadiyadra,NaN,"Sudama Chowk, Mota.. |",Surat,Gujarat,India,+(91)-8347610610,https://www.justdial.com/Surat/Dr-Vipul-Bhadiyadra-Sudama-Chowk-Mota-Varachha/0261PX261-X261-170804181919-B5P3_BZDET?xid=U3VyYXQgTXVsdGlzcGVjaWFsaXR5IEhvc3BpdGFscw==,3.5,NaN
35,Hospital,https://content.jdmagicbox.com/comp/surat/v7/0261px261.x261.180718201317.r8v7/catalogue/dr-rakesh-t-kukadiya-vinayak-orthopedic-hospital--surat-ufxzl8l2dj.jpg?clr=#502d16?fit=around%7C270%3A130&crop=270%3A130%3B%2A%2C%2A,Dr. Rakesh T Kukadiya ( Vin..,NaN,Godadar Nahar Road.. |,Surat,Gujarat,India,+(91)-9909699801,https://www.justdial.com/Surat/Dr-Rakesh-T-Kukadiya-Vinayak-Orthopedic-Hospital-Near-Maharana-Pratap-Chowk-Godadara/0261PX261-X261-180718201317-R8V7_BZDET?xid=U3VyYXQgTXVsdGlzcGVjaWFsaXR5IEhvc3BpdGFscw==,3.5,3 Votes
36,Hospital,https://content.jdmagicbox.com/comp/surat/n2/0261px261.x261.160204203054.z3n2/catalogue/sulok-desai-surat-09dw54knof.jpg?clr=#003366?fit=around%7C270%3A130&crop=270%3A130%3B%2A%2C%2A,Sulok Desai,NaN,Makkai Pool Circle.. |,Surat,Gujarat,India,+(91)-0261-2789923,https://www.justdial.com/Surat/Sulok-Desai-Opposite-Patel-Nagar-Society-Near-Adajan-Dargah-Compound-Makkai-Pool-Circle-Adajan-Dn/0261PX261-X261-160204203054-Z3N2_BZDET?xid=U3VyYXQgTXVsdGlzcGVjaWFsaXR5IEhvc3BpdGFscw==,4.7,NaN
37,Hospital,https://content.jdmagicbox.com/comp/surat/q8/0261px261.x261.180513115636.f2q8/catalogue/subodh-hospital-jahangirpura-surat-hospitals-gn3hp.jpg?clr=#442244?fit=around%7C270%3A130&crop=270%3A130%3B%2A%2C%2A,Subodh Hospital,NaN,Near Divyam Societ.. |,Surat,Gujarat,India,+(91)-9979110379,https://www.justdial.com/Surat/Subodh-Hospital-Beside-Laxmi-Farm-Near-Divyam-Society-Jahangirpura/0261PX261-X261-180513115636-F2Q8_BZDET?xid=U3VyYXQgTXVsdGlzcGVjaWFsaXR5IEhvc3BpdGFscw==,3.5,7 Votes
38,Hospital,https://content.jdmagicbox.com/comp/surat/s8/0261px261.x261.140418113140.c3s8/catalogue/mamta-hospital-palanpur-jakat-naka-surat-appendix-doctors-0n3ai.jpg?clr=#46202d?fit=around%7C270%3A130&crop=270%3A130%3B%2A%2C%2A,Mamta Hospital,NaN,"Canal Road, Palanp.. |",Surat,Gujarat,India,+(91)-261-2767775,https://www.justdial.com/Surat/Mamta-Hospital-Near-Katariya-Maruti-Showroom-Near-Near-L-P-Savani-School-Palanpur-Gam-Palanpur-Jakat-Naka/0261PX261-X261-140418113140-C3S8_BZDET?xid=U3VyYXQgTXVsdGlzcGVjaWFsaXR5IEhvc3BpdGFscw==,4.6,NaN
39,Hospital,https://content.jdmagicbox.com/comp/surat/92/0261p261std292/catalogue/varun-kidney-hospital-and-maternity-home-adajan-road-surat-hospitals-26d875k.jpg?clr=#222244?fit=around%7C270%3A130&crop=270%3A130%3B%2A%2C%2A,Varun Kidney Hospital & Mat..,NaN,"Anand Mahal Road, .. |",Surat,Gujarat,India,+(91)-261-2733965,https://www.justdial.com/Surat/Varun-Kidney-Hospital-Maternity-Home-Near-Snehsankul-Wadi-Adajan-Road/0261P261STD292_BZDET?xid=U3VyYXQgTXVsdGlzcGVjaWFsaXR5IEhvc3BpdGFscw==,3.3,5 Votes
40,Hospital,https://content.jdmagicbox.com/comp/surat/y6/0261px261.x261.210716170233.y1y6/catalogue/shri-vikalp-hospital-surat-hospitals-tspf6tdsmr.jpg?clr=#333333?fit=around%7C270%3A130&crop=270%3A130%3B%2A%2C%2A,Shri Vikalp Hospital,Multispeciality Hospitals in Surat,Ugat Canal Road-Ja.. |,Surat,Gujarat,India,07947266139,https://www.justdial.com/Surat/Shri-Vikalp-Hospital-Opposite-Radiant-English-School-Ugat-Canal-Road-Jahangirpura/0261PX261-X261-210716170233-Y1Y6_BZDET?xid=U3VyYXQgTXVsdGlzcGVjaWFsaXR5IEhvc3BpdGFscw==,5.0,NaN
41,Hospital,https://content.jdmagicbox.com/comp/surat/m6/0261px261.x261.130807101148.n9m6/catalogue/sanjeevani-multi-speciality-hospital-vesu-surat-hospitals-dhqv7g6cfv.jpg?clr=#2b2b3b?fit=around%7C270%3A130&crop=270%3A130%3B%2A%2C%2A,Sanjeevani Multi Speciality..,Multispeciality Hospitals,"University Road, V.. |",Surat,Gujarat,India,07947254889,https://www.justdial.com/Surat/Sanjeevani-Multi-Speciality-Hospital-Opposite-S-D-Jain-School-Vesu/0261PX261-X261-130807101148-N9M6_BZDET?xid=U3VyYXQgTXVsdGlzcGVjaWFsaXR5IEhvc3BpdGFscw==,4.5,7 Votes
42,Hospital,https://content.jdmagicbox.com/comp/surat/c3/0261px261.x261.161117191143.w1c3/catalogue/harmony-homoeopathy-clinic-adajan-dn-surat-dermatologists-5425e.jpg?clr=#333333?fit=around%7C270%3A130&crop=270%3A130%3B%2A%2C%2A,Harmony Homoeopathy Clinic,Hospitals near me,"Anand Mahal Road, .. |",Surat,Gujarat,India,+(91)-9376577704,https://www.justdial.com/Surat/Harmony-Homoeopathy-Clinic-Adajan-Dn/0261PX261-X261-161117191143-W1C3_BZDET?xid=U3VyYXQgTXVsdGlzcGVjaWFsaXR5IEhvc3BpdGFscw==,4.3,NaN
43,Hospital,https://content.jdmagicbox.com/comp/def_content/blood-testing-centres/ou3dqtaqml-blood-testing-centres-10-cq540.jpg?clr=#273f27?fit=around%7C270%3A130&crop=270%3A130%3B%2A%2C%2A,Velocity Multispeciality Ho..,Private Hospitals near me,"Lp Savani Road, Ad.. |",Surat,Gujarat,India,07947291432,https://www.justdial.com/Surat/Velocity-Multispeciality-Hospital-Near-Madhuvan-Circle-Adajan-Dn/0261PX261-X261-210527111125-Z5X3_BZDET?xid=U3VyYXQgTXVsdGlzcGVjaWFsaXR5IEhvc3BpdGFscw==,5.0,247 Votes
44,Hospital,https://content.jdmagicbox.com/comp/surat/p3/0261px261.x261.170804181919.b5p3/catalogue/dr-vipul-bhadiyadra-mota-varachha-surat-hospitals-bov70yrd50.jpg?fit=around%7C270%3A130&crop=270%3A130%3B%2A%2C%2A,Dr Vipul Bhadiyadra,Eye Hospitals near me,"Sudama Chowk, Mota.. |",Surat,Gujarat,India,+(91)-8347610610,https://www.justdial.com/Surat/Dr-Vipul-Bhadiyadra-Sudama-Chowk-Mota-Varachha/0261PX261-X261-170804181919-B5P3_BZDET?xid=U3VyYXQgTXVsdGlzcGVjaWFsaXR5IEhvc3BpdGFscw==,3.5,NaN
45,Hospital,https://content.jdmagicbox.com/comp/surat/v7/0261px261.x261.180718201317.r8v7/catalogue/dr-rakesh-t-kukadiya-vinayak-orthopedic-hospital--surat-ufxzl8l2dj.jpg?clr=#502d16?fit=around%7C270%3A130&crop=270%3A130%3B%2A%2C%2A,Dr. Rakesh T Kukadiya ( Vin..,Children Hospitals near me,Godadar Nahar Road.. |,Surat,Gujarat,India,+(91)-9909699801,https://www.justdial.com/Surat/Dr-Rakesh-T-Kukadiya-Vinayak-Orthopedic-Hospital-Near-Maharana-Pratap-Chowk-Godadara/0261PX261-X261-180718201317-R8V7_BZDET?xid=U3VyYXQgTXVsdGlzcGVjaWFsaXR5IEhvc3BpdGFscw==,3.5,21 Votes
46,Hospital,https://content.jdmagicbox.com/comp/surat/n2/0261px261.x261.160204203054.z3n2/catalogue/sulok-desai-surat-09dw54knof.jpg?clr=#003366?fit=around%7C270%3A130&crop=270%3A130%3B%2A%2C%2A,Sulok Desai,Charitable Hospitals near me,Makkai Pool Circle.. |,Surat,Gujarat,India,+(91)-0261-2789923,https://www.justdial.com/Surat/Sulok-Desai-Opposite-Patel-Nagar-Society-Near-Adajan-Dargah-Compound-Makkai-Pool-Circle-Adajan-Dn/0261PX261-X261-160204203054-Z3N2_BZDET?xid=U3VyYXQgTXVsdGlzcGVjaWFsaXR5IEhvc3BpdGFscw==,4.7,NaN
47,Hospital,https://content.jdmagicbox.com/comp/surat/s8/0261px261.x261.140418113140.c3s8/catalogue/mamta-hospital-palanpur-jakat-naka-surat-appendix-doctors-0n3ai.jpg?clr=#46202d?fit=around%7C270%3A130&crop=270%3A130%3B%2A%2C%2A,Mamta Hospital,Shalby Hospitals near me,"Canal Road, Palanp.. |",Surat,Gujarat,India,+(91)-261-2767775,https://www.justdial.com/Surat/Mamta-Hospital-Near-Katariya-Maruti-Showroom-Near-Near-L-P-Savani-School-Palanpur-Gam-Palanpur-Jakat-Naka/0261PX261-X261-140418113140-C3S8_BZDET?xid=U3VyYXQgTXVsdGlzcGVjaWFsaXR5IEhvc3BpdGFscw==,4.6,3 Votes
48,Hospital,https://content.jdmagicbox.com/comp/surat/q1/0261px261.x261.170602150448.f4q1/catalogue/krishna-children-hospital-palanpur-jakat-naka-surat-children-hospitals-1hoe4kihnj.jpg?clr=#253341?fit=around%7C270%3A130&crop=270%3A130%3B%2A%2C%2A,Krishna Children Hospital,Maternity Hospitals near me,"Pyramid Icon, Pala.. |",Surat,Gujarat,India,+(91)-9724693841,https://www.justdial.com/Surat/Krishna-Children-Hospital-Near-Shreeji-Nagari-Opposite-Pyramid-Icon-Palanpur-Jakat-Naka/0261PX261-X261-170602150448-F4Q1_BZDET?xid=U3VyYXQgTXVsdGlzcGVjaWFsaXR5IEhvc3BpdGFscw==,4.4,NaN
49,Hospital,https://content.jdmagicbox.com/comp/surat/g9/0261px261.x261.170322182952.e7g9/catalogue/shree-multi-speciality-hospital-palanpur-patia-surat-hospitals-vz5xw.jpg?clr=#423824?fit=around%7C270%3A130&crop=270%3A130%3B%2A%2C%2A,Shree Multi Speciality Hosp..,Veterinary Hospitals near me,"Patia Road, Palanp.. |",Surat,Gujarat,India,+(91)-261-2771066,https://www.justdial.com/Surat/Shree-Multi-Speciality-Hospital-Opposite-Sona-Hotel-Palanpur-Patia/0261PX261-X261-170322182952-E7G9_BZDET?xid=U3VyYXQgTXVsdGlzcGVjaWFsaXR5IEhvc3BpdGFscw==,4.1,2 Votes
50,Hospital,https://content.jdmagicbox.com/comp/surat/z4/0261px261.x261.140829202742.s1z4/catalogue/ruta-hospital-and-ivf-center-and-fertility-institute-and-sonography-center-varachha-road-surat-hospitals-0eqthzhcuj.jpg?clr=#27273f?fit=around%7C270%3A130&crop=270%3A130%3B%2A%2C%2A,Ruta Hospital & Ivf Center ..,Public Hospitals near me,"SOCIETY CORNER, V.. |",Surat,Gujarat,India,+(91)-261-25525778,https://www.justdial.com/Surat/Ruta-Hospital-Ivf-Center-Fertility-Institute-Sonography-Center-ABOVE-ARIHANT-JEWELERS-NEAR-AXIS-BANK-Varachha-Road/0261PX261-X261-140829202742-S1Z4_BZDET?xid=U3VyYXQgTXVsdGlzcGVjaWFsaXR5IEhvc3BpdGFscw==,4.5,NaN
51,Hospital,https://content.jdmagicbox.com/comp/surat/v7/0261px261.x261.131227182048.y2v7/catalogue/life-line-multi-speciality-hospital-rander-road-surat-general-physician-doctors-35qjerf.jpg?clr=#402633?fit=around%7C270%3A130&crop=270%3A130%3B%2A%2C%2A,Life Line Multi Speciality ..,Coronavirus Treatment Hospitals near me,Ramnagar Char Rast.. |,Surat,Gujarat,India,+(91)-9909959968,https://www.justdial.com/Surat/Life-Line-Multi-Speciality-Hospital-Opposite-Jhulelal-Temple-Rander-Road/0261PX261-X261-131227182048-Y2V7_BZDET?xid=U3VyYXQgTXVsdGlzcGVjaWFsaXR5IEhvc3BpdGFscw==,4.2,2 Votes
52,Hospital,https://content.jdmagicbox.com/comp/surat/a8/0261p2629.2629.120314205916.p9a8/catalogue/wings-hospital-adajan-dn-surat-private-hospitals-3gel5luc1t.jpg?clr=#402626?fit=around%7C270%3A130&crop=270%3A130%3B%2A%2C%2A,Wings Hospital,NaN,"L P Savani Road, A.. |",Surat,Gujarat,India,+(91)-261-2733660,https://www.justdial.com/Surat/Wings-Hospital-Opposite-Trinity-Business-Park-Madhuvan-Circle-Adajan-Dn/0261P2629-2629-120314205916-P9A8_BZDET?xid=U3VyYXQgTXVsdGlzcGVjaWFsaXR5IEhvc3BpdGFscw==,4.5,NaN
53,Hospital,https://content.jdmagicbox.com/comp/surat/88/0261p261std1688/catalogue/shivam-hospital-and-morpheus-shivam-international-ivf-centre-bhatar-char-rasta-surat-dermatologists-3l5vnyl.jpg?clr=#004966?fit=around%7C270%3A130&crop=270%3A130%3B%2A%2C%2A,Shivam Hospital & Morpheus ..,NaN,"Bhatar Char, Bhata.. |",Surat,Gujarat,India,+(91)-261-2260066,https://www.justdial.com/Surat/Shivam-Hospital-Morpheus-Shivam-International-Ivf-Centre-Opposite-Evershine-Marble-Near-Bhatar-Char-Rasta-Bhatar-Char-Rasta/0261P261STD1688_BZDET?xid=U3VyYXQgTXVsdGlzcGVjaWFsaXR5IEhvc3BpdGFscw==,4.3,16 Votes
54,Hospital,https://content.jdmagicbox.com/comp/surat/s1/0261px261.x261.180211150507.x2s1/catalogue/beladiya-eye-and-dental-hospital-surat-hcsug7sj4w.jpg?clr=#442222?fit=around%7C270%3A130&crop=270%3A130%3B%2A%2C%2A,Beladiya Eye And Dental Hos..,NaN,Nana Varachha Dhal.. |,Surat,Gujarat,India,+(91)-9081740401,https://www.justdial.com/Surat/Beladiya-Eye-And-Dental-Hospital-Near-Nana-Varachha-Dhal-Varachha-Road/0261PX261-X261-180211150507-X2S1_BZDET?xid=U3VyYXQgTXVsdGlzcGVjaWFsaXR5IEhvc3BpdGFscw==,4.9,NaN
55,Hospital,https://content.jdmagicbox.com/comp/surat/57/0261p261std6557/catalogue/amruta-hospital-bhatar-road-surat-hospitals-2qu2bl7.jpg?clr=#422424?fit=around%7C270%3A130&crop=270%3A130%3B%2A%2C%2A,Amruta Hospital,NaN,Vaishnodevi Temple.. |,Surat,Gujarat,India,+(91)-261-2244979,https://www.justdial.com/Surat/Amruta-Hospital-Near-Vaishnodevi-Temple-Bhatar-Road/0261P261STD6557_BZDET?xid=U3VyYXQgTXVsdGlzcGVjaWFsaXR5IEhvc3BpdGFscw==,4.0,77 Votes
56,Hospital,https://content.jdmagicbox.com/comp/surat/26/0261p261std6526/catalogue/udhna-hospital-pvt-ltd-udhna-kadodara-hospitals-yyrzy.jpg?clr=#334125?fit=around%7C270%3A130&crop=270%3A130%3B%2A%2C%2A,Udhna Hospital Pvt Ltd,NaN,"Udhna Main Road, U.. |",Surat,Gujarat,India,+(91)-8758608859,https://www.justdial.com/Surat/Udhna-Hospital-Pvt-Ltd-Behind-Dena-Bank-Udhna/0261P261STD6526_BZDET?xid=U3VyYXQgTXVsdGlzcGVjaWFsaXR5IEhvc3BpdGFscw==,4.8,NaN
57,Hospital,https://content.jdmagicbox.com/comp/surat/u4/0261px261.x261.160102141532.g5u4/catalogue/vardhman-hospital-udhna-main-road-surat-hospitals-1k0qfapf3y.jpg?clr=#492c1d?fit=around%7C270%3A130&crop=270%3A130%3B%2A%2C%2A,Vardhman Hospital,NaN,"Petrol Pump&, Udhn.. |",Surat,Gujarat,India,+(91)-0261-2275959,https://www.justdial.com/Surat/Vardhman-Hospital-Mahaiaxmi-Market-Near-Old-Petrol-Pump-Gurudwara-Udhna-Main-Road/0261PX261-X261-160102141532-G5U4_BZDET?xid=U3VyYXQgTXVsdGlzcGVjaWFsaXR5IEhvc3BpdGFscw==,4.2,16 Votes
58,Hospital,https://content.jdmagicbox.com/comp/surat/w7/0261px261.x261.181002135211.j1w7/catalogue/siya-ayurvedic-panchkarma-hospital-parvat-patia-surat-ayurvedic-clinics-377nfu5tou.jpg?clr=#462d20?fit=around%7C270%3A130&crop=270%3A130%3B%2A%2C%2A,Siya Ayurvedic Panchkarma H..,NaN,Puna Kumbharia Roa.. |,Surat,Gujarat,India,+(91)-9428955676,https://www.justdial.com/Surat/Siya-Ayurvedic-Panchkarma-Hospital-Opposite-Bhaktidham-Temple-Magob-Puna-Patiya/0261PX261-X261-181002135211-J1W7_BZDET?xid=U3VyYXQgTXVsdGlzcGVjaWFsaXR5IEhvc3BpdGFscw==,5.0,NaN
59,Hospital,https://content.jdmagicbox.com/comp/surat/q8/0261px261.x261.180513115636.f2q8/catalogue/subodh-hospital-jahangirpura-surat-hospitals-gn3hp.jpg?clr=#442244?fit=around%7C270%3A130&crop=270%3A130%3B%2A%2C%2A,Subodh Hospital,NaN,Near Divyam Societ.. |,Surat,Gujarat,India,+(91)-9979110379,https://www.justdial.com/Surat/Subodh-Hospital-Beside-Laxmi-Farm-Near-Divyam-Society-Jahangirpura/0261PX261-X261-180513115636-F2Q8_BZDET?xid=U3VyYXQgTXVsdGlzcGVjaWFsaXR5IEhvc3BpdGFscw==,3.5,26 Votes
60,Hospital,https://content.jdmagicbox.com/comp/surat/w4/0261px261.x261.170620234502.s3w4/catalogue/om-hospital-pathology-laboratory-varachha-road-surat-hospitals-rutbotlrtg.jpg?clr=#336600?fit=around%7C270%3A130&crop=270%3A130%3B%2A%2C%2A,OM Hospital Pathology Lab..,Multispeciality Hospitals in Surat,"Varachha Main Rd, .. |",Surat,Gujarat,India,+(91)-261-2554700,https://www.justdial.com/Surat/OM-Hospital-Pathology-Laboratory-Near-Surat-Super-Store-Jk-Petrol-Pump-Varachha-Road/0261PX261-X261-170620234502-S3W4_BZDET?xid=U3VyYXQgTXVsdGlzcGVjaWFsaXR5IEhvc3BpdGFscw==,4.6,NaN
61,Hospital,https://content.jdmagicbox.com/comp/surat/n2/0261px261.x261.160204203054.z3n2/catalogue/sulok-desai-surat-09dw54knof.jpg?clr=#003366?fit=around%7C270%3A130&crop=270%3A130%3B%2A%2C%2A,Sulok Desai,Multispeciality Hospitals,Makkai Pool Circle.. |,Surat,Gujarat,India,+(91)-0261-2789923,https://www.justdial.com/Surat/Sulok-Desai-Opposite-Patel-Nagar-Society-Near-Adajan-Dargah-Compound-Makkai-Pool-Circle-Adajan-Dn/0261PX261-X261-160204203054-Z3N2_BZDET?xid=U3VyYXQgTXVsdGlzcGVjaWFsaXR5IEhvc3BpdGFscw==,4.7,21 Votes
62,Hospital,https://content.jdmagicbox.com/comp/surat/35/0261p261std250335/catalogue/surbhi-hospital-maternity-home-sumul-dairy-road-surat-hospitals-47m6dzj.jpg?clr=#404d1a?fit=around%7C270%3A130&crop=270%3A130%3B%2A%2C%2A,Surbhi Hospital & Maternit..,Hospitals near me,"Sumul Dairy, Sumul.. |",Surat,Gujarat,India,+(91)-261-2536900,https://www.justdial.com/Surat/Surbhi-Hospital-Maternity-Home-Sumul-Dairy-Road/0261P261STD250335_BZDET?xid=U3VyYXQgTXVsdGlzcGVjaWFsaXR5IEhvc3BpdGFscw==,4.5,NaN
63,Hospital,https://content.jdmagicbox.com/comp/surat/m5/0261px261.x261.170128073646.g5m5/catalogue/max-hospital-godadara-surat-hospitals-1MS5tsJN2mEB8PA.jpg?clr=#4d1a1a?fit=around%7C270%3A130&crop=270%3A130%3B%2A%2C%2A,Max Hospital,Private Hospitals near me,"Devadh Canal Road,.. |",Surat,Gujarat,India,+(91)-7984059010,https://www.justdial.com/Surat/Max-Hospital-Near-Gyanjyot-School-Godadara/0261PX261-X261-170128073646-G5M5_BZDET?xid=U3VyYXQgTXVsdGlzcGVjaWFsaXR5IEhvc3BpdGFscw==,4.0,16 Votes
64,Hospital,https://content.jdmagicbox.com/comp/surat/88/0261p261std1688/catalogue/shivam-hospital-and-morpheus-shivam-international-ivf-centre-bhatar-char-rasta-surat-dermatologists-3l5vnyl.jpg?clr=#004966?fit=around%7C270%3A130&crop=270%3A130%3B%2A%2C%2A,Shivam Hospital & Morpheus ..,Eye Hospitals near me,"Bhatar Char, Bhata.. |",Surat,Gujarat,India,+(91)-261-2260066,https://www.justdial.com/Surat/Shivam-Hospital-Morpheus-Shivam-International-Ivf-Centre-Opposite-Evershine-Marble-Near-Bhatar-Char-Rasta-Bhatar-Char-Rasta/0261P261STD1688_BZDET?xid=U3VyYXQgTXVsdGlzcGVjaWFsaXR5IEhvc3BpdGFscw==,4.3,NaN
65,Hospital,https://content.jdmagicbox.com/comp/surat/57/0261p261std6557/catalogue/amruta-hospital-bhatar-road-surat-hospitals-2qu2bl7.jpg?clr=#422424?fit=around%7C270%3A130&crop=270%3A130%3B%2A%2C%2A,Amruta Hospital,Children Hospitals near me,Vaishnodevi Temple.. |,Surat,Gujarat,India,+(91)-261-2244979,https://www.justdial.com/Surat/Amruta-Hospital-Near-Vaishnodevi-Temple-Bhatar-Road/0261P261STD6557_BZDET?xid=U3VyYXQgTXVsdGlzcGVjaWFsaXR5IEhvc3BpdGFscw==,4.0,22 Votes
66,Hospital,https://content.jdmagicbox.com/comp/surat/s1/0261px261.x261.180211150507.x2s1/catalogue/beladiya-eye-and-dental-hospital-surat-hcsug7sj4w.jpg?clr=#442222?fit=around%7C270%3A130&crop=270%3A130%3B%2A%2C%2A,Beladiya Eye And Dental Hos..,Charitable Hospitals near me,Nana Varachha Dhal.. |,Surat,Gujarat,India,+(91)-9081740401,https://www.justdial.com/Surat/Beladiya-Eye-And-Dental-Hospital-Near-Nana-Varachha-Dhal-Varachha-Road/0261PX261-X261-180211150507-X2S1_BZDET?xid=U3VyYXQgTXVsdGlzcGVjaWFsaXR5IEhvc3BpdGFscw==,4.9,NaN
67,Hospital,https://content.jdmagicbox.com/comp/surat/v7/0261px261.x261.180718201317.r8v7/catalogue/dr-rakesh-t-kukadiya-vinayak-orthopedic-hospital--surat-ufxzl8l2dj.jpg?clr=#502d16?fit=around%7C270%3A130&crop=270%3A130%3B%2A%2C%2A,Dr. Rakesh T Kukadiya ( Vin..,Shalby Hospitals near me,Godadar Nahar Road.. |,Surat,Gujarat,India,+(91)-9909699801,https://www.justdial.com/Surat/Dr-Rakesh-T-Kukadiya-Vinayak-Orthopedic-Hospital-Near-Maharana-Pratap-Chowk-Godadara/0261PX261-X261-180718201317-R8V7_BZDET?xid=U3VyYXQgTXVsdGlzcGVjaWFsaXR5IEhvc3BpdGFscw==,3.5,80 Votes
68,Hospital,https://content.jdmagicbox.com/comp/surat/g9/0261px261.x261.170322182952.e7g9/catalogue/shree-multi-speciality-hospital-palanpur-patia-surat-hospitals-vz5xw.jpg?clr=#423824?fit=around%7C270%3A130&crop=270%3A130%3B%2A%2C%2A,Shree Multi Speciality Hosp..,Maternity Hospitals near me,"Patia Road, Palanp.. |",Surat,Gujarat,India,+(91)-261-2771066,https://www.justdial.com/Surat/Shree-Multi-Speciality-Hospital-Opposite-Sona-Hotel-Palanpur-Patia/0261PX261-X261-170322182952-E7G9_BZDET?xid=U3VyYXQgTXVsdGlzcGVjaWFsaXR5IEhvc3BpdGFscw==,4.1,NaN
69,Hospital,https://content.jdmagicbox.com/comp/surat/26/0261p261std6526/catalogue/udhna-hospital-pvt-ltd-udhna-kadodara-hospitals-yyrzy.jpg?clr=#334125?fit=around%7C270%3A130&crop=270%3A130%3B%2A%2C%2A,Udhna Hospital Pvt Ltd,Veterinary Hospitals near me,"Udhna Main Road, U.. |",Surat,Gujarat,India,+(91)-8758608859,https://www.justdial.com/Surat/Udhna-Hospital-Pvt-Ltd-Behind-Dena-Bank-Udhna/0261P261STD6526_BZDET?xid=U3VyYXQgTXVsdGlzcGVjaWFsaXR5IEhvc3BpdGFscw==,4.8,44 Votes
70,Hospital,https://content.jdmagicbox.com/comp/surat/s8/0261px261.x261.140418113140.c3s8/catalogue/mamta-hospital-palanpur-jakat-naka-surat-appendix-doctors-0n3ai.jpg?clr=#46202d?fit=around%7C270%3A130&crop=270%3A130%3B%2A%2C%2A,Mamta Hospital,Public Hospitals near me,"Canal Road, Palanp.. |",Surat,Gujarat,India,+(91)-261-2767775,https://www.justdial.com/Surat/Mamta-Hospital-Near-Katariya-Maruti-Showroom-Near-Near-L-P-Savani-School-Palanpur-Gam-Palanpur-Jakat-Naka/0261PX261-X261-140418113140-C3S8_BZDET?xid=U3VyYXQgTXVsdGlzcGVjaWFsaXR5IEhvc3BpdGFscw==,4.6,NaN
71,Hospital,https://content.jdmagicbox.com/comp/surat/v7/0261px261.x261.131227182048.y2v7/catalogue/life-line-multi-speciality-hospital-rander-road-surat-general-physician-doctors-35qjerf.jpg?clr=#402633?fit=around%7C270%3A130&crop=270%3A130%3B%2A%2C%2A,Life Line Multi Speciality ..,Coronavirus Treatment Hospitals near me,Ramnagar Char Rast.. |,Surat,Gujarat,India,+(91)-9909959968,https://www.justdial.com/Surat/Life-Line-Multi-Speciality-Hospital-Opposite-Jhulelal-Temple-Rander-Road/0261PX261-X261-131227182048-Y2V7_BZDET?xid=U3VyYXQgTXVsdGlzcGVjaWFsaXR5IEhvc3BpdGFscw==,4.2,119 Votes
72,Hospital,https://content.jdmagicbox.com/comp/surat/w7/0261px261.x261.181002135211.j1w7/catalogue/siya-ayurvedic-panchkarma-hospital-parvat-patia-surat-ayurvedic-clinics-377nfu5tou.jpg?clr=#462d20?fit=around%7C270%3A130&crop=270%3A130%3B%2A%2C%2A,Siya Ayurvedic Panchkarma H..,NaN,Puna Kumbharia Roa.. |,Surat,Gujarat,India,+(91)-9428955676,https://www.justdial.com/Surat/Siya-Ayurvedic-Panchkarma-Hospital-Opposite-Bhaktidham-Temple-Magob-Puna-Patiya/0261PX261-X261-181002135211-J1W7_BZDET?xid=U3VyYXQgTXVsdGlzcGVjaWFsaXR5IEhvc3BpdGFscw==,5.0,NaN
73,Hospital,https://content.jdmagicbox.com/comp/surat/p3/0261px261.x261.170804181919.b5p3/catalogue/dr-vipul-bhadiyadra-mota-varachha-surat-hospitals-bov70yrd50.jpg?fit=around%7C270%3A130&crop=270%3A130%3B%2A%2C%2A,Dr Vipul Bhadiyadra,NaN,"Sudama Chowk, Mota.. |",Surat,Gujarat,India,+(91)-8347610610,https://www.justdial.com/Surat/Dr-Vipul-Bhadiyadra-Sudama-Chowk-Mota-Varachha/0261PX261-X261-170804181919-B5P3_BZDET?xid=U3VyYXQgTXVsdGlzcGVjaWFsaXR5IEhvc3BpdGFscw==,3.5,126 Votes
74,Hospital,https://content.jdmagicbox.com/comp/surat/a8/0261p2629.2629.120314205916.p9a8/catalogue/wings-hospital-adajan-dn-surat-private-hospitals-3gel5luc1t.jpg?clr=#402626?fit=around%7C270%3A130&crop=270%3A130%3B%2A%2C%2A,Wings Hospital,NaN,"L P Savani Road, A.. |",Surat,Gujarat,India,+(91)-261-2733660,https://www.justdial.com/Surat/Wings-Hospital-Opposite-Trinity-Business-Park-Madhuvan-Circle-Adajan-Dn/0261P2629-2629-120314205916-P9A8_BZDET?xid=U3VyYXQgTXVsdGlzcGVjaWFsaXR5IEhvc3BpdGFscw==,4.5,NaN
75,Hospital,https://content.jdmagicbox.com/comp/surat/g9/0261px261.x261.110727125435.y8g9/catalogue/shifa-hospital-udhna-surat-hospitals-102j9zz.jpg?clr=#2d3939?fit=around%7C270%3A130&crop=270%3A130%3B%2A%2C%2A,Shifa Hospital,NaN,"Near Pushpa Nagar,.. |",Surat,Gujarat,India,+(91)-261-6550551,https://www.justdial.com/Surat/Shifa-Hospital-Behind-Jeevanjyot-Cinema-Near-Pushpa-Nagar-Udhna/0261PX261-X261-110727125435-Y8G9_BZDET?xid=U3VyYXQgTXVsdGlzcGVjaWFsaXR5IEhvc3BpdGFscw==,4.8,2 Votes
76,Hospital,https://content.jdmagicbox.com/comp/visnagar/e7/9999p2762.2762.200709123626.f8e7/catalogue/drashti-care-and-cure-hospital-visnagar-skjbjjdk4e.jpg?clr=#4d1a1a?fit=around%7C270%3A130&crop=270%3A130%3B%2A%2C%2A,Drashti Care and Cure Hospi..,NaN,"visnagar, Bus Station Road, .. |",Surat,Gujarat,India,+(91)-9558165965,https://www.justdial.com/Visnagar/Drashti-Care-and-Cure-Hospital-Opposite-Navdurga-Bhaji-Pav-Visnagar/9999P2762-2762-200709123626-F8E7_BZDET?xid=U3VyYXQgTXVsdGlzcGVjaWFsaXR5IEhvc3BpdGFscw==,5.0,NaN
77,Hospital,https://content.jdmagicbox.com/comp/palanpur/n1/9999p2742.2742.120716111005.y5n1/catalogue/upvan-hospital-and-ivf-center-gathaman-palanpur-hospitals-jik7oj.jpg?fit=around%7C270%3A130&crop=270%3A130%3B%2A%2C%2A,Upvan Hospital & IVF Center,NaN,"palanpur, Jagana Road, Gatha.. |",Surat,Gujarat,India,+(91)-02742-253500,https://www.justdial.com/Palanpur/Upvan-Hospital-IVF-Center-Near-LIC-Office-Suresh-Mehta-Chowk-Gathaman/9999P2742-2742-120716111005-Y5N1_BZDET?xid=U3VyYXQgTXVsdGlzcGVjaWFsaXR5IEhvc3BpdGFscw==,4.1,26 Votes
78,Hospital,https://content.jdmagicbox.com/comp/surat/k5/0261px261.x261.170203114543.w2k5/catalogue/kiran-multi-super-speciality-hospital-research-center-katargam-surat-dermatologists-i3xmbp.jpg?clr=#143d52?fit=around%7C270%3A130&crop=270%3A130%3B%2A%2C%2A,Kiran Multi Super Specialit..,NaN,"Vastadevdi Road, K.. |",Surat,Gujarat,India,+(91)-0261-7161111,https://www.justdial.com/Surat/Kiran-Multi-Super-Speciality-Hospital-Research-Center-Near-Sumul-Dairy-Katargam/0261PX261-X261-170203114543-W2K5_BZDET?xid=U3VyYXQgTXVsdGlzcGVjaWFsaXR5IEhvc3BpdGFscw==,4.4,NaN
79,Hospital,https://content.jdmagicbox.com/comp/surat/b4/0261px261.x261.150711141511.v8b4/catalogue/sunshine-global-hospital-piplod-surat-multispeciality-hospitals-113dlne.jpg?clr=#3d2929?fit=around%7C270%3A130&crop=270%3A130%3B%2A%2C%2A,Sunshine Global Hospital,NaN,"Dumas Road, Piplod.. |",Surat,Gujarat,India,+(91)-0261-4111000,https://www.justdial.com/Surat/Sunshine-Global-Hospital-Beside-Big-Bazzar-Piplod/0261PX261-X261-150711141511-V8B4_BZDET?xid=U3VyYXQgTXVsdGlzcGVjaWFsaXR5IEhvc3BpdGFscw==,4.3,454 Votes
80,Hospital,https://content.jdmagicbox.com/comp/surat/s1/0261px261.x261.180211150507.x2s1/catalogue/beladiya-eye-and-dental-hospital-surat-hcsug7sj4w.jpg?clr=#442222?fit=around%7C270%3A130&crop=270%3A130%3B%2A%2C%2A,Beladiya Eye And Dental Hos..,Multispeciality Hospitals in Surat,Nana Varachha Dhal.. |,Surat,Gujarat,India,+(91)-9081740401,https://www.justdial.com/Surat/Beladiya-Eye-And-Dental-Hospital-Near-Nana-Varachha-Dhal-Varachha-Road/0261PX261-X261-180211150507-X2S1_BZDET?xid=U3VyYXQgTXVsdGlzcGVjaWFsaXR5IEhvc3BpdGFscw==,4.9,NaN
81,Hospital,https://content.jdmagicbox.com/comp/surat/v7/0261px261.x261.131227182048.y2v7/catalogue/life-line-multi-speciality-hospital-rander-road-surat-general-physician-doctors-35qjerf.jpg?clr=#402633?fit=around%7C270%3A130&crop=270%3A130%3B%2A%2C%2A,Life Line Multi Speciality ..,Multispeciality Hospitals,Ramnagar Char Rast.. |,Surat,Gujarat,India,+(91)-9909959968,https://www.justdial.com/Surat/Life-Line-Multi-Speciality-Hospital-Opposite-Jhulelal-Temple-Rander-Road/0261PX261-X261-131227182048-Y2V7_BZDET?xid=U3VyYXQgTXVsdGlzcGVjaWFsaXR5IEhvc3BpdGFscw==,4.2,126 Votes
82,Hospital,https://content.jdmagicbox.com/comp/surat/26/0261p261std6526/catalogue/udhna-hospital-pvt-ltd-udhna-kadodara-hospitals-yyrzy.jpg?clr=#334125?fit=around%7C270%3A130&crop=270%3A130%3B%2A%2C%2A,Udhna Hospital Pvt Ltd,Hospitals near me,"Udhna Main Road, U.. |",Surat,Gujarat,India,+(91)-8758608859,https://www.justdial.com/Surat/Udhna-Hospital-Pvt-Ltd-Behind-Dena-Bank-Udhna/0261P261STD6526_BZDET?xid=U3VyYXQgTXVsdGlzcGVjaWFsaXR5IEhvc3BpdGFscw==,4.8,NaN
83,Hospital,https://content.jdmagicbox.com/comp/surat/g9/0261px261.x261.170322182952.e7g9/catalogue/shree-multi-speciality-hospital-palanpur-patia-surat-hospitals-vz5xw.jpg?clr=#423824?fit=around%7C270%3A130&crop=270%3A130%3B%2A%2C%2A,Shree Multi Speciality Hosp..,Private Hospitals near me,"Patia Road, Palanp.. |",Surat,Gujarat,India,+(91)-261-2771066,https://www.justdial.com/Surat/Shree-Multi-Speciality-Hospital-Opposite-Sona-Hotel-Palanpur-Patia/0261PX261-X261-170322182952-E7G9_BZDET?xid=U3VyYXQgTXVsdGlzcGVjaWFsaXR5IEhvc3BpdGFscw==,4.1,61 Votes
84,Hospital,https://content.jdmagicbox.com/comp/surat/w7/0261px261.x261.181002135211.j1w7/catalogue/siya-ayurvedic-panchkarma-hospital-parvat-patia-surat-ayurvedic-clinics-377nfu5tou.jpg?clr=#462d20?fit=around%7C270%3A130&crop=270%3A130%3B%2A%2C%2A,Siya Ayurvedic Panchkarma H..,Eye Hospitals near me,Puna Kumbharia Roa.. |,Surat,Gujarat,India,+(91)-9428955676,https://www.justdial.com/Surat/Siya-Ayurvedic-Panchkarma-Hospital-Opposite-Bhaktidham-Temple-Magob-Puna-Patiya/0261PX261-X261-181002135211-J1W7_BZDET?xid=U3VyYXQgTXVsdGlzcGVjaWFsaXR5IEhvc3BpdGFscw==,5.0,NaN
85,Hospital,https://content.jdmagicbox.com/comp/surat/g9/0261px261.x261.110727125435.y8g9/catalogue/shifa-hospital-udhna-surat-hospitals-102j9zz.jpg?clr=#2d3939?fit=around%7C270%3A130&crop=270%3A130%3B%2A%2C%2A,Shifa Hospital,Children Hospitals near me,"Near Pushpa Nagar,.. |",Surat,Gujarat,India,+(91)-261-6550551,https://www.justdial.com/Surat/Shifa-Hospital-Behind-Jeevanjyot-Cinema-Near-Pushpa-Nagar-Udhna/0261PX261-X261-110727125435-Y8G9_BZDET?xid=U3VyYXQgTXVsdGlzcGVjaWFsaXR5IEhvc3BpdGFscw==,4.8,454 Votes
86,Hospital,https://content.jdmagicbox.com/comp/visnagar/e7/9999p2762.2762.200709123626.f8e7/catalogue/drashti-care-and-cure-hospital-visnagar-skjbjjdk4e.jpg?clr=#4d1a1a?fit=around%7C270%3A130&crop=270%3A130%3B%2A%2C%2A,Drashti Care and Cure Hospi..,Charitable Hospitals near me,"visnagar, Bus Station Road, .. |",Surat,Gujarat,India,+(91)-9558165965,https://www.justdial.com/Visnagar/Drashti-Care-and-Cure-Hospital-Opposite-Navdurga-Bhaji-Pav-Visnagar/9999P2762-2762-200709123626-F8E7_BZDET?xid=U3VyYXQgTXVsdGlzcGVjaWFsaXR5IEhvc3BpdGFscw==,5.0,NaN
87,Hospital,https://content.jdmagicbox.com/comp/palanpur/n1/9999p2742.2742.120716111005.y5n1/catalogue/upvan-hospital-and-ivf-center-gathaman-palanpur-hospitals-jik7oj.jpg?fit=around%7C270%3A130&crop=270%3A130%3B%2A%2C%2A,Upvan Hospital & IVF Center,Shalby Hospitals near me,"palanpur, Jagana Road, Gatha.. |",Surat,Gujarat,India,+(91)-02742-253500,https://www.justdial.com/Palanpur/Upvan-Hospital-IVF-Center-Near-LIC-Office-Suresh-Mehta-Chowk-Gathaman/9999P2742-2742-120716111005-Y5N1_BZDET?xid=U3VyYXQgTXVsdGlzcGVjaWFsaXR5IEhvc3BpdGFscw==,4.1,26 Votes
88,Hospital,https://content.jdmagicbox.com/comp/surat/k5/0261px261.x261.170203114543.w2k5/catalogue/kiran-multi-super-speciality-hospital-research-center-katargam-surat-dermatologists-i3xmbp.jpg?clr=#143d52?fit=around%7C270%3A130&crop=270%3A130%3B%2A%2C%2A,Kiran Multi Super Specialit..,Maternity Hospitals near me,"Vastadevdi Road, K.. |",Surat,Gujarat,India,+(91)-0261-7161111,https://www.justdial.com/Surat/Kiran-Multi-Super-Speciality-Hospital-Research-Center-Near-Sumul-Dairy-Katargam/0261PX261-X261-170203114543-W2K5_BZDET?xid=U3VyYXQgTXVsdGlzcGVjaWFsaXR5IEhvc3BpdGFscw==,4.4,NaN
89,Hospital,https://content.jdmagicbox.com/comp/surat/b4/0261px261.x261.150711141511.v8b4/catalogue/sunshine-global-hospital-piplod-surat-multispeciality-hospitals-113dlne.jpg?clr=#3d2929?fit=around%7C270%3A130&crop=270%3A130%3B%2A%2C%2A,Sunshine Global Hospital,Veterinary Hospitals near me,"Dumas Road, Piplod.. |",Surat,Gujarat,India,+(91)-0261-4111000,https://www.justdial.com/Surat/Sunshine-Global-Hospital-Beside-Big-Bazzar-Piplod/0261PX261-X261-150711141511-V8B4_BZDET?xid=U3VyYXQgTXVsdGlzcGVjaWFsaXR5IEhvc3BpdGFscw==,4.3,107 Votes
90,Hospital,https://content.jdmagicbox.com/comp/surat/21/0261p261std9621/catalogue/new-civil-hospital-ring-road-surat-multispeciality-hospitals-3ayxzwp.jpg?clr=#334620?fit=around%7C270%3A130&crop=270%3A130%3B%2A%2C%2A,New Civil Hospital,Public Hospitals near me,"Near Majura Gate, .. |",Surat,Gujarat,India,,https://www.justdial.com/Surat/New-Civil-Hospital-Opposite-Iti-Near-Majura-Gate-Ring-Road/0261P261STD9621_BZDET?xid=U3VyYXQgTXVsdGlzcGVjaWFsaXR5IEhvc3BpdGFscw==,4.2,NaN
91,Hospital,https://content.jdmagicbox.com/comp/surat/19/0261p261std12719/catalogue/apple-hospital-ring-road-surat-multispeciality-hospitals-bul9ty.jpg?clr=#2b3b2b?fit=around%7C270%3A130&crop=270%3A130%3B%2A%2C%2A,Apple Hospital,Coronavirus Treatment Hospitals near me,Udhana Darwaja Roa.. |,Surat,Gujarat,India,+(91)-0261-6696096,https://www.justdial.com/Surat/Apple-Hospital-Near-UTC-Building-Ring-Road/0261P261STD12719_BZDET?xid=U3VyYXQgTXVsdGlzcGVjaWFsaXR5IEhvc3BpdGFscw==,4.2,30 Votes
92,Hospital,https://content.jdmagicbox.com/comp/surat/z4/0261px261.x261.180216203227.d2z4/catalogue/asutosh-multispeciality-hospital-dr-rajiv-raj-choudhry--majura-gate-surat-general-physician-doctors-ics4walb4n.jpg?clr=#662d00?fit=around%7C270%3A130&crop=270%3A130%3B%2A%2C%2A,Asutosh Multispeciality Hos..,NaN,"Mandir Road, Majur.. |",Surat,Gujarat,India,07947077578,https://www.justdial.com/Surat/Asutosh-Multispeciality-Hospital-Dr-Rajiv-Raj-Choudhry-Beside-Kshetrapal-Temple-Majura-Gate/0261PX261-X261-180216203227-D2Z4_BZDET?xid=U3VyYXQgTXVsdGlzcGVjaWFsaXR5IEhvc3BpdGFscw==,4.3,NaN
93,Hospital,https://content.jdmagicbox.com/comp/surat/d2/0261px261.x261.170418092155.i5d2/catalogue/bombay-maternity-and-surgical-hospital-althan-surat-hospitals-h7bvv.jpg?clr=#4f1717?fit=around%7C270%3A130&crop=270%3A130%3B%2A%2C%2A,Bombay Maternity And Surgic..,NaN,"Althan Canal Road,.. |",Surat,Gujarat,India,+(91)-8866183595,https://www.justdial.com/Surat/Bombay-Maternity-And-Surgical-Hospital-Near-Metro-Wholesale-Althan/0261PX261-X261-170418092155-I5D2_BZDET?xid=U3VyYXQgTXVsdGlzcGVjaWFsaXR5IEhvc3BpdGFscw==,4.5,38 Votes
94,Hospital,https://content.jdmagicbox.com/comp/surat/s9/0261px261.x261.140313181528.z4s9/catalogue/tristar-multispeciality-hospital-nanpura-surat-hospitals-1fuq1m.jpg?clr=#3d5214?fit=around%7C270%3A130&crop=270%3A130%3B%2A%2C%2A,Tristar Multispeciality Hos..,NaN,"Nanpura Main Road,.. |",Surat,Gujarat,India,+(91)-0261-2200000,https://www.justdial.com/Surat/Tristar-Multispeciality-Hospital-Opposite-T-TV-Sarvajanik-High-School-Athwa-Gate-Nanpura/0261PX261-X261-140313181528-Z4S9_BZDET?xid=U3VyYXQgTXVsdGlzcGVjaWFsaXR5IEhvc3BpdGFscw==,3.9,NaN
95,Hospital,https://content.jdmagicbox.com/comp/surat/d3/0261px261.x261.120516175053.l5d3/catalogue/p-p-savani-heart-institute-multispeciality-hospital-varachha-road-surat-hospitals-20l3ggf.jpg?clr=#0c335a?fit=around%7C270%3A130&crop=270%3A130%3B%2A%2C%2A,P P Savani Heart Institute ..,NaN,"Police Station, Va.. |",Surat,Gujarat,India,+(91)-0261-2577100,https://www.justdial.com/Surat/P-P-Savani-Heart-Institute-Multispeciality-Hospital-Opposite-Varachha-Fire-Station-Varachha-Road/0261PX261-X261-120516175053-L5D3_BZDET?xid=U3VyYXQgTXVsdGlzcGVjaWFsaXR5IEhvc3BpdGFscw==,4.2,33 Votes
96,Hospital,https://content.jdmagicbox.com/comp/surat/g9/0261px261.x261.170620182524.g6g9/catalogue/shalby-hospital-adajan-dn-surat-hospitals-bh05t.jpg?clr=#523314?fit=around%7C270%3A130&crop=270%3A130%3B%2A%2C%2A,Shalby Hospital,NaN,"Rander Road, Adaja.. |",Surat,Gujarat,India,+(91)-0261-7190000,https://www.justdial.com/Surat/Shalby-Hospital-Near-Navyug-College-Adajan-Dn/0261PX261-X261-170620182524-G6G9_BZDET?xid=U3VyYXQgTXVsdGlzcGVjaWFsaXR5IEhvc3BpdGFscw==,4.1,NaN
97,Hospital,https://content.jdmagicbox.com/comp/surat/u9/0261px261.x261.131114124833.h4u9/catalogue/unique-multispeciality-hospital-and-research-institute-ring-road-surat-multispeciality-hospitals-36raz4n.jpg?clr=#471f1f?fit=around%7C270%3A130&crop=270%3A130%3B%2A%2C%2A,Unique Multispeciality Hosp..,NaN,Hospital Cross Roa.. |,Surat,Gujarat,India,+(91)-0261-2636318,https://www.justdial.com/Surat/Unique-Multispeciality-Hospital-Research-Institute-Opposite-Kiran-Motors-Sosyo-Circle-Lane-Near-Canal-Ring-Road/0261PX261-X261-131114124833-H4U9_BZDET?xid=U3VyYXQgTXVsdGlzcGVjaWFsaXR5IEhvc3BpdGFscw==,3.9,1222 Votes
98,Hospital,https://content.jdmagicbox.com/comp/surat/b3/0261px261.x261.210630161946.p5b3/catalogue/sanjeevani-multi-speciality-hospital-vesu-surat-hospitals-h4zew1l8px.jpg?clr=#39392d?fit=around%7C270%3A130&crop=270%3A130%3B%2A%2C%2A,Sanjeevani Multi Speciality..,NaN,Opposite S D Jain .. |,Surat,Gujarat,India,+(91)-0261-2215777,https://www.justdial.com/Surat/Sanjeevani-Multi-Speciality-Hospital-Vesu/0261PX261-X261-210630161946-P5B3_BZDET?xid=U3VyYXQgTXVsdGlzcGVjaWFsaXR5IEhvc3BpdGFscw==,4.5,NaN
99,Hospital,https://content.jdmagicbox.com/comp/surat/l1/0261px261.x261.101111171316.h5l1/catalogue/care-hospital-athwa-gates-surat-cardiologists-495kxgx.jpg?clr=#283e3e?fit=around%7C270%3A130&crop=270%3A130%3B%2A%2C%2A,Care Hospital,NaN,Opposite Dhiraj So.. |,Surat,Gujarat,India,+(91)-261-3927777,https://www.justdial.com/Surat/Care-Hospital-Opposite-Dhiraj-Sons-Athwa-Gates/0261PX261-X261-101111171316-H5L1_BZDET?xid=U3VyYXQgTXVsdGlzcGVjaWFsaXR5IEhvc3BpdGFscw==,4.2,840 Votes
100,Hospital,https://content.jdmagicbox.com/comp/surat/21/0261p261std9621/catalogue/new-civil-hospital-ring-road-surat-multispeciality-hospitals-3ayxzwp.jpg?clr=#334620?fit=around%7C270%3A130&crop=270%3A130%3B%2A%2C%2A,New Civil Hospital,Multispeciality Hospitals in Surat,"Near Majura Gate, .. |",Surat,Gujarat,India,,https://www.justdial.com/Surat/New-Civil-Hospital-Opposite-Iti-Near-Majura-Gate-Ring-Road/0261P261STD9621_BZDET?xid=U3VyYXQgTXVsdGlzcGVjaWFsaXR5IEhvc3BpdGFscw==,4.2,NaN
101,Hospital,https://content.jdmagicbox.com/comp/surat/19/0261p261std12719/catalogue/apple-hospital-ring-road-surat-multispeciality-hospitals-bul9ty.jpg?clr=#2b3b2b?fit=around%7C270%3A130&crop=270%3A130%3B%2A%2C%2A,Apple Hospital,Multispeciality Hospitals,Udhana Darwaja Roa.. |,Surat,Gujarat,India,+(91)-0261-6696096,https://www.justdial.com/Surat/Apple-Hospital-Near-UTC-Building-Ring-Road/0261P261STD12719_BZDET?xid=U3VyYXQgTXVsdGlzcGVjaWFsaXR5IEhvc3BpdGFscw==,4.2,668 Votes
102,Hospital,https://content.jdmagicbox.com/comp/surat/z4/0261px261.x261.180216203227.d2z4/catalogue/asutosh-multispeciality-hospital-dr-rajiv-raj-choudhry--majura-gate-surat-general-physician-doctors-ics4walb4n.jpg?clr=#662d00?fit=around%7C270%3A130&crop=270%3A130%3B%2A%2C%2A,Asutosh Multispeciality Hos..,Hospitals near me,"Mandir Road, Majur.. |",Surat,Gujarat,India,07947077578,https://www.justdial.com/Surat/Asutosh-Multispeciality-Hospital-Dr-Rajiv-Raj-Choudhry-Beside-Kshetrapal-Temple-Majura-Gate/0261PX261-X261-180216203227-D2Z4_BZDET?xid=U3VyYXQgTXVsdGlzcGVjaWFsaXR5IEhvc3BpdGFscw==,4.3,NaN
103,Hospital,https://content.jdmagicbox.com/comp/surat/d2/0261px261.x261.170418092155.i5d2/catalogue/bombay-maternity-and-surgical-hospital-althan-surat-hospitals-h7bvv.jpg?clr=#4f1717?fit=around%7C270%3A130&crop=270%3A130%3B%2A%2C%2A,Bombay Maternity And Surgic..,Private Hospitals near me,"Althan Canal Road,.. |",Surat,Gujarat,India,+(91)-8866183595,https://www.justdial.com/Surat/Bombay-Maternity-And-Surgical-Hospital-Near-Metro-Wholesale-Althan/0261PX261-X261-170418092155-I5D2_BZDET?xid=U3VyYXQgTXVsdGlzcGVjaWFsaXR5IEhvc3BpdGFscw==,4.5,603 Votes
104,Hospital,https://content.jdmagicbox.com/comp/surat/s9/0261px261.x261.140313181528.z4s9/catalogue/tristar-multispeciality-hospital-nanpura-surat-hospitals-1fuq1m.jpg?clr=#3d5214?fit=around%7C270%3A130&crop=270%3A130%3B%2A%2C%2A,Tristar Multispeciality Hos..,Eye Hospitals near me,"Nanpura Main Road,.. |",Surat,Gujarat,India,+(91)-0261-2200000,https://www.justdial.com/Surat/Tristar-Multispeciality-Hospital-Opposite-T-TV-Sarvajanik-High-School-Athwa-Gate-Nanpura/0261PX261-X261-140313181528-Z4S9_BZDET?xid=U3VyYXQgTXVsdGlzcGVjaWFsaXR5IEhvc3BpdGFscw==,3.9,NaN
105,Hospital,https://content.jdmagicbox.com/comp/surat/d3/0261px261.x261.120516175053.l5d3/catalogue/p-p-savani-heart-institute-multispeciality-hospital-varachha-road-surat-hospitals-20l3ggf.jpg?clr=#0c335a?fit=around%7C270%3A130&crop=270%3A130%3B%2A%2C%2A,P P Savani Heart Institute ..,Children Hospitals near me,"Police Station, Va.. |",Surat,Gujarat,India,+(91)-0261-2577100,https://www.justdial.com/Surat/P-P-Savani-Heart-Institute-Multispeciality-Hospital-Opposite-Varachha-Fire-Station-Varachha-Road/0261PX261-X261-120516175053-L5D3_BZDET?xid=U3VyYXQgTXVsdGlzcGVjaWFsaXR5IEhvc3BpdGFscw==,4.2,537 Votes
106,Hospital,https://content.jdmagicbox.com/comp/surat/g9/0261px261.x261.170620182524.g6g9/catalogue/shalby-hospital-adajan-dn-surat-hospitals-bh05t.jpg?clr=#523314?fit=around%7C270%3A130&crop=270%3A130%3B%2A%2C%2A,Shalby Hospital,Charitable Hospitals near me,"Rander Road, Adaja.. |",Surat,Gujarat,India,+(91)-0261-7190000,https://www.justdial.com/Surat/Shalby-Hospital-Near-Navyug-College-Adajan-Dn/0261PX261-X261-170620182524-G6G9_BZDET?xid=U3VyYXQgTXVsdGlzcGVjaWFsaXR5IEhvc3BpdGFscw==,4.1,NaN
107,Hospital,https://content.jdmagicbox.com/comp/surat/u9/0261px261.x261.131114124833.h4u9/catalogue/unique-multispeciality-hospital-and-research-institute-ring-road-surat-multispeciality-hospitals-36raz4n.jpg?clr=#471f1f?fit=around%7C270%3A130&crop=270%3A130%3B%2A%2C%2A,Unique Multispeciality Hosp..,Shalby Hospitals near me,Hospital Cross Roa.. |,Surat,Gujarat,India,+(91)-0261-2636318,https://www.justdial.com/Surat/Unique-Multispeciality-Hospital-Research-Institute-Opposite-Kiran-Motors-Sosyo-Circle-Lane-Near-Canal-Ring-Road/0261PX261-X261-131114124833-H4U9_BZDET?xid=U3VyYXQgTXVsdGlzcGVjaWFsaXR5IEhvc3BpdGFscw==,3.9,471 Votes
108,Hospital,https://content.jdmagicbox.com/comp/surat/b3/0261px261.x261.210630161946.p5b3/catalogue/sanjeevani-multi-speciality-hospital-vesu-surat-hospitals-h4zew1l8px.jpg?clr=#39392d?fit=around%7C270%3A130&crop=270%3A130%3B%2A%2C%2A,Sanjeevani Multi Speciality..,Maternity Hospitals near me,Opposite S D Jain .. |,Surat,Gujarat,India,+(91)-0261-2215777,https://www.justdial.com/Surat/Sanjeevani-Multi-Speciality-Hospital-Vesu/0261PX261-X261-210630161946-P5B3_BZDET?xid=U3VyYXQgTXVsdGlzcGVjaWFsaXR5IEhvc3BpdGFscw==,4.5,NaN
109,Hospital,https://content.jdmagicbox.com/comp/surat/l1/0261px261.x261.101111171316.h5l1/catalogue/care-hospital-athwa-gates-surat-cardiologists-495kxgx.jpg?clr=#283e3e?fit=around%7C270%3A130&crop=270%3A130%3B%2A%2C%2A,Care Hospital,Veterinary Hospitals near me,Opposite Dhiraj So.. |,Surat,Gujarat,India,+(91)-261-3927777,https://www.justdial.com/Surat/Care-Hospital-Opposite-Dhiraj-Sons-Athwa-Gates/0261PX261-X261-101111171316-H5L1_BZDET?xid=U3VyYXQgTXVsdGlzcGVjaWFsaXR5IEhvc3BpdGFscw==,4.2,422 Votes
110,Hospital,https://content.jdmagicbox.com/comp/surat/28/0261p261std6428/catalogue/shrimati-rasilaben-sevantilal-shah-venus-hospital-rampura-surat-hospitals-lc4mx.jpg?fit=around%7C270%3A130&crop=270%3A130%3B%2A%2C%2A,Shrimati Rasilaben Sevantil..,Public Hospitals near me,"Station Road, Ramp.. |",Surat,Gujarat,India,+(91)-0261-2700300,https://www.justdial.com/Surat/Shrimati-Rasilaben-Sevantilal-Shah-Venus-Hospital-Rampura/0261P261STD6428_BZDET?xid=U3VyYXQgTXVsdGlzcGVjaWFsaXR5IEhvc3BpdGFscw==,4.4,NaN
111,Hospital,https://content.jdmagicbox.com/comp/surat/v9/0261px261.x261.150127171231.l2v9/catalogue/surat-diamond-hospital-nana-varaccha-surat-hospitals-8wb2u.jpg?clr=#413325?fit=around%7C270%3A130&crop=270%3A130%3B%2A%2C%2A,Sda Diamond Hospital,Coronavirus Treatment Hospitals near me,"Nandanvan Society,.. |",Surat,Gujarat,India,+(91)-0261-2509502,https://www.justdial.com/Surat/Sda-Diamond-Hospital-Near-Chikuwadi-Opposite-Nandanvan-Society-Nana-Varaccha/0261PX261-X261-150127171231-L2V9_BZDET?xid=U3VyYXQgTXVsdGlzcGVjaWFsaXR5IEhvc3BpdGFscw==,4.5,381 Votes
112,Hospital,https://content.jdmagicbox.com/comp/surat/u1/0261PX261.X261.150204115612.F8U1/catalogue/saachi-children-hospital-majura-gate-surat-children-hospitals-2gwb109.jpg?clr=#3d293d?fit=around%7C270%3A130&crop=270%3A130%3B%2A%2C%2A,Saachi Children Hospital,NaN,"Health Club Road, .. |",Surat,Gujarat,India,+(91)-0261-2236800,https://www.justdial.com/Surat/Saachi-Children-Hospital-Near-Majura-Fire-Station-Near-Akash-Ganga-Appartment-Majura-Gate/0261PX261-X261-150204115612-F8U1_BZDET?xid=U3VyYXQgTXVsdGlzcGVjaWFsaXR5IEhvc3BpdGFscw==,4.1,NaN
113,Hospital,https://content.jdmagicbox.com/comp/surat/a9/0261px261.x261.180216201259.g4a9/catalogue/dr-dhaval-mangukiya-sids-hospital-majura-gate-surat-colorectal-surgeon-doctors-kkx60zwxqg.jpg?clr=#333333?fit=around%7C270%3A130&crop=270%3A130%3B%2A%2C%2A,Dr Dhaval Mangukiya (Sids H..,NaN,"Gate No 3, Majura .. |",Surat,Gujarat,India,+(91)-9904191222,https://www.justdial.com/Surat/Dr-Dhaval-Mangukiya-Sids-Hospital-Opposite-Gandhi-Collage-Near-Nirman-Bhavan-Beside-Vijay-Nagar-Society-Gate-No-3-Majura-Gate/0261PX261-X261-180216201259-G4A9_BZDET?xid=U3VyYXQgTXVsdGlzcGVjaWFsaXR5IEhvc3BpdGFscw==,4.8,355 Votes
114,Hospital,https://content.jdmagicbox.com/comp/surat/99/0261p261std1663099/catalogue/girish-group-of-hospitals-majura-gate-surat-hospitals-1geipli.jpg?clr=#594d0d?fit=around%7C270%3A130&crop=270%3A130%3B%2A%2C%2A,Girish Group Of Hospitals,NaN,"Kshetrapal Road, M.. |",Surat,Gujarat,India,+(91)-261-2472500,https://www.justdial.com/Surat/Girish-Group-Of-Hospitals-Near-Kailash-Nagar-Majura-Gate/0261P261STD1663099_BZDET?xid=U3VyYXQgTXVsdGlzcGVjaWFsaXR5IEhvc3BpdGFscw==,4.2,NaN
115,Hospital,https://content.jdmagicbox.com/comp/surat/v1/0261px261.x261.170517110435.e5v1/catalogue/baba-memorial-hospital-dindoli-surat-hospitals-yfzk4mwwy0.jpg?clr=#523314?fit=around%7C270%3A130&crop=270%3A130%3B%2A%2C%2A,Baba Memorial Hospital,NaN,Navagam Dindoli Ro.. |,Surat,Gujarat,India,+(91)-9099804986,https://www.justdial.com/Surat/Baba-Memorial-Hospital-Near-Dindoli-Bridge-Dindoli/0261PX261-X261-170517110435-E5V1_BZDET?xid=U3VyYXQgTXVsdGlzcGVjaWFsaXR5IEhvc3BpdGFscw==,4.1,268 Votes
116,Hospital,https://content.jdmagicbox.com/comp/surat/x3/0261px261.x261.161128122236.d1x3/catalogue/zen-maternity-and-multispeciality-hospital-althan-surat-hospitals-z7ylpy3m4x.jpg?clr=#2c3a2c?fit=around%7C270%3A130&crop=270%3A130%3B%2A%2C%2A,Zen Maternity & Multispecia..,NaN,Bhimrad Canal Roa.. |,Surat,Gujarat,India,07947255429,https://www.justdial.com/Surat/Zen-Maternity-Multispeciality-Hospital-ASHIRWAD-CHOWKDI-INIFD-CIRCLE-Althan/0261PX261-X261-161128122236-D1X3_BZDET?xid=U3VyYXQgTXVsdGlzcGVjaWFsaXR5IEhvc3BpdGFscw==,4.7,NaN
117,Hospital,https://content.jdmagicbox.com/comp/surat/20/0261p261std7320/catalogue/pooja-hospital-katargam-surat-hospitals-quugteeaau.jpg?clr=#224433?fit=around%7C270%3A130&crop=270%3A130%3B%2A%2C%2A,Pooja Hospital,NaN,"Kunj Street, Katar.. |",Surat,Gujarat,India,+(91)-261-2536816,https://www.justdial.com/Surat/Pooja-Hospital-Opposite-Paras-Police-Station-Katargam/0261P261STD7320_BZDET?xid=U3VyYXQgTXVsdGlzcGVjaWFsaXR5IEhvc3BpdGFscw==,4.5,247 Votes
118,Hospital,https://content.jdmagicbox.com/comp/surat/b5/0261px261.x261.000305306725.g5b5/catalogue/smt-r-b-shah-mahavir-super-speciality-hospital-nanpura-surat-hospitals-2ow33qy.jpg?clr=#49491d?fit=around%7C270%3A130&crop=270%3A130%3B%2A%2C%2A,Smt R B Shah Mahavir Super ..,NaN,"Timliyawad, Nanpur.. |",Surat,Gujarat,India,+(91)-0261-2292000,https://www.justdial.com/Surat/Smt-R-B-Shah-Mahavir-Super-Speciality-Hospital-Opposite-Jivan-Bharti-School-Timliyawad-Nanpura/0261PX261-X261-000305306725-G5B5_BZDET?xid=U3VyYXQgTXVsdGlzcGVjaWFsaXR5IEhvc3BpdGFscw==,4.2,NaN
119,Hospital,https://content.jdmagicbox.com/comp/surat/q4/0261px261.x261.160921133203.p4q4/catalogue/janak-smarak-hospital-vyara-surat-hospitals-eeptwk02hy.jpg?clr=#4f3317?fit=around%7C270%3A130&crop=270%3A130%3B%2A%2C%2A,Janak Smarak Hospital,NaN,At Kanpura Village.. |,Surat,Gujarat,India,+(91)-02626-220121,https://www.justdial.com/Surat/Janak-Smarak-Hospital-At-Kanpura-Village-Vyara/0261PX261-X261-160921133203-P4Q4_BZDET?xid=U3VyYXQgTXVsdGlzcGVjaWFsaXR5IEhvc3BpdGFscw==,3.9,220 Votes
120,Hospital,https://content.jdmagicbox.com/comp/surat/28/0261p261std6428/catalogue/shrimati-rasilaben-sevantilal-shah-venus-hospital-rampura-surat-hospitals-lc4mx.jpg?fit=around%7C270%3A130&crop=270%3A130%3B%2A%2C%2A,Shrimati Rasilaben Sevantil..,Multispeciality Hospitals in Surat,"Station Road, Ramp.. |",Surat,Gujarat,India,+(91)-0261-2700300,https://www.justdial.com/Surat/Shrimati-Rasilaben-Sevantilal-Shah-Venus-Hospital-Rampura/0261P261STD6428_BZDET?xid=U3VyYXQgTXVsdGlzcGVjaWFsaXR5IEhvc3BpdGFscw==,4.4,NaN
121,Hospital,https://content.jdmagicbox.com/comp/surat/v9/0261px261.x261.150127171231.l2v9/catalogue/surat-diamond-hospital-nana-varaccha-surat-hospitals-8wb2u.jpg?clr=#413325?fit=around%7C270%3A130&crop=270%3A130%3B%2A%2C%2A,Sda Diamond Hospital,Multispeciality Hospitals,"Nandanvan Society,.. |",Surat,Gujarat,India,+(91)-0261-2509502,https://www.justdial.com/Surat/Sda-Diamond-Hospital-Near-Chikuwadi-Opposite-Nandanvan-Society-Nana-Varaccha/0261PX261-X261-150127171231-L2V9_BZDET?xid=U3VyYXQgTXVsdGlzcGVjaWFsaXR5IEhvc3BpdGFscw==,4.5,209 Votes
122,Hospital,https://content.jdmagicbox.com/comp/surat/u1/0261PX261.X261.150204115612.F8U1/catalogue/saachi-children-hospital-majura-gate-surat-children-hospitals-2gwb109.jpg?clr=#3d293d?fit=around%7C270%3A130&crop=270%3A130%3B%2A%2C%2A,Saachi Children Hospital,Hospitals near me,"Health Club Road, .. |",Surat,Gujarat,India,+(91)-0261-2236800,https://www.justdial.com/Surat/Saachi-Children-Hospital-Near-Majura-Fire-Station-Near-Akash-Ganga-Appartment-Majura-Gate/0261PX261-X261-150204115612-F8U1_BZDET?xid=U3VyYXQgTXVsdGlzcGVjaWFsaXR5IEhvc3BpdGFscw==,4.1,NaN
123,Hospital,https://content.jdmagicbox.com/comp/surat/a9/0261px261.x261.180216201259.g4a9/catalogue/dr-dhaval-mangukiya-sids-hospital-majura-gate-surat-colorectal-surgeon-doctors-kkx60zwxqg.jpg?clr=#333333?fit=around%7C270%3A130&crop=270%3A130%3B%2A%2C%2A,Dr Dhaval Mangukiya (Sids H..,Private Hospitals near me,"Gate No 3, Majura .. |",Surat,Gujarat,India,+(91)-9904191222,https://www.justdial.com/Surat/Dr-Dhaval-Mangukiya-Sids-Hospital-Opposite-Gandhi-Collage-Near-Nirman-Bhavan-Beside-Vijay-Nagar-Society-Gate-No-3-Majura-Gate/0261PX261-X261-180216201259-G4A9_BZDET?xid=U3VyYXQgTXVsdGlzcGVjaWFsaXR5IEhvc3BpdGFscw==,4.8,202 Votes
124,Hospital,https://content.jdmagicbox.com/comp/surat/99/0261p261std1663099/catalogue/girish-group-of-hospitals-majura-gate-surat-hospitals-1geipli.jpg?clr=#594d0d?fit=around%7C270%3A130&crop=270%3A130%3B%2A%2C%2A,Girish Group Of Hospitals,Eye Hospitals near me,"Kshetrapal Road, M.. |",Surat,Gujarat,India,+(91)-261-2472500,https://www.justdial.com/Surat/Girish-Group-Of-Hospitals-Near-Kailash-Nagar-Majura-Gate/0261P261STD1663099_BZDET?xid=U3VyYXQgTXVsdGlzcGVjaWFsaXR5IEhvc3BpdGFscw==,4.2,NaN
125,Hospital,https://content.jdmagicbox.com/comp/surat/v1/0261px261.x261.170517110435.e5v1/catalogue/baba-memorial-hospital-dindoli-surat-hospitals-yfzk4mwwy0.jpg?clr=#523314?fit=around%7C270%3A130&crop=270%3A130%3B%2A%2C%2A,Baba Memorial Hospital,Children Hospitals near me,Navagam Dindoli Ro.. |,Surat,Gujarat,India,+(91)-9099804986,https://www.justdial.com/Surat/Baba-Memorial-Hospital-Near-Dindoli-Bridge-Dindoli/0261PX261-X261-170517110435-E5V1_BZDET?xid=U3VyYXQgTXVsdGlzcGVjaWFsaXR5IEhvc3BpdGFscw==,4.1,188 Votes
126,Hospital,https://content.jdmagicbox.com/comp/surat/x3/0261px261.x261.161128122236.d1x3/catalogue/zen-maternity-and-multispeciality-hospital-althan-surat-hospitals-z7ylpy3m4x.jpg?clr=#2c3a2c?fit=around%7C270%3A130&crop=270%3A130%3B%2A%2C%2A,Zen Maternity & Multispecia..,Charitable Hospitals near me,Bhimrad Canal Roa.. |,Surat,Gujarat,India,07947255429,https://www.justdial.com/Surat/Zen-Maternity-Multispeciality-Hospital-ASHIRWAD-CHOWKDI-INIFD-CIRCLE-Althan/0261PX261-X261-161128122236-D1X3_BZDET?xid=U3VyYXQgTXVsdGlzcGVjaWFsaXR5IEhvc3BpdGFscw==,4.7,NaN
127,Hospital,https://content.jdmagicbox.com/comp/surat/20/0261p261std7320/catalogue/pooja-hospital-katargam-surat-hospitals-quugteeaau.jpg?clr=#224433?fit=around%7C270%3A130&crop=270%3A130%3B%2A%2C%2A,Pooja Hospital,Shalby Hospitals near me,"Kunj Street, Katar.. |",Surat,Gujarat,India,+(91)-261-2536816,https://www.justdial.com/Surat/Pooja-Hospital-Opposite-Paras-Police-Station-Katargam/0261P261STD7320_BZDET?xid=U3VyYXQgTXVsdGlzcGVjaWFsaXR5IEhvc3BpdGFscw==,4.5,146 Votes
128,Hospital,https://content.jdmagicbox.com/comp/surat/b5/0261px261.x261.000305306725.g5b5/catalogue/smt-r-b-shah-mahavir-super-speciality-hospital-nanpura-surat-hospitals-2ow33qy.jpg?clr=#49491d?fit=around%7C270%3A130&crop=270%3A130%3B%2A%2C%2A,Smt R B Shah Mahavir Super ..,Maternity Hospitals near me,"Timliyawad, Nanpur.. |",Surat,Gujarat,India,+(91)-0261-2292000,https://www.justdial.com/Surat/Smt-R-B-Shah-Mahavir-Super-Speciality-Hospital-Opposite-Jivan-Bharti-School-Timliyawad-Nanpura/0261PX261-X261-000305306725-G5B5_BZDET?xid=U3VyYXQgTXVsdGlzcGVjaWFsaXR5IEhvc3BpdGFscw==,4.2,NaN
129,Hospital,https://content.jdmagicbox.com/comp/surat/q4/0261px261.x261.160921133203.p4q4/catalogue/janak-smarak-hospital-vyara-surat-hospitals-eeptwk02hy.jpg?clr=#4f3317?fit=around%7C270%3A130&crop=270%3A130%3B%2A%2C%2A,Janak Smarak Hospital,Veterinary Hospitals near me,At Kanpura Village.. |,Surat,Gujarat,India,+(91)-02626-220121,https://www.justdial.com/Surat/Janak-Smarak-Hospital-At-Kanpura-Village-Vyara/0261PX261-X261-160921133203-P4Q4_BZDET?xid=U3VyYXQgTXVsdGlzcGVjaWFsaXR5IEhvc3BpdGFscw==,3.9,134 Votes
130,Hospital,https://content.jdmagicbox.com/comp/surat/k5/0261px261.x261.130626123304.d3k5/catalogue/shree-sardar-smarak-hospital-bardoli-surat-dermatologists-gjjdjv.jpg?clr=#3d2929?fit=around%7C270%3A130&crop=270%3A130%3B%2A%2C%2A,Shree Sardar Smarak Hospita..,Public Hospitals near me,"Station Road, Bard.. |",Surat,Gujarat,India,+(91)-2622-220050,https://www.justdial.com/Surat/Shree-Sardar-Smarak-Hospital-Sardar-Baug-Bardoli/0261PX261-X261-130626123304-D3K5_BZDET?xid=U3VyYXQgTXVsdGlzcGVjaWFsaXR5IEhvc3BpdGFscw==,4.4,NaN
131,Hospital,https://content.jdmagicbox.com/comp/surat/q9/0261px261.x261.181003100300.h8q9/catalogue/bombay-multi-speciality-hospital-citylight-road-surat-gynaecologist-and-obstetrician-doctors-1laasigxws.jpg?clr=#333333?fit=around%7C270%3A130&crop=270%3A130%3B%2A%2C%2A,Bombay Multi Speciality Hos..,Coronavirus Treatment Hospitals near me,"Main Road, Citylig.. |",Surat,Gujarat,India,+(91)-9714655583,https://www.justdial.com/Surat/Bombay-Multi-Speciality-Hospital-Above-Janta-Ice-Cream-Citylight-Road/0261PX261-X261-181003100300-H8Q9_BZDET?xid=U3VyYXQgTXVsdGlzcGVjaWFsaXR5IEhvc3BpdGFscw==,4.5,130 Votes
132,Hospital,https://content.jdmagicbox.com/comp/surat/f5/0261px261.x261.200817001019.w3f5/catalogue/dr-kashyap-ramoliya-hira-baug-surat-orthopaedic-doctors-0pwqbhnbo3.jpg?clr=#1b2b4b?fit=around%7C270%3A130&crop=270%3A130%3B%2A%2C%2A,Dr. Kashyap Ramoliya,NaN,"Sargam Complex, Hi.. |",Surat,Gujarat,India,+(91)-9099047648,https://www.justdial.com/Surat/Dr-Kashyap-Ramoliya-Hira-Baug/0261PX261-X261-200817001019-W3F5_BZDET?xid=U3VyYXQgTXVsdGlzcGVjaWFsaXR5IEhvc3BpdGFscw==,5.0,NaN
133,Hospital,https://content.jdmagicbox.com/comp/surat/q4/0261px261.x261.120503173936.q8q4/catalogue/dr-vikram-r-lotwala-adajan-dn-surat-general-surgeon-doctors-30opmqj.jpg?clr=#2b3b2b?fit=around%7C270%3A130&crop=270%3A130%3B%2A%2C%2A,Dr. Vikram R Lotwala (Wings..,NaN,Trinity Business P.. |,Surat,Gujarat,India,+(91)-0261-2733660,https://www.justdial.com/Surat/Dr-Vikram-R-Lotwala-Wings-Hospital-Near-Off-L-P-Savani-Road-Opposite-Trinity-Business-Park-Adajan-Dn/0261PX261-X261-120503173936-Q8Q4_BZDET?xid=U3VyYXQgTXVsdGlzcGVjaWFsaXR5IEhvc3BpdGFscw==,4.9,128 Votes
134,Hospital,https://content.jdmagicbox.com/comp/surat/q8/0261px261.x261.101203120526.b9q8/catalogue/ayush-icu-multi-speciality-hospital-lal-darwaja-surat-hospitals-3r6o64q.jpg?clr=#252541?fit=around%7C270%3A130&crop=270%3A130%3B%2A%2C%2A,Ayush ICU & Multi Specialit..,NaN,"Station Road, LAL .. |",Surat,Gujarat,India,+(91)-261-2492821,https://www.justdial.com/Surat/Ayush-ICU-Multi-Speciality-Hospital-Beside-Param-Doctor-House-LAL-Darwaja/0261PX261-X261-101203120526-B9Q8_BZDET?xid=U3VyYXQgTXVsdGlzcGVjaWFsaXR5IEhvc3BpdGFscw==,3.9,NaN
135,Hospital,https://content.jdmagicbox.com/comp/surat/m2/0261px261.x261.180330121649.f4m2/catalogue/burhani-hospital-mahidharpura-surat-dermatologists-0p3bj.jpg?clr=#1d1d49?fit=around%7C270%3A130&crop=270%3A130%3B%2A%2C%2A,Burhani Hospital,NaN,"Opposite G P O, M.. |",Surat,Gujarat,India,+(91)-0261-2505050,https://www.justdial.com/Surat/Burhani-Hospital-Mahidharpura/0261PX261-X261-180330121649-F4M2_BZDET?xid=U3VyYXQgTXVsdGlzcGVjaWFsaXR5IEhvc3BpdGFscw==,4.3,127 Votes
136,Hospital,https://content.jdmagicbox.com/comp/surat/34/0261p261std250334/catalogue/sheth-p-t-surat-general-hospital-chauta-bazaar-surat-hospitals-xtq2hujpwy.jpg?clr=#333333?fit=around%7C270%3A130&crop=270%3A130%3B%2A%2C%2A,Sheth P T Surat General Hos..,NaN,"Mandir Street, Cha.. |",Surat,Gujarat,India,+(91)-0261-2592040,https://www.justdial.com/Surat/Sheth-P-T-Surat-General-Hospital-Opposite-Sanathan-Hall-Gopipura-Chauta-Bazaar/0261P261STD250334_BZDET?xid=U3VyYXQgTXVsdGlzcGVjaWFsaXR5IEhvc3BpdGFscw==,3.8,NaN
137,Hospital,https://content.jdmagicbox.com/comp/surat/q8/0261px261.x261.101005133441.b1q8/catalogue/sanjivani-hospital-chalthan-surat-charitable-hospitals-f7gijd.jpg?clr=#402626?fit=around%7C270%3A130&crop=270%3A130%3B%2A%2C%2A,Sanjivani Hospital,NaN,National Highway N.. |,Surat,Gujarat,India,+(91)-02622-281253,https://www.justdial.com/Surat/Sanjivani-Hospital-Near-Sanjivani-Society-Kadodara-Chalthan/0261PX261-X261-101005133441-B1Q8_BZDET?xid=U3VyYXQgTXVsdGlzcGVjaWFsaXR5IEhvc3BpdGFscw==,4.1,122 Votes
138,Hospital,https://content.jdmagicbox.com/comp/surat/k2/0261px261.x261.151025133041.n7k2/catalogue/sardar-multispeciality-hospital-ved-road-surat-45332.jpg?clr=#57ff?fit=around%7C270%3A130&crop=270%3A130%3B%2A%2C%2A,Sardar Multispeciality Hosp..,NaN,Ved Road.. |,Surat,Gujarat,India,+(91)-261-2512555,https://www.justdial.com/Surat/Sardar-Multispeciality-Hospital-Ved-Road/0261PX261-X261-151025133041-N7K2_BZDET?xid=U3VyYXQgTXVsdGlzcGVjaWFsaXR5IEhvc3BpdGFscw==,4.1,NaN
139,Hospital,https://content.jdmagicbox.com/comp/surat/p5/0261px261.x261.131127120628.u3p5/catalogue/jivan-jyot-hospital-amroli-surat-hospitals-3373k3p.jpg?clr=#471f29?fit=around%7C270%3A130&crop=270%3A130%3B%2A%2C%2A,Jivan Jyot Hospital,NaN,Opposite Jalaram T.. |,Surat,Gujarat,India,+(91)-0261-2494076,https://www.justdial.com/Surat/Jivan-Jyot-Hospital-Opposite-Jalaram-Temple-Amroli/0261PX261-X261-131127120628-U3P5_BZDET?xid=U3VyYXQgTXVsdGlzcGVjaWFsaXR5IEhvc3BpdGFscw==,4.3,120 Votes
140,Hospital,https://content.jdmagicbox.com/comp/surat/k5/0261px261.x261.130626123304.d3k5/catalogue/shree-sardar-smarak-hospital-bardoli-surat-dermatologists-gjjdjv.jpg?clr=#3d2929?fit=around%7C270%3A130&crop=270%3A130%3B%2A%2C%2A,Shree Sardar Smarak Hospita..,Multispeciality Hospitals in Surat,"Station Road, Bard.. |",Surat,Gujarat,India,+(91)-2622-220050,https://www.justdial.com/Surat/Shree-Sardar-Smarak-Hospital-Sardar-Baug-Bardoli/0261PX261-X261-130626123304-D3K5_BZDET?xid=U3VyYXQgTXVsdGlzcGVjaWFsaXR5IEhvc3BpdGFscw==,4.4,NaN
141,Hospital,https://content.jdmagicbox.com/comp/surat/q9/0261px261.x261.181003100300.h8q9/catalogue/bombay-multi-speciality-hospital-citylight-road-surat-gynaecologist-and-obstetrician-doctors-1laasigxws.jpg?clr=#333333?fit=around%7C270%3A130&crop=270%3A130%3B%2A%2C%2A,Bombay Multi Speciality Hos..,Multispeciality Hospitals,"Main Road, Citylig.. |",Surat,Gujarat,India,+(91)-9714655583,https://www.justdial.com/Surat/Bombay-Multi-Speciality-Hospital-Above-Janta-Ice-Cream-Citylight-Road/0261PX261-X261-181003100300-H8Q9_BZDET?xid=U3VyYXQgTXVsdGlzcGVjaWFsaXR5IEhvc3BpdGFscw==,4.5,115 Votes
142,Hospital,https://content.jdmagicbox.com/comp/surat/f5/0261px261.x261.200817001019.w3f5/catalogue/dr-kashyap-ramoliya-hira-baug-surat-orthopaedic-doctors-0pwqbhnbo3.jpg?clr=#1b2b4b?fit=around%7C270%3A130&crop=270%3A130%3B%2A%2C%2A,Dr. Kashyap Ramoliya,Hospitals near me,"Sargam Complex, Hi.. |",Surat,Gujarat,India,+(91)-9099047648,https://www.justdial.com/Surat/Dr-Kashyap-Ramoliya-Hira-Baug/0261PX261-X261-200817001019-W3F5_BZDET?xid=U3VyYXQgTXVsdGlzcGVjaWFsaXR5IEhvc3BpdGFscw==,5.0,NaN
143,Hospital,https://content.jdmagicbox.com/comp/surat/q4/0261px261.x261.120503173936.q8q4/catalogue/dr-vikram-r-lotwala-adajan-dn-surat-general-surgeon-doctors-30opmqj.jpg?clr=#2b3b2b?fit=around%7C270%3A130&crop=270%3A130%3B%2A%2C%2A,Dr. Vikram R Lotwala (Wings..,Private Hospitals near me,Trinity Business P.. |,Surat,Gujarat,India,+(91)-0261-2733660,https://www.justdial.com/Surat/Dr-Vikram-R-Lotwala-Wings-Hospital-Near-Off-L-P-Savani-Road-Opposite-Trinity-Business-Park-Adajan-Dn/0261PX261-X261-120503173936-Q8Q4_BZDET?xid=U3VyYXQgTXVsdGlzcGVjaWFsaXR5IEhvc3BpdGFscw==,4.9,57 Votes
144,Hospital,https://content.jdmagicbox.com/comp/surat/q8/0261px261.x261.101203120526.b9q8/catalogue/ayush-icu-multi-speciality-hospital-lal-darwaja-surat-hospitals-3r6o64q.jpg?clr=#252541?fit=around%7C270%3A130&crop=270%3A130%3B%2A%2C%2A,Ayush ICU & Multi Specialit..,Eye Hospitals near me,"Station Road, LAL .. |",Surat,Gujarat,India,+(91)-261-2492821,https://www.justdial.com/Surat/Ayush-ICU-Multi-Speciality-Hospital-Beside-Param-Doctor-House-LAL-Darwaja/0261PX261-X261-101203120526-B9Q8_BZDET?xid=U3VyYXQgTXVsdGlzcGVjaWFsaXR5IEhvc3BpdGFscw==,3.9,NaN
145,Hospital,https://content.jdmagicbox.com/comp/surat/m2/0261px261.x261.180330121649.f4m2/catalogue/burhani-hospital-mahidharpura-surat-dermatologists-0p3bj.jpg?clr=#1d1d49?fit=around%7C270%3A130&crop=270%3A130%3B%2A%2C%2A,Burhani Hospital,Children Hospitals near me,"Opposite G P O, M.. |",Surat,Gujarat,India,+(91)-0261-2505050,https://www.justdial.com/Surat/Burhani-Hospital-Mahidharpura/0261PX261-X261-180330121649-F4M2_BZDET?xid=U3VyYXQgTXVsdGlzcGVjaWFsaXR5IEhvc3BpdGFscw==,4.3,109 Votes
146,Hospital,https://content.jdmagicbox.com/comp/surat/34/0261p261std250334/catalogue/sheth-p-t-surat-general-hospital-chauta-bazaar-surat-hospitals-xtq2hujpwy.jpg?clr=#333333?fit=around%7C270%3A130&crop=270%3A130%3B%2A%2C%2A,Sheth P T Surat General Hos..,Charitable Hospitals near me,"Mandir Street, Cha.. |",Surat,Gujarat,India,+(91)-0261-2592040,https://www.justdial.com/Surat/Sheth-P-T-Surat-General-Hospital-Opposite-Sanathan-Hall-Gopipura-Chauta-Bazaar/0261P261STD250334_BZDET?xid=U3VyYXQgTXVsdGlzcGVjaWFsaXR5IEhvc3BpdGFscw==,3.8,NaN
147,Hospital,https://content.jdmagicbox.com/comp/surat/q8/0261px261.x261.101005133441.b1q8/catalogue/sanjivani-hospital-chalthan-surat-charitable-hospitals-f7gijd.jpg?clr=#402626?fit=around%7C270%3A130&crop=270%3A130%3B%2A%2C%2A,Sanjivani Hospital,Shalby Hospitals near me,National Highway N.. |,Surat,Gujarat,India,+(91)-02622-281253,https://www.justdial.com/Surat/Sanjivani-Hospital-Near-Sanjivani-Society-Kadodara-Chalthan/0261PX261-X261-101005133441-B1Q8_BZDET?xid=U3VyYXQgTXVsdGlzcGVjaWFsaXR5IEhvc3BpdGFscw==,4.1,103 Votes
148,Hospital,https://content.jdmagicbox.com/comp/surat/k2/0261px261.x261.151025133041.n7k2/catalogue/sardar-multispeciality-hospital-ved-road-surat-45332.jpg?clr=#57ff?fit=around%7C270%3A130&crop=270%3A130%3B%2A%2C%2A,Sardar Multispeciality Hosp..,Maternity Hospitals near me,Ved Road.. |,Surat,Gujarat,India,+(91)-261-2512555,https://www.justdial.com/Surat/Sardar-Multispeciality-Hospital-Ved-Road/0261PX261-X261-151025133041-N7K2_BZDET?xid=U3VyYXQgTXVsdGlzcGVjaWFsaXR5IEhvc3BpdGFscw==,4.1,NaN
149,Hospital,https://content.jdmagicbox.com/comp/surat/p5/0261px261.x261.131127120628.u3p5/catalogue/jivan-jyot-hospital-amroli-surat-hospitals-3373k3p.jpg?clr=#471f29?fit=around%7C270%3A130&crop=270%3A130%3B%2A%2C%2A,Jivan Jyot Hospital,Veterinary Hospitals near me,Opposite Jalaram T.. |,Surat,Gujarat,India,+(91)-0261-2494076,https://www.justdial.com/Surat/Jivan-Jyot-Hospital-Opposite-Jalaram-Temple-Amroli/0261PX261-X261-131127120628-U3P5_BZDET?xid=U3VyYXQgTXVsdGlzcGVjaWFsaXR5IEhvc3BpdGFscw==,4.3,101 Votes
150,Hospital,https://content.jdmagicbox.com/comp/surat/h6/0261px261.x261.190118173356.p1h6/catalogue/harshal-surgical-hospital-parvat-patia-surat-hospitals-u5gy8ve6om.jpg?clr=#412525?fit=around%7C270%3A130&crop=270%3A130%3B%2A%2C%2A,Harshal Surgical Hospital,Public Hospitals near me,"Besides Cng Pump, .. |",Surat,Gujarat,India,+(91)-0261-2647731,https://www.justdial.com/Surat/Harshal-Surgical-Hospital-Opposite-Ganga-Hotel-Parvat-Patia/0261PX261-X261-190118173356-P1H6_BZDET?xid=U3VyYXQgTXVsdGlzcGVjaWFsaXR5IEhvc3BpdGFscw==,4.2,NaN
151,Hospital,https://content.jdmagicbox.com/comp/surat/b1/0261px261.x261.170120183114.i3b1/catalogue/g-b-vaghani-multispeciality-hospital-varachha-road-surat-multispeciality-hospitals-25brl1t.jpg?clr=#4d1a1a?fit=around%7C270%3A130&crop=270%3A130%3B%2A%2C%2A,G B Vaghani Multispeciality..,Coronavirus Treatment Hospitals near me,Varachha Main Road.. |,Surat,Gujarat,India,+(91)-0261-2571011,https://www.justdial.com/Surat/G-B-Vaghani-Multispeciality-Hospital-Near-Suzuki-Show-Room-Opposite-Maharana-Pratap-Udhayan-Chopati-Varachha-Road/0261PX261-X261-170120183114-I3B1_BZDET?xid=U3VyYXQgTXVsdGlzcGVjaWFsaXR5IEhvc3BpdGFscw==,4.5,99 Votes
152,Hospital,https://content.jdmagicbox.com/comp/surat/i1/0261px261.x261.130128121059.z7i1/catalogue/bankers-heart-institute-umra-surat-cardiac-hospitals-3ovsu9r.jpg?clr=#4b3b1b?fit=around%7C270%3A130&crop=270%3A130%3B%2A%2C%2A,Bankers Heart Institute,NaN,"Floral Park Road, .. |",Surat,Gujarat,India,+(91)-8511174108,https://www.justdial.com/Surat/Bankers-Heart-Institute-Opposite-Lakeview-Garden-Behind-Shardayatan-School-Umra/0261PX261-X261-130128121059-Z7I1_BZDET?xid=U3VyYXQgTXVsdGlzcGVjaWFsaXR5IEhvc3BpdGFscw==,4.2,NaN
153,Hospital,https://content.jdmagicbox.com/def_content/homeopathic_doctors/default-homeopathic-doctors-0.jpg?clr=#572cf?fit=around%7C270%3A130&crop=270%3A130%3B%2A%2C%2A,Leelaba Multi Speciality Ho..,NaN,"Uma Complex, Kamre.. |",Surat,Gujarat,India,+(91)-9825606075,https://www.justdial.com/Surat/Leelaba-Multi-Speciality-Hospital-Behind-Ganga-Motors-Near-Uma-Complex-Kamrej-Char-Rasta/0261PX261-X261-151229112553-X7S2_BZDET?xid=U3VyYXQgTXVsdGlzcGVjaWFsaXR5IEhvc3BpdGFscw==,4.4,94 Votes
154,Hospital,https://content.jdmagicbox.com/comp/surat/b9/0261px261.x261.150321164814.p5b9/catalogue/angel-hospital-nana-varaccha-surat-hospitals-2fvcs9r.jpg?clr=#3f2727?fit=around%7C270%3A130&crop=270%3A130%3B%2A%2C%2A,Angel Hospital,NaN,"Brts Road, Nana Va.. |",Surat,Gujarat,India,+(91)-0261-6069111,https://www.justdial.com/Surat/Angel-Hospital-Opposite-Vrindavan-Farm-Nana-Varaccha/0261PX261-X261-150321164814-P5B9_BZDET?xid=U3VyYXQgTXVsdGlzcGVjaWFsaXR5IEhvc3BpdGFscw==,4.2,NaN
155,Hospital,https://content.jdmagicbox.com/comp/surat/j3/0261px261.x261.180822070442.d7j3/catalogue/jivan-jyot-diagnosis-health-centre-udhna-surat-charitable-hospitals-i25vuql5ox.jpg?clr=#666600?fit=around%7C270%3A130&crop=270%3A130%3B%2A%2C%2A,Jivan Jyot Diagnosis Health..,NaN,"Above Dream Honda,.. |",Surat,Gujarat,India,+(91)-0261-2281227,https://www.justdial.com/Surat/Jivan-Jyot-Diagnosis-Health-Centre-Opposite-Staynagar-BRTS-Above-Dream-Honda-Udhna/0261PX261-X261-180822070442-D7J3_BZDET?xid=U3VyYXQgTXVsdGlzcGVjaWFsaXR5IEhvc3BpdGFscw==,4.0,89 Votes
156,Hospital,https://content.jdmagicbox.com/comp/def_content/ambulance_services/default-ambulance-services-9.jpg?clr=#402626?fit=around%7C270%3A130&crop=270%3A130%3B%2A%2C%2A,Om Shivam Multi Speciality ..,NaN,Sachin Station Roa.. |,Surat,Gujarat,India,+(91)-261-2396551,https://www.justdial.com/Surat/Om-Shivam-Multi-Speciality-Hospital-Near-Sachin-Post-Office-Sachin/0261PX261-X261-150204181016-I6C8_BZDET?xid=U3VyYXQgTXVsdGlzcGVjaWFsaXR5IEhvc3BpdGFscw==,2.9,NaN
157,Hospital,https://content.jdmagicbox.com/comp/surat/z6/0261px261.x261.190905210532.m3z6/catalogue/niramay-multispeciality-hospital-palanpur-jakat-naka-surat-physiotherapists-ugzpwexcds.jpg?clr=#551133?fit=around%7C270%3A130&crop=270%3A130%3B%2A%2C%2A,Niramay Multispeciality Hos..,NaN,"Virpur Road, Palan.. |",Surat,Gujarat,India,+(91)-7046102037,https://www.justdial.com/Surat/Niramay-Multispeciality-Hospital-Opposite-State-Bank-Of-India-Palanpur-Jakat-Naka/0261PX261-X261-190905210532-M3Z6_BZDET?xid=U3VyYXQgTXVsdGlzcGVjaWFsaXR5IEhvc3BpdGFscw==,4.8,83 Votes
158,Hospital,https://content.jdmagicbox.com/comp/surat/f4/0261px261.x261.181003031915.h1f4/catalogue/kamrej-multispeciality-hospital-kamrej-char-rasta-surat-multispeciality-hospitals-v63jnj77hi.jpg?clr=#660038?fit=around%7C270%3A130&crop=270%3A130%3B%2A%2C%2A,Kamrej Multispeciality Hosp..,NaN,"T Bus, Kamrej Char.. |",Surat,Gujarat,India,+(91)-9426657480,https://www.justdial.com/Surat/Kamrej-Multispeciality-Hospital-Opposite-S-T-Bus-Stand-Kamrej-Char-Rasta/0261PX261-X261-181003031915-H1F4_BZDET?xid=U3VyYXQgTXVsdGlzcGVjaWFsaXR5IEhvc3BpdGFscw==,4.9,NaN
159,Hospital,https://content.jdmagicbox.com/comp/surat/f5/0261px261.x261.180207215448.z4f5/catalogue/we-care-multispeciality-hospital-katargam-surat-hospitals-bbgijnflru.jpg?clr=#333333?fit=around%7C270%3A130&crop=270%3A130%3B%2A%2C%2A,We Care Multispeciality Hos..,NaN,Opposite Gajera Sc.. |,Surat,Gujarat,India,+(91)-261-6572572,https://www.justdial.com/Surat/We-Care-Multispeciality-Hospital-Opposite-Gajera-School-Katargam/0261PX261-X261-180207215448-Z4F5_BZDET?xid=U3VyYXQgTXVsdGlzcGVjaWFsaXR5IEhvc3BpdGFscw==,4.6,76 Votes
160,Hospital,https://content.jdmagicbox.com/comp/surat/h6/0261px261.x261.190118173356.p1h6/catalogue/harshal-surgical-hospital-parvat-patia-surat-hospitals-u5gy8ve6om.jpg?clr=#412525?fit=around%7C270%3A130&crop=270%3A130%3B%2A%2C%2A,Harshal Surgical Hospital,Multispeciality Hospitals in Surat,"Besides Cng Pump, .. |",Surat,Gujarat,India,+(91)-0261-2647731,https://www.justdial.com/Surat/Harshal-Surgical-Hospital-Opposite-Ganga-Hotel-Parvat-Patia/0261PX261-X261-190118173356-P1H6_BZDET?xid=U3VyYXQgTXVsdGlzcGVjaWFsaXR5IEhvc3BpdGFscw==,4.2,NaN
161,Hospital,https://content.jdmagicbox.com/comp/surat/b1/0261px261.x261.170120183114.i3b1/catalogue/g-b-vaghani-multispeciality-hospital-varachha-road-surat-multispeciality-hospitals-25brl1t.jpg?clr=#4d1a1a?fit=around%7C270%3A130&crop=270%3A130%3B%2A%2C%2A,G B Vaghani Multispeciality..,Multispeciality Hospitals,Varachha Main Road.. |,Surat,Gujarat,India,+(91)-0261-2571011,https://www.justdial.com/Surat/G-B-Vaghani-Multispeciality-Hospital-Near-Suzuki-Show-Room-Opposite-Maharana-Pratap-Udhayan-Chopati-Varachha-Road/0261PX261-X261-170120183114-I3B1_BZDET?xid=U3VyYXQgTXVsdGlzcGVjaWFsaXR5IEhvc3BpdGFscw==,4.5,70 Votes
162,Hospital,https://content.jdmagicbox.com/comp/surat/i1/0261px261.x261.130128121059.z7i1/catalogue/bankers-heart-institute-umra-surat-cardiac-hospitals-3ovsu9r.jpg?clr=#4b3b1b?fit=around%7C270%3A130&crop=270%3A130%3B%2A%2C%2A,Bankers Heart Institute,Hospitals near me,"Floral Park Road, .. |",Surat,Gujarat,India,+(91)-8511174108,https://www.justdial.com/Surat/Bankers-Heart-Institute-Opposite-Lakeview-Garden-Behind-Shardayatan-School-Umra/0261PX261-X261-130128121059-Z7I1_BZDET?xid=U3VyYXQgTXVsdGlzcGVjaWFsaXR5IEhvc3BpdGFscw==,4.2,NaN
163,Hospital,https://content.jdmagicbox.com/def_content/homeopathic_doctors/default-homeopathic-doctors-0.jpg?clr=#572cf?fit=around%7C270%3A130&crop=270%3A130%3B%2A%2C%2A,Leelaba Multi Speciality Ho..,Private Hospitals near me,"Uma Complex, Kamre.. |",Surat,Gujarat,India,+(91)-9825606075,https://www.justdial.com/Surat/Leelaba-Multi-Speciality-Hospital-Behind-Ganga-Motors-Near-Uma-Complex-Kamrej-Char-Rasta/0261PX261-X261-151229112553-X7S2_BZDET?xid=U3VyYXQgTXVsdGlzcGVjaWFsaXR5IEhvc3BpdGFscw==,4.4,64 Votes
164,Hospital,https://content.jdmagicbox.com/comp/surat/b9/0261px261.x261.150321164814.p5b9/catalogue/angel-hospital-nana-varaccha-surat-hospitals-2fvcs9r.jpg?clr=#3f2727?fit=around%7C270%3A130&crop=270%3A130%3B%2A%2C%2A,Angel Hospital,Eye Hospitals near me,"Brts Road, Nana Va.. |",Surat,Gujarat,India,+(91)-0261-6069111,https://www.justdial.com/Surat/Angel-Hospital-Opposite-Vrindavan-Farm-Nana-Varaccha/0261PX261-X261-150321164814-P5B9_BZDET?xid=U3VyYXQgTXVsdGlzcGVjaWFsaXR5IEhvc3BpdGFscw==,4.2,NaN
165,Hospital,https://content.jdmagicbox.com/comp/surat/j3/0261px261.x261.180822070442.d7j3/catalogue/jivan-jyot-diagnosis-health-centre-udhna-surat-charitable-hospitals-i25vuql5ox.jpg?clr=#666600?fit=around%7C270%3A130&crop=270%3A130%3B%2A%2C%2A,Jivan Jyot Diagnosis Health..,Children Hospitals near me,"Above Dream Honda,.. |",Surat,Gujarat,India,+(91)-0261-2281227,https://www.justdial.com/Surat/Jivan-Jyot-Diagnosis-Health-Centre-Opposite-Staynagar-BRTS-Above-Dream-Honda-Udhna/0261PX261-X261-180822070442-D7J3_BZDET?xid=U3VyYXQgTXVsdGlzcGVjaWFsaXR5IEhvc3BpdGFscw==,4.0,58 Votes
166,Hospital,https://content.jdmagicbox.com/comp/def_content/ambulance_services/default-ambulance-services-9.jpg?clr=#402626?fit=around%7C270%3A130&crop=270%3A130%3B%2A%2C%2A,Om Shivam Multi Speciality ..,Charitable Hospitals near me,Sachin Station Roa.. |,Surat,Gujarat,India,+(91)-261-2396551,https://www.justdial.com/Surat/Om-Shivam-Multi-Speciality-Hospital-Near-Sachin-Post-Office-Sachin/0261PX261-X261-150204181016-I6C8_BZDET?xid=U3VyYXQgTXVsdGlzcGVjaWFsaXR5IEhvc3BpdGFscw==,2.9,NaN
167,Hospital,https://content.jdmagicbox.com/comp/surat/z6/0261px261.x261.190905210532.m3z6/catalogue/niramay-multispeciality-hospital-palanpur-jakat-naka-surat-physiotherapists-ugzpwexcds.jpg?clr=#551133?fit=around%7C270%3A130&crop=270%3A130%3B%2A%2C%2A,Niramay Multispeciality Hos..,Shalby Hospitals near me,"Virpur Road, Palan.. |",Surat,Gujarat,India,+(91)-7046102037,https://www.justdial.com/Surat/Niramay-Multispeciality-Hospital-Opposite-State-Bank-Of-India-Palanpur-Jakat-Naka/0261PX261-X261-190905210532-M3Z6_BZDET?xid=U3VyYXQgTXVsdGlzcGVjaWFsaXR5IEhvc3BpdGFscw==,4.8,54 Votes
168,Hospital,https://content.jdmagicbox.com/comp/surat/f4/0261px261.x261.181003031915.h1f4/catalogue/kamrej-multispeciality-hospital-kamrej-char-rasta-surat-multispeciality-hospitals-v63jnj77hi.jpg?clr=#660038?fit=around%7C270%3A130&crop=270%3A130%3B%2A%2C%2A,Kamrej Multispeciality Hosp..,Maternity Hospitals near me,"T Bus, Kamrej Char.. |",Surat,Gujarat,India,+(91)-9426657480,https://www.justdial.com/Surat/Kamrej-Multispeciality-Hospital-Opposite-S-T-Bus-Stand-Kamrej-Char-Rasta/0261PX261-X261-181003031915-H1F4_BZDET?xid=U3VyYXQgTXVsdGlzcGVjaWFsaXR5IEhvc3BpdGFscw==,4.9,NaN
169,Hospital,https://content.jdmagicbox.com/comp/surat/f5/0261px261.x261.180207215448.z4f5/catalogue/we-care-multispeciality-hospital-katargam-surat-hospitals-bbgijnflru.jpg?clr=#333333?fit=around%7C270%3A130&crop=270%3A130%3B%2A%2C%2A,We Care Multispeciality Hos..,Veterinary Hospitals near me,Opposite Gajera Sc.. |,Surat,Gujarat,India,+(91)-261-6572572,https://www.justdial.com/Surat/We-Care-Multispeciality-Hospital-Opposite-Gajera-School-Katargam/0261PX261-X261-180207215448-Z4F5_BZDET?xid=U3VyYXQgTXVsdGlzcGVjaWFsaXR5IEhvc3BpdGFscw==,4.6,47 Votes
170,Hospital,https://content.jdmagicbox.com/comp/surat/83/0261p261std1663083/catalogue/shiv-jyoti-hospital-bardoli-surat-hospitals-jl6vxwqxg4.jpg?clr=#28333e?fit=around%7C270%3A130&crop=270%3A130%3B%2A%2C%2A,Shiv Jyoti Hospital,Public Hospitals near me,"Gandhi Road, Bardo.. |",Surat,Gujarat,India,+(91)-02622-225520,https://www.justdial.com/Surat/Shiv-Jyoti-Hospital-Opposite-Sardar-Hospital-Bardoli/0261P261STD1663083_BZDET?xid=U3VyYXQgTXVsdGlzcGVjaWFsaXR5IEhvc3BpdGFscw==,4.2,NaN
171,Hospital,https://content.jdmagicbox.com/comp/surat/v8/0261px261.x261.110215163435.w2v8/catalogue/sita-hospital-ring-road-surat-hospitals-33ayv3y.jpg?clr=#4d4d1a?fit=around%7C270%3A130&crop=270%3A130%3B%2A%2C%2A,Sita Hospital,Coronavirus Treatment Hospitals near me,"Beside Sub Jail, R.. |",Surat,Gujarat,India,+(91)-0261-2632100,https://www.justdial.com/Surat/Sita-Hospital-Beside-Sub-Jail-Ring-Road/0261PX261-X261-110215163435-W2V8_BZDET?xid=U3VyYXQgTXVsdGlzcGVjaWFsaXR5IEhvc3BpdGFscw==,3.8,45 Votes
172,Hospital,https://content.jdmagicbox.com/comp/surat/i8/0261px261.x261.120525121238.b3i8/catalogue/piplod-hospital-piplod-surat-hospitals-2aoqd5m.jpg?clr=#293d29?fit=around%7C270%3A130&crop=270%3A130%3B%2A%2C%2A,Piplod Hospital,NaN,Lakeview Garden Ro.. |,Surat,Gujarat,India,+(91)-9624447762,https://www.justdial.com/Surat/Piplod-Hospital-Near-Piopld-Jakat-Naka-Piplod/0261PX261-X261-120525121238-B3I8_BZDET?xid=U3VyYXQgTXVsdGlzcGVjaWFsaXR5IEhvc3BpdGFscw==,4.7,NaN
173,Hospital,https://content.jdmagicbox.com/comp/surat/v6/0261px261.x261.140903143906.x8v6/catalogue/ankoor-hospital-vesu-surat-hospitals-dd4i0.jpg?clr=#3d3d29?fit=around%7C270%3A130&crop=270%3A130%3B%2A%2C%2A,Ankoor Hospital,NaN,"Vesu Road, Vesu.. |",Surat,Gujarat,India,+(91)-261-2215667,https://www.justdial.com/Surat/Ankoor-Hospital-Near-Someshwara-Enclave-Vesu/0261PX261-X261-140903143906-X8V6_BZDET?xid=U3VyYXQgTXVsdGlzcGVjaWFsaXR5IEhvc3BpdGFscw==,4.6,45 Votes
174,Hospital,https://content.jdmagicbox.com/comp/surat/t3/0261px261.x261.150421192927.l3t3/catalogue/amity-neuro-care-and-epilepsy-clinic-varachha-road-surat-neuro-physician-doctors-ik523.jpg?clr=#264040?fit=around%7C270%3A130&crop=270%3A130%3B%2A%2C%2A,Amity Neuro Care and Epilep..,NaN,"Near Hans Society,.. |",Surat,Gujarat,India,+(91)-261-2554564,https://www.justdial.com/Surat/Amity-Neuro-Care-and-Epilepsy-Clinic-Above-Arihant-Jewellers-Near-Hans-Society-Varachha-Road/0261PX261-X261-150421192927-L3T3_BZDET?xid=U3VyYXQgTXVsdGlzcGVjaWFsaXR5IEhvc3BpdGFscw==,4.4,NaN
175,Hospital,https://content.jdmagicbox.com/comp/surat/z3/0261px261.x261.180116150031.u2z3/catalogue/niyati-hospital-vesu-surat-hospitals-yum9b.jpeg?clr=#4f172d?fit=around%7C270%3A130&crop=270%3A130%3B%2A%2C%2A,Niyati Hospital,NaN,Someshwar Cross Ro.. |,Surat,Gujarat,India,+(91)-9726946937,https://www.justdial.com/Surat/Niyati-Hospital-Opposite-Aagam-Heritage-Vesu/0261PX261-X261-180116150031-U2Z3_BZDET?xid=U3VyYXQgTXVsdGlzcGVjaWFsaXR5IEhvc3BpdGFscw==,4.9,38 Votes
176,Hospital,https://content.jdmagicbox.com/comp/surat/y1/0261px261.x261.131003112057.j2y1/catalogue/jamna-ba-sarvajanik-hospital-bardoli-surat-hospitals-236o03i.jpg?clr=#4d331a?fit=around%7C270%3A130&crop=270%3A130%3B%2A%2C%2A,Jamna Ba Sarvajanik Hospita..,NaN,"Surti Zampa, Bardo.. |",Surat,Gujarat,India,230,https://www.justdial.com/Surat/Jamna-Ba-Sarvajanik-Hospital-Near-Linear-Bus-Stand-Surti-Zampa-Bardoli/0261PX261-X261-131003112057-J2Y1_BZDET?xid=U3VyYXQgTXVsdGlzcGVjaWFsaXR5IEhvc3BpdGFscw==,4.3,NaN
177,Hospital,https://content.jdmagicbox.com/comp/surat/x6/0261px261.x261.180911112723.b1x6/catalogue/amina-sarvajanik-hospital-gabheni-surat-hospitals-rrdyb5m5n9.jpg?clr=#382e38?fit=around%7C270%3A130&crop=270%3A130%3B%2A%2C%2A,Amina Sarvajanik Hospital,NaN,"Gabheni Road, Gabh.. |",Surat,Gujarat,India,+(91)-0261-2399625,https://www.justdial.com/Surat/Amina-Sarvajanik-Hospital-Near-Rahat-Society-Gabheni/0261PX261-X261-180911112723-B1X6_BZDET?xid=U3VyYXQgTXVsdGlzcGVjaWFsaXR5IEhvc3BpdGFscw==,3.9,37 Votes
178,Hospital,https://content.jdmagicbox.com/comp/def_content/hospitals/default-hospitals-21.jpg?clr=#224444?fit=around%7C270%3A130&crop=270%3A130%3B%2A%2C%2A,Sparkle Hospital And Icu,NaN,"Simada Char Rasta,.. |",Surat,Gujarat,India,+(91)-9081133372,https://www.justdial.com/Surat/Sparkle-Hospital-And-Icu-Behind-Swminarayan-Temple-Near-Sarthana-Nana-Varaccha/0261PX261-X261-190530135520-P3L1_BZDET?xid=U3VyYXQgTXVsdGlzcGVjaWFsaXR5IEhvc3BpdGFscw==,4.4,NaN
179,Hospital,https://content.jdmagicbox.com/comp/surat/a8/0261px261.x261.150918122755.k8a8/catalogue/samarpan-multi-speciality-hospital-sachin-surat-hospitals-3bfbxeb.jpg?clr=#293d3d?fit=around%7C270%3A130&crop=270%3A130%3B%2A%2C%2A,Samarpan Multi Speciality H..,NaN,Surat Navsari Road.. |,Surat,Gujarat,India,+(91)-0261-2391663,https://www.justdial.com/Surat/Samarpan-Multi-Speciality-Hospital-Near-Gujarat-Housing-Board-Sachin/0261PX261-X261-150918122755-K8A8_BZDET?xid=U3VyYXQgTXVsdGlzcGVjaWFsaXR5IEhvc3BpdGFscw==,3.7,37 Votes
180,Hospital,https://content.jdmagicbox.com/comp/surat/83/0261p261std1663083/catalogue/shiv-jyoti-hospital-bardoli-surat-hospitals-jl6vxwqxg4.jpg?clr=#28333e?fit=around%7C270%3A130&crop=270%3A130%3B%2A%2C%2A,Shiv Jyoti Hospital,Multispeciality Hospitals in Surat,"Gandhi Road, Bardo.. |",Surat,Gujarat,India,+(91)-02622-225520,https://www.justdial.com/Surat/Shiv-Jyoti-Hospital-Opposite-Sardar-Hospital-Bardoli/0261P261STD1663083_BZDET?xid=U3VyYXQgTXVsdGlzcGVjaWFsaXR5IEhvc3BpdGFscw==,4.2,NaN
181,Hospital,https://content.jdmagicbox.com/comp/surat/v8/0261px261.x261.110215163435.w2v8/catalogue/sita-hospital-ring-road-surat-hospitals-33ayv3y.jpg?clr=#4d4d1a?fit=around%7C270%3A130&crop=270%3A130%3B%2A%2C%2A,Sita Hospital,Multispeciality Hospitals,"Beside Sub Jail, R.. |",Surat,Gujarat,India,+(91)-0261-2632100,https://www.justdial.com/Surat/Sita-Hospital-Beside-Sub-Jail-Ring-Road/0261PX261-X261-110215163435-W2V8_BZDET?xid=U3VyYXQgTXVsdGlzcGVjaWFsaXR5IEhvc3BpdGFscw==,3.8,37 Votes
182,Hospital,https://content.jdmagicbox.com/comp/surat/i8/0261px261.x261.120525121238.b3i8/catalogue/piplod-hospital-piplod-surat-hospitals-2aoqd5m.jpg?clr=#293d29?fit=around%7C270%3A130&crop=270%3A130%3B%2A%2C%2A,Piplod Hospital,Hospitals near me,Lakeview Garden Ro.. |,Surat,Gujarat,India,+(91)-9624447762,https://www.justdial.com/Surat/Piplod-Hospital-Near-Piopld-Jakat-Naka-Piplod/0261PX261-X261-120525121238-B3I8_BZDET?xid=U3VyYXQgTXVsdGlzcGVjaWFsaXR5IEhvc3BpdGFscw==,4.7,NaN
183,Hospital,https://content.jdmagicbox.com/comp/surat/v6/0261px261.x261.140903143906.x8v6/catalogue/ankoor-hospital-vesu-surat-hospitals-dd4i0.jpg?clr=#3d3d29?fit=around%7C270%3A130&crop=270%3A130%3B%2A%2C%2A,Ankoor Hospital,Private Hospitals near me,"Vesu Road, Vesu.. |",Surat,Gujarat,India,+(91)-261-2215667,https://www.justdial.com/Surat/Ankoor-Hospital-Near-Someshwara-Enclave-Vesu/0261PX261-X261-140903143906-X8V6_BZDET?xid=U3VyYXQgTXVsdGlzcGVjaWFsaXR5IEhvc3BpdGFscw==,4.6,31 Votes
184,Hospital,https://content.jdmagicbox.com/comp/surat/t3/0261px261.x261.150421192927.l3t3/catalogue/amity-neuro-care-and-epilepsy-clinic-varachha-road-surat-neuro-physician-doctors-ik523.jpg?clr=#264040?fit=around%7C270%3A130&crop=270%3A130%3B%2A%2C%2A,Amity Neuro Care and Epilep..,Eye Hospitals near me,"Near Hans Society,.. |",Surat,Gujarat,India,+(91)-261-2554564,https://www.justdial.com/Surat/Amity-Neuro-Care-and-Epilepsy-Clinic-Above-Arihant-Jewellers-Near-Hans-Society-Varachha-Road/0261PX261-X261-150421192927-L3T3_BZDET?xid=U3VyYXQgTXVsdGlzcGVjaWFsaXR5IEhvc3BpdGFscw==,4.4,NaN
185,Hospital,https://content.jdmagicbox.com/comp/surat/z3/0261px261.x261.180116150031.u2z3/catalogue/niyati-hospital-vesu-surat-hospitals-yum9b.jpeg?clr=#4f172d?fit=around%7C270%3A130&crop=270%3A130%3B%2A%2C%2A,Niyati Hospital,Children Hospitals near me,Someshwar Cross Ro.. |,Surat,Gujarat,India,+(91)-9726946937,https://www.justdial.com/Surat/Niyati-Hospital-Opposite-Aagam-Heritage-Vesu/0261PX261-X261-180116150031-U2Z3_BZDET?xid=U3VyYXQgTXVsdGlzcGVjaWFsaXR5IEhvc3BpdGFscw==,4.9,29 Votes
186,Hospital,https://content.jdmagicbox.com/comp/surat/y1/0261px261.x261.131003112057.j2y1/catalogue/jamna-ba-sarvajanik-hospital-bardoli-surat-hospitals-236o03i.jpg?clr=#4d331a?fit=around%7C270%3A130&crop=270%3A130%3B%2A%2C%2A,Jamna Ba Sarvajanik Hospita..,Charitable Hospitals near me,"Surti Zampa, Bardo.. |",Surat,Gujarat,India,230,https://www.justdial.com/Surat/Jamna-Ba-Sarvajanik-Hospital-Near-Linear-Bus-Stand-Surti-Zampa-Bardoli/0261PX261-X261-131003112057-J2Y1_BZDET?xid=U3VyYXQgTXVsdGlzcGVjaWFsaXR5IEhvc3BpdGFscw==,4.3,NaN
187,Hospital,https://content.jdmagicbox.com/comp/surat/x6/0261px261.x261.180911112723.b1x6/catalogue/amina-sarvajanik-hospital-gabheni-surat-hospitals-rrdyb5m5n9.jpg?clr=#382e38?fit=around%7C270%3A130&crop=270%3A130%3B%2A%2C%2A,Amina Sarvajanik Hospital,Shalby Hospitals near me,"Gabheni Road, Gabh.. |",Surat,Gujarat,India,+(91)-0261-2399625,https://www.justdial.com/Surat/Amina-Sarvajanik-Hospital-Near-Rahat-Society-Gabheni/0261PX261-X261-180911112723-B1X6_BZDET?xid=U3VyYXQgTXVsdGlzcGVjaWFsaXR5IEhvc3BpdGFscw==,3.9,27 Votes
188,Hospital,https://content.jdmagicbox.com/comp/def_content/hospitals/default-hospitals-21.jpg?clr=#224444?fit=around%7C270%3A130&crop=270%3A130%3B%2A%2C%2A,Sparkle Hospital And Icu,Maternity Hospitals near me,"Simada Char Rasta,.. |",Surat,Gujarat,India,+(91)-9081133372,https://www.justdial.com/Surat/Sparkle-Hospital-And-Icu-Behind-Swminarayan-Temple-Near-Sarthana-Nana-Varaccha/0261PX261-X261-190530135520-P3L1_BZDET?xid=U3VyYXQgTXVsdGlzcGVjaWFsaXR5IEhvc3BpdGFscw==,4.4,NaN
189,Hospital,https://content.jdmagicbox.com/comp/surat/a8/0261px261.x261.150918122755.k8a8/catalogue/samarpan-multi-speciality-hospital-sachin-surat-hospitals-3bfbxeb.jpg?clr=#293d3d?fit=around%7C270%3A130&crop=270%3A130%3B%2A%2C%2A,Samarpan Multi Speciality H..,Veterinary Hospitals near me,Surat Navsari Road.. |,Surat,Gujarat,India,+(91)-0261-2391663,https://www.justdial.com/Surat/Samarpan-Multi-Speciality-Hospital-Near-Gujarat-Housing-Board-Sachin/0261PX261-X261-150918122755-K8A8_BZDET?xid=U3VyYXQgTXVsdGlzcGVjaWFsaXR5IEhvc3BpdGFscw==,3.7,27 Votes
